{
  "version": 0.6,
  "generator": "Overpass API 0.7.62.7 375dc00a",
  "osm3s": {
    "timestamp_osm_base": "2025-07-02T11:14:15Z",
    "timestamp_areas_base": "2025-07-02T08:19:40Z",
    "copyright": "The data included in this document is from www.openstreetmap.org. The data is made available under ODbL."
  },
  "elements": [
    {
      "type": "relation",
      "id": 1685673,
      "tags": {
        "ISO3166-2": "CH-GL",
        "admin_level": "4",
        "alt_name": "Kanton Glarus",
        "boundary": "administrative",
        "name": "Glarus",
        "name:bg": "Гларус",
        "name:ca": "Cantó de Glarus",
        "name:de": "Glarus",
        "name:en": "Glarus",
        "name:es": "Glaris",
        "name:fr": "Glaris",
        "name:gsw": "Glaris",
        "name:it": "Glarona",
        "name:prefix": "Kanton",
        "name:rm": "Glaruna",
        "name:ro": "Glarus",
        "name:ru": "Гларус",
        "name:uk": "Гларус",
        "ref": "GL",
        "ref:nuts:3": "CH051",
        "source": "swissBOUNDARIES3D swisstopo 2011",
        "swisstopo:BEZIRKSNUM": "800",
        "swisstopo:KANTONSNUM": "8",
        "type": "boundary",
        "wikidata": "Q11922",
        "wikipedia": "de:Kanton Glarus"
      }
    },
    {
      "type": "relation",
      "id": 1685677,
      "tags": {
        "ISO3166-2": "CH-LU",
        "admin_level": "4",
        "alt_name": "Kanton Luzern",
        "boundary": "administrative",
        "name": "Luzern",
        "name:ca": "Cantó de Lucerna",
        "name:de": "Luzern",
        "name:en": "Lucerne",
        "name:es": "Lucerna",
        "name:fr": "Lucerne",
        "name:it": "Lucerna",
        "name:pl": "Lucerna",
        "name:prefix": "Kanton",
        "name:rm": "Lucerna",
        "name:ro": "Lucerna",
        "name:ru": "Люцерн",
        "name:uk": "Люцерн",
        "ref": "LU",
        "ref:nuts:3": "CH061",
        "swisstopo:KANTONSNUM": "3",
        "type": "boundary",
        "wikidata": "Q12121",
        "wikipedia": "de:Kanton Luzern"
      }
    },
    {
      "type": "relation",
      "id": 1686344,
      "tags": {
        "ISO3166-2": "CH-BE",
        "admin_level": "4",
        "alt_name": "Kanton Bern",
        "alt_name:ar": "كانتون برن",
        "alt_name:ca": "Cantó de Berna",
        "alt_name:de": "Kanton Bern",
        "alt_name:en": "Canton of Bern",
        "alt_name:es": "Cantón de Berna",
        "alt_name:fr": "Canton de Berne",
        "alt_name:gsw": "Kanton Bärn",
        "alt_name:it": "Canton Berna",
        "alt_name:pt": "Cantão de Bern",
        "alt_name:rm": "Chantun Berna",
        "boundary": "administrative",
        "loc_name": "Bärn",
        "name": "Bern/Berne",
        "name:am": "ቤርን",
        "name:an": "Berna",
        "name:ar": "برن",
        "name:arc": "ܒܪܢ",
        "name:ast": "Berna",
        "name:azb": "برن",
        "name:be": "Берн",
        "name:bg": "Берн",
        "name:bn": "বের্ন",
        "name:bo": "པོར་ནི",
        "name:br": "Bern",
        "name:ca": "Berna",
        "name:ckb": "بێرن",
        "name:cs": "Bern",
        "name:cv": "Берн",
        "name:de": "Bern",
        "name:el": "Βέρνη",
        "name:en": "Bern",
        "name:eo": "Berno",
        "name:es": "Berna",
        "name:eu": "Berna",
        "name:fa": "برن",
        "name:fr": "Berne",
        "name:frp": "Bèrna",
        "name:fur": "Berna",
        "name:gd": "Berne",
        "name:gl": "Berna",
        "name:gsw": "Bärn",
        "name:gv": "Berne",
        "name:he": "ברן",
        "name:hi": "बर्न",
        "name:ht": "Bèn",
        "name:hy": "Բեռն",
        "name:is": "Bern",
        "name:it": "Berna",
        "name:ja": "ベルン",
        "name:ka": "ბერნი",
        "name:kab-Arab": "بيرن",
        "name:kk-Arab": "بەرن",
        "name:kmr": "بەرن",
        "name:ko": "베른",
        "name:ks": "برن",
        "name:ku-Arab": "بەرن",
        "name:la": "Berna",
        "name:lij": "Berna",
        "name:lmo": "Berna",
        "name:lrc": "برن",
        "name:lt": "Bernas",
        "name:lv": "Berne",
        "name:lzh": "伯恩",
        "name:mk": "Берн",
        "name:ml": "ബേണ്",
        "name:mr": "बर्न",
        "name:nah": "Berna",
        "name:nl": "Bern",
        "name:oc": "Bèrna",
        "name:os": "Берн",
        "name:ota": "برن",
        "name:pdc": "Bann",
        "name:pl": "Berno",
        "name:pms": "Berna",
        "name:pnb": "برن",
        "name:prefix": "Kanton",
        "name:ps": "برن",
        "name:pt": "Berna",
        "name:rm": "Berna",
        "name:ro": "Berna",
        "name:ru": "Берн",
        "name:scn": "Berna",
        "name:sk": "Bern",
        "name:sq": "Berni",
        "name:sr": "Берн",
        "name:tg": "Берн",
        "name:th": "เบิร์น",
        "name:tt": "Берн",
        "name:ug": "بېرن",
        "name:uk": "Берн",
        "name:ur": "برن",
        "name:vec": "Berna",
        "name:wuu": "办合纳",
        "name:yi": "בערן",
        "name:zh": "伯尔尼 / 伯恩 / 伯爾尼",
        "name:zh-Hans": "伯尔尼",
        "name:zh-Hant": "伯恩 / 伯爾尼",
        "name:zh-Hant-CN": "伯爾尼",
        "name:zh-Hant-HK": "伯爾尼",
        "name:zh-Hant-TW": "伯恩",
        "ref": "BE",
        "ref:nuts:3": "CH021",
        "source:name:oc": "ieo-bdtopoc",
        "swisstopo:KANTONSNUM": "2",
        "type": "boundary",
        "wikidata": "Q11911",
        "wikipedia": "de:Kanton Bern"
      }
    },
    {
      "type": "relation",
      "id": 1686359,
      "tags": {
        "ISO3166-2": "CH-AG",
        "admin_level": "4",
        "alt_name": "Kanton Aargau",
        "alt_name:en": "Argovia",
        "boundary": "administrative",
        "name": "Aargau",
        "name:ca": "Argòvia",
        "name:cs": "Argov",
        "name:de": "Aargau",
        "name:en": "Aargau",
        "name:fr": "Argovie",
        "name:gsw": "Aargou",
        "name:it": "Argovia",
        "name:prefix": "Kanton",
        "name:rm": "Argovia",
        "name:ro": "Aargau",
        "name:ru": "Аргау",
        "name:uk": "Ааргау",
        "ref": "AG",
        "ref:nuts:3": "CH033",
        "source": "swissBOUNDARIES3D swisstopo 2011",
        "swisstopo:KANTONSNUM": "19",
        "type": "boundary",
        "wikidata": "Q11972",
        "wikipedia": "de:Kanton Aargau"
      }
    },
    {
      "type": "relation",
      "id": 1686366,
      "tags": {
        "ISO3166-2": "CH-BL",
        "admin_level": "4",
        "alt_name": "Kanton Basel-Landschaft",
        "alt_name:en": "Basel-Country",
        "boundary": "administrative",
        "loc_name": "Baselland;Baselbiet",
        "name": "Basel-Landschaft",
        "name:be": "Базель-Ланд",
        "name:ca": "Basilea-Camp",
        "name:de": "Basel-Landschaft",
        "name:en": "Basel-Landschaft",
        "name:eo": "Bazelo Kampara",
        "name:es": "Basilea-Campiña",
        "name:fr": "Bâle-Campagne",
        "name:it": "Basilea Campagna",
        "name:nl": "Bazel-Land",
        "name:prefix": "Kanton",
        "name:rm": "Basilea-Champagna",
        "name:ru": "Базель-Ланд",
        "name:sk": "Bazilej - vidiek",
        "name:uk": "Базель-Ланд",
        "ref": "BL",
        "ref:nuts:3": "CH032",
        "source": "swissBOUNDARIES3D swisstopo 2011",
        "swisstopo:KANTONSNUM": "13",
        "type": "boundary",
        "wikidata": "Q12146",
        "wikipedia": "de:Kanton Basel-Landschaft"
      }
    },
    {
      "type": "relation",
      "id": 1686447,
      "tags": {
        "ISO3166-2": "CH-ZG",
        "admin_level": "4",
        "alt_name": "Kanton Zug",
        "boundary": "administrative",
        "name": "Zug",
        "name:ca": "Cantó de Zug",
        "name:de": "Zug",
        "name:en": "Zug",
        "name:fr": "Zoug",
        "name:it": "Zugo",
        "name:prefix": "Kanton",
        "name:rm": "Zug",
        "name:ro": "Zug",
        "name:ru": "Цуг",
        "name:uk": "Цуг",
        "ref": "ZG",
        "ref:nuts:3": "CH066",
        "source": "swissBOUNDARIES3D swisstopo 2011",
        "swisstopo:BEZIRKSNUM": "900",
        "swisstopo:KANTONSNUM": "9",
        "type": "boundary",
        "wikidata": "Q11933",
        "wikipedia": "de:Kanton Zug"
      }
    },
    {
      "type": "relation",
      "id": 1686448,
      "tags": {
        "ISO3166-2": "CH-OW",
        "admin_level": "4",
        "alt_name": "Kanton Obwalden",
        "boundary": "administrative",
        "name": "Obwalden",
        "name:ca": "Obwalden",
        "name:de": "Obwalden",
        "name:en": "Obwalden",
        "name:fr": "Obwald",
        "name:gsw": "Obwaldä",
        "name:it": "Obvaldo",
        "name:prefix": "Kanton",
        "name:rm": "Sursilvania",
        "name:ro": "Obwald",
        "name:ru": "Обвальден",
        "name:uk": "Обвальден",
        "ref": "OW",
        "ref:nuts:3": "CH064",
        "swisstopo:BEZIRKSNUM": "600",
        "swisstopo:KANTONSNUM": "6",
        "type": "boundary",
        "wikidata": "Q12573",
        "wikipedia": "de:Kanton Obwalden"
      }
    },
    {
      "type": "relation",
      "id": 1686449,
      "tags": {
        "ISO3166-2": "CH-NW",
        "admin_level": "4",
        "alt_name": "Kanton Nidwalden",
        "boundary": "administrative",
        "name": "Nidwalden",
        "name:ca": "Nidwalden",
        "name:de": "Nidwalden",
        "name:en": "Nidwalden",
        "name:fr": "Nidwald",
        "name:it": "Nidvaldo",
        "name:prefix": "Kanton",
        "name:rm": "Sutsilvania",
        "name:ro": "Nidwald",
        "name:ru": "Нидвальден",
        "name:uk": "Нідвальден",
        "ref": "NW",
        "ref:nuts:3": "CH065",
        "source": "swissBOUNDARIES3D swisstopo 2011",
        "swisstopo:BEZIRKSNUM": "700",
        "swisstopo:KANTONSNUM": "7",
        "type": "boundary",
        "wikidata": "Q12592",
        "wikipedia": "de:Kanton Nidwalden"
      }
    },
    {
      "type": "relation",
      "id": 1686631,
      "tags": {
        "ISO3166-2": "CH-GR",
        "admin_level": "4",
        "alt_name": "Kanton Graubünden",
        "boundary": "administrative",
        "name": "Graubünden/Grischun/Grigioni",
        "name:ar": "غروبندن",
        "name:br": "Grischun",
        "name:ca": "Grisons",
        "name:de": "Graubünden",
        "name:en": "Grisons",
        "name:es": "Grisones",
        "name:fr": "Grisons",
        "name:it": "Grigioni",
        "name:la": "Grisonia",
        "name:nl": "Graubünden",
        "name:pl": "Gryzonia",
        "name:prefix": "Kanton",
        "name:pt": "Grisões",
        "name:rm": "Grischun",
        "name:ro": "Graubünden",
        "name:ru": "Граубюнден (Гризон)",
        "name:uk": "Граубюнден",
        "old_name:nl": "Grauwbunderland",
        "ref": "GR",
        "ref:nuts:3": "CH056",
        "source": "swissBOUNDARIES3D swisstopo 2011",
        "source:name:br": "ofis publik ar brezhoneg",
        "swisstopo:KANTONSNUM": "18",
        "type": "boundary",
        "wikidata": "Q11925",
        "wikipedia": "de:Kanton Graubünden"
      }
    },
    {
      "type": "relation",
      "id": 1686649,
      "tags": {
        "ISO3166-2": "CH-AR",
        "admin_level": "4",
        "alt_name": "Kanton Appenzell Ausserrhoden",
        "boundary": "administrative",
        "name": "Appenzell Ausserrhoden",
        "name:be": "Апенцэль — Аўсерродэн",
        "name:ca": "Appenzell Ausser-Rhoden",
        "name:de": "Appenzell Ausserrhoden",
        "name:en": "Appenzell Ausserrhoden",
        "name:eo": "Apencelo Ekstera",
        "name:es": "Appenzell Rodas Exteriores",
        "name:fr": "Appenzell Rhodes-Extérieures",
        "name:gsw": "Appezell Usserrhode",
        "name:it": "Appenzello Esterno",
        "name:lt": "Apencelis-Auserodenas",
        "name:prefix": "Kanton",
        "name:rm": "Appenzell Dadora",
        "name:ro": "Appenzell Extern",
        "name:ru": "Аппенцелль-Аусерроден",
        "name:uk": "Аппенцелль-Ауссерроден",
        "ref": "AR",
        "ref:nuts:3": "CH053",
        "swisstopo:KANTONSNUM": "15",
        "type": "boundary",
        "wikidata": "Q12079",
        "wikipedia": "de:Kanton Appenzell Ausserrhoden"
      }
    },
    {
      "type": "relation",
      "id": 1686666,
      "tags": {
        "ISO3166-2": "CH-AI",
        "admin_level": "4",
        "alt_name": "Kanton Appenzell Innerrhoden",
        "boundary": "administrative",
        "name": "Appenzell Innerrhoden",
        "name:ca": "Appenzell Inner-Rhoden",
        "name:de": "Appenzell Innerrhoden",
        "name:en": "Appenzell Innerrhoden",
        "name:fr": "Appenzell Rhodes-Intérieures",
        "name:gsw": "Appezell Innerrhode",
        "name:it": "Appenzello Interno",
        "name:lt": "Apencelis-Inerodenas",
        "name:prefix": "Kanton",
        "name:rm": "Appenzell Dadens",
        "name:ru": "Аппенцелль-Иннерроден",
        "name:uk": "Аппенцелль-Іннерроден",
        "ref": "AI",
        "ref:nuts:3": "CH054",
        "source": "swissBOUNDARIES3D swisstopo 2011",
        "swisstopo:BEZIRKSNUM": "160",
        "swisstopo:KANTONSNUM": "16",
        "type": "boundary",
        "wikidata": "Q12094",
        "wikipedia": "de:Kanton Appenzell Innerrhoden"
      }
    },
    {
      "type": "relation",
      "id": 1686699,
      "tags": {
        "ISO3166-2": "CH-VS",
        "admin_level": "4",
        "alt_name": "Kanton Wallis",
        "boundary": "administrative",
        "default_language": "fr",
        "name": "Valais/Wallis",
        "name:ca": "Valais",
        "name:de": "Wallis",
        "name:en": "Wallis",
        "name:eo": "Valezo",
        "name:es": "Vallés",
        "name:fr": "Valais",
        "name:frp": "Valês",
        "name:it": "Vallese",
        "name:la": "Valesia",
        "name:lt": "Valė",
        "name:prefix": "Kanton",
        "name:rm": "Vallais",
        "name:ro": "Valais",
        "name:ru": "Вале",
        "name:uk": "Вале",
        "ref": "VS",
        "ref:nuts:3": "CH012",
        "source": "swissBOUNDARIES3D swisstopo 2011",
        "swisstopo:KANTONSNUM": "23",
        "type": "boundary",
        "wikidata": "Q834",
        "wikipedia": "de:Kanton Wallis"
      }
    },
    {
      "type": "relation",
      "id": 1687006,
      "tags": {
        "ISO3166-2": "CH-SG",
        "admin_level": "4",
        "alt_name": "Kanton St. Gallen",
        "alt_name:ca": "Cantó de Sankt Gallen",
        "alt_name:de": "Kanton St. Gallen",
        "alt_name:fr": "Canton de Saint-Gall",
        "alt_name:it": "Canton San Gallo",
        "boundary": "administrative",
        "name": "St. Gallen",
        "name:ca": "St. Gallen",
        "name:de": "St. Gallen",
        "name:en": "St. Gallen",
        "name:es": "San Galo",
        "name:fr": "Saint-Gall",
        "name:gsw": "San Galle",
        "name:hu": "Szentgallen",
        "name:it": "San Gallo",
        "name:ja": "ザンクト・ガレン州",
        "name:lt": "Sankt Galenas",
        "name:prefix": "Kanton",
        "name:rm": "Son Gagl",
        "name:ro": "St. Gallen",
        "name:ru": "Санкт-Галлен",
        "name:uk": "Санкт-Галлен",
        "official_name": "St. Gallen",
        "ref": "SG",
        "ref:nuts:3": "CH055",
        "swisstopo:KANTONSNUM": "17",
        "type": "boundary",
        "wikidata": "Q12746",
        "wikipedia": "de:Kanton St. Gallen"
      }
    },
    {
      "type": "relation",
      "id": 1687730,
      "tags": {
        "ISO3166-2": "CH-TI",
        "admin_level": "4",
        "alt_name": "Canton Ticino",
        "boundary": "administrative",
        "default_language": "it",
        "name": "Ticino",
        "name:br": "Ticino",
        "name:ca": "Tessí",
        "name:de": "Tessin",
        "name:en": "Ticino",
        "name:es": "Tesino",
        "name:fr": "Tessin",
        "name:it": "Ticino",
        "name:ja": "ティチーノ州",
        "name:lt": "Tičinas",
        "name:prefix": "Kanton",
        "name:pt": "Tessino",
        "name:rm": "Tessin",
        "name:ro": "Ticino",
        "name:ru": "Тичино",
        "name:uk": "Тічино",
        "ref": "TI",
        "ref:nuts:2": "CH07",
        "ref:nuts:3": "CH070",
        "source": "swissBOUNDARIES3D swisstopo 2011",
        "source:name:br": "ofis publik ar brezhoneg",
        "swisstopo:KANTONSNUM": "21",
        "type": "boundary",
        "wikidata": "Q12724",
        "wikipedia": "it:Canton Ticino"
      }
    },
    {
      "type": "relation",
      "id": 1688583,
      "tags": {
        "ISO3166-2": "CH-SZ",
        "admin_level": "4",
        "alt_name": "Kanton Schwyz",
        "alt_name:fr": "Schwytz",
        "boundary": "administrative",
        "name": "Schwyz",
        "name:ca": "Cantó de Schwyz",
        "name:de": "Schwyz",
        "name:en": "Schwyz",
        "name:fr": "Schwyz",
        "name:it": "Svitto",
        "name:lt": "Švicas (Švico kantonas)",
        "name:prefix": "Kanton",
        "name:rm": "Sviz",
        "name:ro": "Schwyz",
        "name:ru": "Швиц",
        "name:uk": "Швіц",
        "ref": "SZ",
        "ref:nuts:3": "CH063",
        "source": "swissBOUNDARIES3D swisstopo 2011",
        "swisstopo:KANTONSNUM": "5",
        "type": "boundary",
        "wikidata": "Q12433",
        "wikipedia": "de:Kanton Schwyz"
      }
    },
    {
      "type": "relation",
      "id": 1690227,
      "tags": {
        "ISO3166-2": "CH-ZH",
        "admin_level": "4",
        "alt_name": "Kanton Zürich",
        "alt_name:ca": "Cantó de Zuric",
        "alt_name:de": "Kanton Zürich",
        "alt_name:fr": "Canton de Zurich",
        "alt_name:it": "Canton Zurigo",
        "boundary": "administrative",
        "name": "Zürich",
        "name:af": "Zürich",
        "name:als": "Zürich",
        "name:am": "ዙሪክ",
        "name:an": "Zúrich",
        "name:ar": "زيورخ",
        "name:arc": "ܬܣܝܪܝܟ",
        "name:arz": "زوريخ",
        "name:az": "Sürix",
        "name:bar": "Zirich",
        "name:be": "Цюрых",
        "name:be-tarask": "Цюрых",
        "name:bg": "Цюрих",
        "name:bn": "জুরিখ",
        "name:br": "Zürich",
        "name:bs": "Zürich",
        "name:ca": "Zúric",
        "name:ckb": "زیورخ",
        "name:cs": "Curych",
        "name:cv": "Цюрих",
        "name:cy": "Zürich",
        "name:da": "Zürich",
        "name:de": "Zürich",
        "name:el": "Ζυρίχη",
        "name:en": "Zurich",
        "name:eo": "Zuriko",
        "name:es": "Zúrich",
        "name:et": "Zürich",
        "name:eu": "Zürich",
        "name:fa": "زوریخ",
        "name:fi": "Zürich",
        "name:fr": "Zurich",
        "name:frp": "Tsurique",
        "name:frr": "Zürich",
        "name:ga": "Zürich",
        "name:gd": "Zürich",
        "name:gl": "Zúric",
        "name:gsw": "Züri",
        "name:he": "ציריך",
        "name:hi": "ज़्यूरिख़",
        "name:hr": "Zürich",
        "name:hsb": "Zürich",
        "name:hu": "Zürich",
        "name:id": "Zürich",
        "name:ilo": "Zürich",
        "name:io": "Zürich",
        "name:is": "Zürich",
        "name:it": "Zurigo",
        "name:ja": "チューリッヒ",
        "name:jv": "Zürich",
        "name:ka": "ციურიხი",
        "name:kn": "ಝ್ಯೂರಿಖ್",
        "name:ko": "취리히",
        "name:la": "Turicum",
        "name:lb": "Zürech",
        "name:lmo": "Zürigh",
        "name:lt": "Ciurichas",
        "name:lv": "Cīrihe",
        "name:mk": "Цирих",
        "name:ml": "സൂറിച്ച്",
        "name:mr": "झ्युरिक",
        "name:ms": "Zürich",
        "name:my": "ဇူးရစ်ချ်မြို့",
        "name:na": "Zürich",
        "name:nah": "Zurich",
        "name:nan": "Zürich",
        "name:nds": "Zürich",
        "name:nl": "Zürich",
        "name:nn": "Zürich",
        "name:no": "Zürich",
        "name:oc": "Zuric",
        "name:os": "Цюрих",
        "name:pdc": "Zurich",
        "name:pfl": "Zirich",
        "name:pl": "Zurych",
        "name:pms": "Zurigh",
        "name:pnb": "زیورچ",
        "name:prefix": "Kanton",
        "name:pt": "Zurique",
        "name:qu": "Zürich",
        "name:rm": "Turitg",
        "name:ro": "Zürich",
        "name:ru": "Цюрих",
        "name:scn": "Zurìcu",
        "name:sh": "Zürich",
        "name:sk": "Zürich",
        "name:sl": "Zürich",
        "name:sq": "Cyrihu",
        "name:sr": "Цирих",
        "name:sv": "Zürich",
        "name:sw": "Zürich",
        "name:ta": "சூரிக்",
        "name:th": "ซูริก",
        "name:tl": "Zürich",
        "name:tr": "Zürih",
        "name:ug": "سيۇرىخ",
        "name:uk": "Цюрих",
        "name:ur": "زیورخ",
        "name:vec": "Zurigo",
        "name:vi": "Zürich",
        "name:vo": "Zürich",
        "name:war": "Zürich",
        "name:wo": "Zurich",
        "name:wuu": "苏黎世",
        "name:yi": "ציריך",
        "name:yo": "Zürich",
        "name:yue": "蘇黎世",
        "name:zh": "蘇黎世州",
        "name:zh-Hans": "苏黎世州",
        "name:zh-Hant": "蘇黎世州",
        "ref": "ZH",
        "ref:nuts:2": "CH04",
        "ref:nuts:3": "CH040",
        "source:name:oc": "ieo-bdtopoc",
        "swisstopo:KANTONSNUM": "1",
        "type": "boundary",
        "wikidata": "Q11943",
        "wikipedia": "de:Kanton Zürich"
      }
    },
    {
      "type": "relation",
      "id": 1693811,
      "tags": {
        "ISO3166-2": "CH-TG",
        "admin_level": "4",
        "alt_name": "Kanton Thurgau",
        "boundary": "administrative",
        "name": "Thurgau",
        "name:be": "Тургаў",
        "name:ca": "Turgòvia",
        "name:de": "Thurgau",
        "name:en": "Thurgau",
        "name:eo": "Turgovio",
        "name:es": "Turgovia",
        "name:fr": "Thurgovie",
        "name:it": "Turgovia",
        "name:la": "Turgovia",
        "name:prefix": "Kanton",
        "name:rm": "Turgovia",
        "name:ro": "Thurgau",
        "name:ru": "Тургау",
        "name:uk": "Тургау",
        "ref": "TG",
        "ref:nuts:3": "CH057",
        "swisstopo:KANTONSNUM": "20",
        "type": "boundary",
        "wikidata": "Q12713",
        "wikipedia": "de:Kanton Thurgau"
      }
    },
    {
      "type": "relation",
      "id": 1693971,
      "tags": {
        "ISO3166-2": "CH-UR",
        "admin_level": "4",
        "alt_name": "Kanton Uri",
        "boundary": "administrative",
        "name": "Uri",
        "name:ca": "Uri",
        "name:de": "Uri",
        "name:en": "Uri",
        "name:fr": "Uri",
        "name:it": "Uri",
        "name:prefix": "Kanton",
        "name:rm": "Uri",
        "name:ro": "Uri",
        "name:ru": "Ури",
        "ref": "UR",
        "ref:nuts:3": "CH062",
        "source": "swissBOUNDARIES3D swisstopo 2011",
        "swisstopo:BEZIRKSNUM": "400",
        "swisstopo:KANTONSNUM": "4",
        "type": "boundary",
        "wikidata": "Q12404",
        "wikipedia": "de:Kanton Uri"
      }
    },
    {
      "type": "relation",
      "id": 1696112,
      "tags": {
        "ISO3166-2": "CH-SH",
        "admin_level": "4",
        "alt_name": "Kanton Schaffhausen",
        "boundary": "administrative",
        "name": "Schaffhausen",
        "name:ca": "Schaffhausen",
        "name:de": "Schaffhausen",
        "name:en": "Schaffhausen",
        "name:es": "Escafusa",
        "name:fr": "Schaffhouse",
        "name:gsw": "Schafuuse",
        "name:it": "Sciaffusa",
        "name:lt": "Šafhauzenas (Šafhauzeno kantonas)",
        "name:pl": "Szafuza",
        "name:prefix": "Kanton",
        "name:rm": "Schaffusa",
        "name:ru": "Шаффхаузен",
        "name:uk": "Шаффгаузен",
        "ref": "SH",
        "ref:nuts:3": "CH052",
        "source": "swissBOUNDARIES3D swisstopo 2011",
        "swisstopo:KANTONSNUM": "14",
        "type": "boundary",
        "wikidata": "Q12697",
        "wikipedia": "de:Kanton Schaffhausen"
      }
    },
    {
      "type": "relation",
      "id": 1697347,
      "tags": {
        "ISO3166-2": "CH-JU",
        "admin_level": "4",
        "alt_name": "Canton du Jura",
        "boundary": "administrative",
        "default_language": "fr",
        "name": "Jura",
        "name:ca": "Jura",
        "name:de": "Jura",
        "name:en": "Jura",
        "name:fr": "Jura",
        "name:it": "Giura",
        "name:prefix": "Kanton",
        "name:rm": "Giura",
        "name:ro": "Jura",
        "name:ru": "Юра",
        "name:uk": "Юра",
        "ref": "JU",
        "ref:nuts:3": "CH025",
        "source": "swissBOUNDARIES3D swisstopo 2011",
        "swisstopo:KANTONSNUM": "26",
        "type": "boundary",
        "wikidata": "Q12755",
        "wikipedia": "fr:Canton du Jura"
      }
    },
    {
      "type": "relation",
      "id": 1698314,
      "tags": {
        "ISO3166-2": "CH-FR",
        "admin_level": "4",
        "alt_name": "Canton de Fribourg",
        "alt_name:de": "Kanton Freiburg",
        "boundary": "administrative",
        "default_language": "fr",
        "name": "Fribourg/Freiburg",
        "name:br": "Friboua",
        "name:ca": "Cantó de Friburg",
        "name:de": "Freiburg",
        "name:en": "Fribourg",
        "name:es": "Friburgo",
        "name:fr": "Fribourg",
        "name:frp": "Friboua",
        "name:hr": "Kanton Fribourg",
        "name:it": "Friburgo",
        "name:pl": "Fryburg",
        "name:prefix": "Kanton",
        "name:rm": "Friburg",
        "name:ro": "Fribourg",
        "name:ru": "Фрибур",
        "ref": "FR",
        "ref:nuts:3": "CH022",
        "source": "swissBOUNDARIES3D swisstopo 2011",
        "swisstopo:KANTONSNUM": "10",
        "type": "boundary",
        "wikidata": "Q12640",
        "wikipedia": "fr:Canton de Fribourg"
      }
    },
    {
      "type": "relation",
      "id": 1699639,
      "tags": {
        "ISO3166-2": "CH-BS",
        "admin_level": "4",
        "alt_name": "Kanton Basel-Stadt",
        "boundary": "administrative",
        "name": "Basel-Stadt",
        "name:ar": "مدينة بازل",
        "name:ca": "Basilea-Ciutat",
        "name:de": "Basel-Stadt",
        "name:en": "Basel-City",
        "name:es": "Basilea-Ciudad",
        "name:fr": "Bâle-Ville",
        "name:it": "Basilea Città",
        "name:lt": "Bazelis",
        "name:nl": "Bazel-Stad",
        "name:prefix": "Kanton",
        "name:rm": "Basilea-Citad",
        "name:ru": "Базель-Штадт",
        "name:sk": "Bazilej - mesto",
        "name:uk": "Базель-Штадт",
        "name:zh": "巴塞尔城市州",
        "name:zh-Hans": "巴塞尔城市州",
        "name:zh-Hant": "巴塞爾城市州",
        "ref": "BS",
        "ref:nuts:3": "CH031",
        "source": "swissBOUNDARIES3D swisstopo 2011",
        "swisstopo:BEZIRKSNUM": "1200",
        "swisstopo:KANTONSNUM": "12",
        "type": "boundary",
        "wikidata": "Q12172",
        "wikipedia": "de:Kanton Basel-Stadt"
      }
    },
    {
      "type": "relation",
      "id": 1701133,
      "tags": {
        "ISO3166-2": "CH-SO",
        "admin_level": "4",
        "alt_name": "Kanton Solothurn",
        "boundary": "administrative",
        "name": "Solothurn",
        "name:ca": "Cantó de Solothurn",
        "name:de": "Solothurn",
        "name:en": "Solothurn",
        "name:es": "Soleura",
        "name:fr": "Soleure",
        "name:it": "Soletta",
        "name:lt": "Zoloturnas",
        "name:prefix": "Kanton",
        "name:rm": "Soloturn",
        "name:ro": "Solothurn",
        "name:ru": "Золотурн",
        "ref": "SO",
        "ref:nuts:3": "CH023",
        "swisstopo:KANTONSNUM": "11",
        "type": "boundary",
        "wikidata": "Q11929",
        "wikipedia": "de:Kanton Solothurn"
      }
    },
    {
      "type": "relation",
      "id": 1702419,
      "tags": {
        "ISO3166-2": "CH-GE",
        "admin_level": "4",
        "alt_name": "Canton de Genève",
        "border_type": "region",
        "boundary": "administrative",
        "default_language": "fr",
        "name": "Genève",
        "name:an": "Chinebra",
        "name:ar": "جنيف",
        "name:az": "Cenevrə",
        "name:azb": "ژنو",
        "name:be": "Жэнева",
        "name:bg": "Женева",
        "name:bo": "རི་ནོས་ཝ",
        "name:br": "Geneva",
        "name:bs": "Ženeva",
        "name:ca": "Cantó de Ginebra",
        "name:cs": "Ženeva",
        "name:cy": "Genefa",
        "name:da": "Geneve",
        "name:de": "Genf",
        "name:el": "Γενεύη",
        "name:en": "Geneva",
        "name:eo": "Ĝenevo",
        "name:es": "Ginebra",
        "name:et": "Genf",
        "name:eu": "Geneva",
        "name:fa": "ژنو",
        "name:fi": "Geneve",
        "name:fr": "Genève",
        "name:gl": "Xenebra",
        "name:he": "ז'נבה",
        "name:hu": "Genf",
        "name:id": "Jenewa",
        "name:it": "Ginevra",
        "name:ja": "ジュネーヴ",
        "name:kk-Arab": "جەنەۆا",
        "name:ku": "Cenevre",
        "name:lv": "Ženēva",
        "name:nl": "Genève",
        "name:pl": "Genewa",
        "name:pnb": "جنیوا",
        "name:prefix": "Kanton",
        "name:pt": "Genebra",
        "name:rm": "Genevra",
        "name:ro": "Geneva",
        "name:ru": "Женева",
        "name:sd": "جنيوا",
        "name:sk": "Ženeva",
        "name:sl": "Ženeva",
        "name:sr": "Женева",
        "name:th": "เจนีวา",
        "name:tr": "Cenevre",
        "name:uk": "Женева",
        "name:ur": "جنیوا",
        "name:vi": "Giơ-ne-vơ",
        "name:zh": "日內瓦",
        "name:zh-Latn-pinyin": "Rìnèiwǎ",
        "old_name:vi": "Nhật Nội Ngỏa",
        "ref": "GE",
        "ref:nuts:3": "CH013",
        "source": "swissBOUNDARIES3D swisstopo 2011",
        "swisstopo:BEZIRKSNUM": "2500",
        "swisstopo:KANTONSNUM": "25",
        "type": "boundary",
        "wikidata": "Q11917",
        "wikipedia": "fr:Canton de Genève"
      }
    },
    {
      "type": "relation",
      "id": 1702420,
      "tags": {
        "ISO3166-2": "CH-NE",
        "admin_level": "4",
        "alt_name": "Canton de Neuchâtel",
        "boundary": "administrative",
        "default_language": "fr",
        "name": "Neuchâtel",
        "name:ca": "Cantó de Neuchâtel",
        "name:de": "Neuenburg",
        "name:en": "Neuchâtel",
        "name:fr": "Neuchâtel",
        "name:it": "Neuchâtel",
        "name:lt": "Nešatelis (Nešatelio kantonas)",
        "name:prefix": "Kanton",
        "name:rm": "Neuchâtel",
        "name:ro": "Neuchâtel",
        "name:ru": "Невшатель",
        "name:uk": "Невшатель",
        "ref": "NE",
        "ref:nuts:3": "CH024",
        "source": "swissBOUNDARIES3D swisstopo 2011",
        "swisstopo:BEZIRKSNUM": "2400",
        "swisstopo:KANTONSNUM": "24",
        "type": "boundary",
        "wikidata": "Q12738",
        "wikipedia": "fr:Canton de Neuchâtel"
      }
    },
    {
      "type": "relation",
      "id": 1702421,
      "tags": {
        "ISO3166-2": "CH-VD",
        "admin_level": "4",
        "alt_name": "Canton de Vaud",
        "boundary": "administrative",
        "default_language": "fr",
        "name": "Vaud",
        "name:ar": "فود",
        "name:ca": "Vaud",
        "name:de": "Waadt",
        "name:en": "Vaud",
        "name:es": "Valdia",
        "name:fr": "Vaud",
        "name:it": "Vaud",
        "name:lt": "Vo",
        "name:nl": "Waadland",
        "name:prefix": "Kanton",
        "name:rm": "Vad",
        "name:ro": "Vaud",
        "name:ru": "Во",
        "name:uk": "Во",
        "official_name:ar": "كانتون فود",
        "ref": "VD",
        "ref:nuts:3": "CH011",
        "source": "swissBOUNDARIES3D swisstopo 2011",
        "swisstopo:KANTONSNUM": "22",
        "type": "boundary",
        "wikidata": "Q12771",
        "wikipedia": "fr:Canton de Vaud"
      }
    },
    {
      "type": "relation",
      "id": 2697952,
      "tags": {
        "admin_level": "4",
        "building": "yes",
        "email": "vehicules@etat.ge.ch",
        "government": "register_office",
        "name": "Office cantonal des véhicules",
        "office": "government",
        "opening_hours": "Mo-Fr 07:30-16:00",
        "phone": "+41 22 388 30 30",
        "type": "multipolygon",
        "url": "http://www.ge.ch/san/",
        "website": "https://www.ge.ch/organisation/office-cantonal-vehicules-ocv"
      }
    }
  ]
}