{
  "version": 0.6,
  "generator": "Overpass API 0.7.62.7 375dc00a",
  "osm3s": {
    "timestamp_osm_base": "2025-07-02T11:20:23Z",
    "timestamp_areas_base": "2025-07-02T08:19:40Z",
    "copyright": "The data included in this document is from www.openstreetmap.org. The data is made available under ODbL."
  },
  "elements": [
    {
      "type": "node",
      "id": 265444996,
      "lat": 47.1070124,
      "lon": 6.8296598,
      "tags": {
        "addr:city": "La Chaux-de-Fonds",
        "addr:country": "CH",
        "addr:housenumber": "4",
        "addr:postcode": "2300",
        "addr:street": "Rue du Progrès",
        "amenity": "restaurant",
        "cuisine": "coffee_shop;regional",
        "name": "La Différence",
        "phone": "+41 32 968 05 50",
        "website": "https://www.ladifference.ch/"
      }
    },
    {
      "type": "node",
      "id": 265445095,
      "lat": 47.1006429,
      "lon": 6.8221755,
      "tags": {
        "amenity": "restaurant",
        "name": "Café de la Paix",
        "phone": "+41 32 757 33 63"
      }
    },
    {
      "type": "node",
      "id": 265445099,
      "lat": 47.1005802,
      "lon": 6.822615,
      "tags": {
        "addr:postcode": "2300",
        "amenity": "restaurant",
        "cuisine": "grecque",
        "email": "lafeuilledevigne2300@gmail.com",
        "name": "Restaurant La Feuille de Vigne",
        "opening_hours": "Mo-Sa 00:00-24:00",
        "phone": "+41 32 913 14 44",
        "website": "https://www.lafeuilledevigne2300.com"
      }
    },
    {
      "type": "node",
      "id": 265445106,
      "lat": 47.0998065,
      "lon": 6.8212677,
      "tags": {
        "amenity": "restaurant",
        "name": "L'Abeille"
      }
    },
    {
      "type": "node",
      "id": 271082991,
      "lat": 47.1094844,
      "lon": 6.8294306,
      "tags": {
        "addr:city": "La Chaux-de-Fonds",
        "addr:housenumber": "1",
        "addr:postcode": "2300",
        "addr:street": "Rue Alexis-Marie-Piaget",
        "amenity": "restaurant",
        "cuisine": "pizza;italian",
        "delivery": "yes",
        "level": "0",
        "name": "Pizza Rapido",
        "opening_hours": "Mo-Sa 10:00-14:00,16:30-23:30; We 10:00-14:00; Su 17:00-23:00",
        "outdoor_seating": "yes",
        "phone": "+41 32 968 84 84",
        "source": "local knowledge;http://www.pizzarapido.ch",
        "takeaway": "yes",
        "website": "https://www.pizzarapido.ch/",
        "wheelchair": "yes"
      }
    },
    {
      "type": "node",
      "id": 271126768,
      "lat": 47.1041167,
      "lon": 6.8320898,
      "tags": {
        "addr:city": "La Chaux-de-Fonds",
        "addr:housenumber": "8",
        "addr:postcode": "2300",
        "addr:street": "Rue de la Balance",
        "amenity": "restaurant",
        "cuisine": "mediterranean",
        "name": "Casa Rossa",
        "opening_hours": "Mo-Sa 09:00-14:15,18:00-24:00",
        "phone": "+41 32 968 32 18",
        "website": "https://casarossa.ch"
      }
    },
    {
      "type": "node",
      "id": 271126770,
      "lat": 47.1039027,
      "lon": 6.8322318,
      "tags": {
        "amenity": "restaurant",
        "name": "La Planète"
      }
    },
    {
      "type": "node",
      "id": 271126772,
      "lat": 47.1035101,
      "lon": 6.83082,
      "tags": {
        "amenity": "cafe",
        "name": "Café du Marché",
        "outdoor_seating": "yes"
      }
    },
    {
      "type": "node",
      "id": 271130861,
      "lat": 47.1032835,
      "lon": 6.8319749,
      "tags": {
        "addr:city": "La Chaux-de-Fonds",
        "addr:country": "CH",
        "addr:housenumber": "2",
        "addr:postcode": "2300",
        "addr:street": "Passage Léopold-Robert",
        "amenity": "cafe",
        "name": "Barok"
      }
    },
    {
      "type": "node",
      "id": 271134253,
      "lat": 47.1012747,
      "lon": 6.8261425,
      "tags": {
        "amenity": "cafe",
        "name": "Le Pacha",
        "wheelchair": "no"
      }
    },
    {
      "type": "node",
      "id": 271134254,
      "lat": 47.1016501,
      "lon": 6.8257148,
      "tags": {
        "amenity": "restaurant",
        "cuisine": "italian_pizza;italian;pasta;pizza",
        "name": "L'Orphéo",
        "opening_hours": "Tu-Th 11:30-14:00,18:00-23:00; Fr-Sa 11:30-14:30,18:00-24:00; Mo,Su closed",
        "outdoor_seating": "yes",
        "reservation": "yes",
        "takeaway": "yes",
        "toilets": "yes",
        "wheelchair": "limited"
      }
    },
    {
      "type": "node",
      "id": 271182472,
      "lat": 47.1062073,
      "lon": 6.8303497,
      "tags": {
        "addr:city": "La Chaux-de-Fonds",
        "addr:country": "CH",
        "addr:housenumber": "24",
        "addr:postcode": "2300",
        "addr:street": "Rue de la Charrière",
        "amenity": "restaurant",
        "contact:facebook": "fratellinis.ch",
        "contact:instagram": "fratellinis",
        "cuisine": "italian;pizza",
        "name": "Fratellini's",
        "opening_hours": "Mo-Sa 11:30-13:45, 17:30-21:45",
        "outdoor_seating": "yes",
        "phone": "+41 32 968 69 69",
        "website": "https://www.fratellinis.ch"
      }
    },
    {
      "type": "node",
      "id": 271182490,
      "lat": 47.1022052,
      "lon": 6.8277827,
      "tags": {
        "addr:city": "La Chaux-de-Fonds",
        "addr:country": "CH",
        "addr:housenumber": "32a",
        "addr:postcode": "2300",
        "addr:street": "Avenue Léopold-Robert",
        "amenity": "cafe",
        "name": "Orforte",
        "opening_hours": "Mo-We 08:30-23:00; Th 08:30-24:00; Fr-Sa 08:30-02:00",
        "phone": "+41325598891"
      }
    },
    {
      "type": "node",
      "id": 271182491,
      "lat": 47.1021836,
      "lon": 6.8285243,
      "tags": {
        "amenity": "fast_food",
        "cuisine": "kebab",
        "name": "Au Paradis Kebab",
        "outdoor_seating": "yes",
        "takeaway": "yes"
      }
    },
    {
      "type": "node",
      "id": 271182494,
      "lat": 47.1027771,
      "lon": 6.828327,
      "tags": {
        "addr:city": "La Chaux-de-Fonds",
        "addr:country": "CH",
        "addr:housenumber": "25",
        "addr:postcode": "2300",
        "addr:street": "Rue de la Serre",
        "amenity": "restaurant",
        "cuisine": "italian",
        "email": "contact@larancino.ch",
        "name": "L'Arancino",
        "opening_hours": "Mo-Sa 10:30-13:15,17:30-20:45; Tu 17:30-20:45; Su 17:30-21:15",
        "operator": "Anthony & Mirco Genovese",
        "phone": "+41 32 914 31 98",
        "website": "https://www.larancino.ch/",
        "wheelchair": "no"
      }
    },
    {
      "type": "node",
      "id": 271182498,
      "lat": 47.1034167,
      "lon": 6.8292084,
      "tags": {
        "addr:housenumber": "17",
        "addr:postcode": "2300",
        "addr:street": "Serre",
        "amenity": "cafe",
        "cuisine": "coffee_shop",
        "internet_access": "wlan",
        "name": "l'Antabuse",
        "terrace": "yes"
      }
    },
    {
      "type": "node",
      "id": 271786505,
      "lat": 47.1013547,
      "lon": 6.8289078,
      "tags": {
        "amenity": "restaurant",
        "cuisine": "chinese",
        "name": "Bamboo"
      }
    },
    {
      "type": "node",
      "id": 271786508,
      "lat": 47.1032311,
      "lon": 6.8299842,
      "tags": {
        "addr:city": "La Chaux-de-Fonds",
        "addr:country": "CH",
        "addr:housenumber": "3",
        "addr:postcode": "2300",
        "addr:street": "Rue du Marché",
        "amenity": "cafe",
        "email": "info@cafeducoin.ch",
        "name": "Café du Coin",
        "opening_hours": "Mo-Fr 6:30-21:00; Sa 07:30-21:00",
        "phone": "+41 32 968 06 31",
        "website": "http://www.cafeducoin.ch"
      }
    },
    {
      "type": "node",
      "id": 272026977,
      "lat": 47.0994367,
      "lon": 6.8259679,
      "tags": {
        "addr:city": "La Chaux-de-Fonds",
        "addr:country": "CH",
        "addr:housenumber": "60",
        "addr:postcode": "2300",
        "addr:street": "Rue des Musées",
        "amenity": "restaurant",
        "name": "Brasserie de la Poste"
      }
    },
    {
      "type": "node",
      "id": 274077460,
      "lat": 47.0156964,
      "lon": 6.9066808,
      "tags": {
        "amenity": "restaurant",
        "name": "Aux Pontins"
      }
    },
    {
      "type": "node",
      "id": 275006783,
      "lat": 47.1049009,
      "lon": 6.8304583,
      "tags": {
        "addr:postcode": "2300",
        "amenity": "restaurant",
        "contact:facebook": "restaurantyakut",
        "cuisine": "regional",
        "email": "restaurant.yakut@gmail.com",
        "name": "Yakut",
        "phone": "+41329689555",
        "website": "https://www.j3l.ch/fr/P47938/a-faire/boire-manger/restaurants/cafe-restaurant-yakut"
      }
    },
    {
      "type": "node",
      "id": 276359023,
      "lat": 47.0842373,
      "lon": 6.7089856,
      "tags": {
        "amenity": "restaurant",
        "name": "Saut-du-Doubs",
        "opening_hours": "Mo-Su 09:00-19:00"
      }
    },
    {
      "type": "node",
      "id": 296251735,
      "lat": 47.0568515,
      "lon": 6.7501128,
      "tags": {
        "addr:postcode": "2400",
        "amenity": "restaurant",
        "cuisine": "italian",
        "email": "info@royal-panini.ch",
        "name": "Royal Panini",
        "opening_hours": "Tu-Fr 09:00-14:00, 17:00-23:00; Sa 10:00-14:00, 17:00-23:00",
        "phone": "+41 32 931 91 31",
        "website": "http://www.royal-panini.ch"
      }
    },
    {
      "type": "node",
      "id": 300247419,
      "lat": 46.991563,
      "lon": 6.9282433,
      "tags": {
        "amenity": "cafe",
        "check_date": "2023-12-07",
        "indoor_seating": "yes",
        "name": "L'aubier, Le Café-Hôtel",
        "organic": "only",
        "outdoor_seating": "yes",
        "phone": "+41 32 710 18 58",
        "shop": "supermarket",
        "tourism": "hotel",
        "website": "https://www.aubier.ch/fr/cafe-hotel-bio.html",
        "wheelchair": "limited"
      }
    },
    {
      "type": "node",
      "id": 302037587,
      "lat": 46.9575774,
      "lon": 6.7702812,
      "tags": {
        "addr:postcode": "2149",
        "amenity": "restaurant",
        "email": "contact@la-truite.ch",
        "name": "La Truite",
        "phone": "+4132 855 11 34",
        "tourism": "hotel",
        "website": "https://www.la-truite.ch/"
      }
    },
    {
      "type": "node",
      "id": 306689491,
      "lat": 46.9343731,
      "lon": 6.7417419,
      "tags": {
        "amenity": "restaurant",
        "cuisine": "regional",
        "name": "La Grand Vy"
      }
    },
    {
      "type": "node",
      "id": 309431880,
      "lat": 47.0874752,
      "lon": 6.8041545,
      "tags": {
        "addr:city": "La Chaux-de-Fonds",
        "addr:country": "CH",
        "addr:housenumber": "21",
        "addr:postcode": "2300",
        "addr:street": "Boulevard des Eplatures",
        "amenity": "restaurant",
        "cuisine": "pizza",
        "name": "Atlantic'o"
      }
    },
    {
      "type": "node",
      "id": 311319308,
      "lat": 47.0563331,
      "lon": 7.0660413,
      "tags": {
        "amenity": "restaurant",
        "name": "ô MouZtiK",
        "phone": "+41327514004",
        "website": "https://www.omouztik.ch/"
      }
    },
    {
      "type": "node",
      "id": 312574455,
      "lat": 46.9873667,
      "lon": 6.7141546,
      "tags": {
        "addr:city": "Les Ponts-de-Martel",
        "addr:country": "CH",
        "addr:housenumber": "2",
        "addr:postcode": "2316",
        "addr:street": "Martel-Dernier",
        "amenity": "restaurant",
        "cuisine": "pizza;regional",
        "name": "Les Poneys",
        "operator": "Maurice & Nicole Perrin",
        "outdoor_seating": "yes",
        "phone": "+41 32 937 14 36",
        "website": "https://restaurantdesponeys.ch/"
      }
    },
    {
      "type": "node",
      "id": 315910202,
      "lat": 47.0480567,
      "lon": 6.7250765,
      "tags": {
        "amenity": "restaurant",
        "name": "Restaurant du jet d'eau"
      }
    },
    {
      "type": "node",
      "id": 318709575,
      "lat": 47.0936371,
      "lon": 6.8359412,
      "tags": {
        "amenity": "restaurant",
        "name": "L'Écureuil"
      }
    },
    {
      "type": "node",
      "id": 335533310,
      "lat": 46.9883426,
      "lon": 6.792413,
      "tags": {
        "amenity": "restaurant",
        "name": "Restaurant de La Tourne"
      }
    },
    {
      "type": "node",
      "id": 339716673,
      "lat": 47.1007493,
      "lon": 6.8360491,
      "tags": {
        "amenity": "restaurant",
        "name": "Le Petit Sapin"
      }
    },
    {
      "type": "node",
      "id": 344166539,
      "lat": 47.0989032,
      "lon": 6.8223905,
      "tags": {
        "addr:city": "La Chaux-de-Fonds",
        "addr:country": "CH",
        "addr:housenumber": "97",
        "addr:postcode": "2300",
        "addr:street": "Rue de la Serre",
        "amenity": "restaurant",
        "name": "Bach & Buck",
        "opening_hours": "Tu-Th 11:30-13:30,18:00-21:30; Fr-Sa 11:30-13:30,18:00-22:30",
        "phone": "+41 32 913 53 76",
        "website": "https://www.creperie-bach-buck.ch"
      }
    },
    {
      "type": "node",
      "id": 346399142,
      "lat": 46.99235,
      "lon": 6.9284033,
      "tags": {
        "amenity": "restaurant",
        "check_date": "2023-12-07",
        "created_by": "Merkaartor 0.11",
        "name": "Brasserie le Cardinal",
        "wheelchair": "limited"
      }
    },
    {
      "type": "node",
      "id": 348069132,
      "lat": 47.1002294,
      "lon": 6.8349519,
      "tags": {
        "amenity": "restaurant",
        "cuisine": "pizza",
        "diet:vegan": "no",
        "diet:vegetarian": "yes",
        "name": "Dino's Italia"
      }
    },
    {
      "type": "node",
      "id": 350131969,
      "lat": 47.0984797,
      "lon": 6.8247706,
      "tags": {
        "amenity": "fast_food",
        "brand": "McDonald's",
        "brand:wikidata": "Q38076",
        "brand:wikipedia": "en:McDonald's",
        "cuisine": "burger",
        "diet:vegetarian": "yes",
        "name": "McDonald's",
        "opening_hours": "Su-Th 10:00-23:30, Fr,Sa 10:00-01:30",
        "operator": "McDonald's",
        "outdoor_seating": "yes",
        "smoking": "no",
        "takeaway": "yes"
      }
    },
    {
      "type": "node",
      "id": 353154426,
      "lat": 47.1005192,
      "lon": 6.8253866,
      "tags": {
        "addr:city": "La Chaux-de-Fonds",
        "addr:country": "CH",
        "addr:housenumber": "58",
        "addr:postcode": "2300",
        "addr:street": "Avenue Léopold-Robert",
        "amenity": "cafe",
        "check_date": "2024-08-25",
        "cuisine": "regional",
        "name": "Le Rendez-vous",
        "opening_hours": "Mo-Sa 07:00-19:00",
        "outdoor_seating": "yes",
        "phone": "+41 32 913 93 85",
        "wheelchair": "yes"
      }
    },
    {
      "type": "node",
      "id": 354633683,
      "lat": 47.0768571,
      "lon": 6.7805859,
      "tags": {
        "amenity": "restaurant",
        "check_date": "2023-08-12",
        "name": "Siam Orchide"
      }
    },
    {
      "type": "node",
      "id": 354641469,
      "lat": 47.0509183,
      "lon": 6.8174508,
      "tags": {
        "amenity": "cafe",
        "name": "Café du Cerf"
      }
    },
    {
      "type": "node",
      "id": 356008589,
      "lat": 46.9968095,
      "lon": 6.9364692,
      "tags": {
        "amenity": "cafe",
        "check_date": "2023-12-07",
        "name": "Globe"
      }
    },
    {
      "type": "node",
      "id": 356015366,
      "lat": 46.9965014,
      "lon": 6.935764,
      "tags": {
        "amenity": "cafe",
        "brand": "Caffè Spettacolo",
        "brand:wikidata": "Q111728781",
        "cuisine": "coffee_shop",
        "diet:kosher": "no",
        "diet:vegan": "yes",
        "diet:vegetarian": "yes",
        "indoor_seating": "yes",
        "level": "0",
        "name": "Caffè Spettacolo",
        "opening_hours": "Mo-Su 06:00-20:00",
        "outdoor_seating": "no",
        "smoking": "no",
        "takeaway": "yes",
        "wheelchair": "no"
      }
    },
    {
      "type": "node",
      "id": 360135250,
      "lat": 46.9691996,
      "lon": 6.8180598,
      "tags": {
        "amenity": "restaurant",
        "name": "Restaurant le Pré-Vert"
      }
    },
    {
      "type": "node",
      "id": 360335526,
      "lat": 46.9135245,
      "lon": 6.4590051,
      "tags": {
        "amenity": "restaurant",
        "cuisine": "regional",
        "name": "Les Cernets",
        "tourism": "hotel"
      }
    },
    {
      "type": "node",
      "id": 364140837,
      "lat": 46.9947996,
      "lon": 6.9301223,
      "tags": {
        "addr:city": "Neuchâtel",
        "addr:housenumber": "34",
        "addr:postcode": "2000",
        "addr:street": "Rue Louis-Favre",
        "amenity": "restaurant",
        "check_date": "2023-10-11",
        "check_date:opening_hours": "2021-10-09",
        "cuisine": "japanese",
        "name": "Sakura",
        "opening_hours": "Mo-Sa 10:30-14:30,18:00-23:00"
      }
    },
    {
      "type": "node",
      "id": 365927559,
      "lat": 46.9902291,
      "lon": 6.929289,
      "tags": {
        "amenity": "fast_food",
        "cuisine": "kebab",
        "name": "Nazar Kebab",
        "opening_hours": "Mo-Th 08:00-01:00, Fr 08:00-06:00, Sa 10:00-06:00, Su 11:00-01:00"
      }
    },
    {
      "type": "node",
      "id": 365929384,
      "lat": 46.99133,
      "lon": 6.9310345,
      "tags": {
        "amenity": "cafe",
        "contact:facebook": "https://www.facebook.com/bistrotduconcert",
        "contact:instagram": "https://www.instagram.com/bistrotduconcert/",
        "name": "Bistrot du concert",
        "opening_hours": "Mo-We 11:00-22:30, Th,Fr 11:00-24:00, Sa 10:00-24:00",
        "phone": "+41 32 724 62 16",
        "website": "http://www.bistrotduconcert.net/#"
      }
    },
    {
      "type": "node",
      "id": 365931025,
      "lat": 46.9953001,
      "lon": 6.9427107,
      "tags": {
        "addr:city": "Neuchâtel",
        "addr:housenumber": "6",
        "addr:postcode": "2000",
        "addr:street": "Rue de la Pierre-à-Mazel",
        "amenity": "fast_food",
        "cuisine": "pizza",
        "name": "Pizza'Fun",
        "opening_hours": "Mo,Tu,We,Th,Su 08:00-22:00; Fr,Sa 08:00-23:00",
        "phone": "+41 325367616",
        "website": "https://neuchatel.pizzafun.ch",
        "wheelchair": "limited"
      }
    },
    {
      "type": "node",
      "id": 365932887,
      "lat": 46.996929,
      "lon": 6.9441654,
      "tags": {
        "amenity": "fast_food",
        "name": "Chez l'cousin"
      }
    },
    {
      "type": "node",
      "id": 365932888,
      "lat": 46.9969999,
      "lon": 6.9442239,
      "tags": {
        "amenity": "restaurant",
        "cuisine": "asian",
        "name": "Sultan",
        "wheelchair": "no"
      }
    },
    {
      "type": "node",
      "id": 365934235,
      "lat": 46.9980143,
      "lon": 6.9438442,
      "tags": {
        "addr:street": "Rue de Gibraltar",
        "amenity": "cafe",
        "cuisine": "pizza",
        "name": "Chez Soi",
        "name:fr": "Chez soi",
        "opening_hours": "Mo-Su 11:30-13:30, 18:00-21:00",
        "phone": "+41325998575",
        "website": "https://www.chezsoifood.ch/"
      }
    },
    {
      "type": "node",
      "id": 366548465,
      "lat": 47.0963592,
      "lon": 6.8186481,
      "tags": {
        "amenity": "restaurant",
        "cuisine": "regional",
        "name": "Café du Grand-Pont",
        "name:fr": "Restaurant du grand pont",
        "phone": "+41329264688"
      }
    },
    {
      "type": "node",
      "id": 366664452,
      "lat": 47.0561886,
      "lon": 6.748242,
      "tags": {
        "addr:housenumber": "38",
        "addr:street": "Rue des Envers",
        "amenity": "restaurant",
        "cuisine": "pizza",
        "name": "Le Frascati"
      }
    },
    {
      "type": "node",
      "id": 368315027,
      "lat": 47.1004694,
      "lon": 6.8269329,
      "tags": {
        "amenity": "cafe",
        "name": "La Belle Affaire"
      }
    },
    {
      "type": "node",
      "id": 368315086,
      "lat": 47.1021462,
      "lon": 6.8262996,
      "tags": {
        "addr:city": "La Chaux-de-Fonds",
        "addr:country": "CH",
        "addr:housenumber": "37",
        "addr:postcode": "2300",
        "addr:street": "Rue du Parc",
        "amenity": "cafe",
        "name": "L'Univers",
        "opening_hours": "Mo-Fr 14:00-24:00; Sa 00:00-02:00,14:00-24:00; Su 00:00-02:00",
        "outdoor_seating": "yes",
        "phone": "+41 32 913 40 17"
      }
    },
    {
      "type": "node",
      "id": 370576478,
      "lat": 47.0126628,
      "lon": 6.9860188,
      "tags": {
        "addr:city": "Saint-Blaise",
        "addr:housenumber": "11",
        "addr:postcode": "2072",
        "addr:street": "Avenue Bachelin",
        "amenity": "restaurant",
        "name": "Au Bocca",
        "phone": "+41 32 753 36 80",
        "website": "https://www.le-bocca.com/",
        "wikidata": "Q90151881"
      }
    },
    {
      "type": "node",
      "id": 371199008,
      "lat": 47.101731,
      "lon": 6.8285929,
      "tags": {
        "addr:postcode": "2300",
        "amenity": "restaurant",
        "cuisine": "burger;regional",
        "email": "info@unionlachaux.ch",
        "name": "Union Restaurant du Théâtre",
        "old_name": "L'heure bleue",
        "opening_hours": "Tu-Fr 11:30-14:30, 17:30-23:30; Sa 17:30-23:30",
        "phone": "+41 32 914 01 01",
        "website": "https://unionlachaux.ch"
      }
    },
    {
      "type": "node",
      "id": 379583631,
      "lat": 47.0999343,
      "lon": 6.8254645,
      "tags": {
        "amenity": "cafe",
        "name": "Terminus"
      }
    },
    {
      "type": "node",
      "id": 380875202,
      "lat": 47.055618,
      "lon": 6.7431871,
      "tags": {
        "amenity": "cafe",
        "name": "Lux"
      }
    },
    {
      "type": "node",
      "id": 380889736,
      "lat": 47.0131387,
      "lon": 6.7350788,
      "tags": {
        "addr:city": "Les Ponts-de-Martel",
        "addr:country": "CH",
        "addr:postcode": "2316",
        "amenity": "restaurant",
        "email": "info@petite-joux.ch",
        "name": "Pinte de la Petite-Joux",
        "opening_hours": "Mo 09:00-14:30; Tu-Su 09:00-23:00",
        "operator": "Ariane et Olivier Maurer",
        "outdoor_seating": "yes",
        "phone": "+41 32 937 17 75",
        "website": "https://www.petite-joux.ch/"
      }
    },
    {
      "type": "node",
      "id": 385419848,
      "lat": 47.0581009,
      "lon": 6.7479876,
      "tags": {
        "amenity": "restaurant"
      }
    },
    {
      "type": "node",
      "id": 385419851,
      "lat": 47.0585593,
      "lon": 6.7481672,
      "tags": {
        "amenity": "restaurant",
        "cuisine": "italian",
        "name": "Chez Sandro, Restaurant de la Gare"
      }
    },
    {
      "type": "node",
      "id": 385468962,
      "lat": 47.0401209,
      "lon": 6.8009035,
      "tags": {
        "addr:postcode": "2314",
        "amenity": "restaurant",
        "email": "info@lecochonrose.ch",
        "name": "Restaurant de Commune",
        "name:fr": "Le Cochon Rose",
        "opening_hours": "Mo-Tu 08:30-22:00; Fr 08:30-23:00; Sa 09:00-23:00; Su 09:00-22:00",
        "phone": "+41 32 920 34 14",
        "website": "https://lecochonrose.ch"
      }
    },
    {
      "type": "node",
      "id": 385480290,
      "lat": 47.0547645,
      "lon": 6.7457674,
      "tags": {
        "amenity": "restaurant",
        "name": "Tio Do Porto"
      }
    },
    {
      "type": "node",
      "id": 410314006,
      "lat": 47.013037,
      "lon": 7.0090902,
      "tags": {
        "addr:postcode": "2074",
        "addr:street": "Rue des Perveuils",
        "amenity": "fast_food",
        "brand": "McDonald's",
        "brand:wikidata": "Q38076",
        "brand:wikipedia": "en:McDonald's",
        "cuisine": "burger",
        "drive_through": "yes",
        "email": "administration@dupont-restaurants.ch",
        "internet_access": "wlan",
        "name": "McDonald's",
        "operator": "J.Dupont",
        "outdoor_seating": "yes",
        "phone": "+41 32 753 00 20",
        "smoking": "outside",
        "takeaway": "yes"
      }
    },
    {
      "type": "node",
      "id": 412264237,
      "lat": 46.9634005,
      "lon": 6.7317091,
      "tags": {
        "amenity": "restaurant",
        "name": "Le Haut de la Côte"
      }
    },
    {
      "type": "node",
      "id": 415351271,
      "lat": 47.1027604,
      "lon": 6.8330857,
      "tags": {
        "addr:housenumber": "6",
        "addr:postcode": "2300",
        "addr:street": "Rue de l'Hôtel-de-Ville",
        "amenity": "restaurant",
        "name": "Restaurant du Raisin",
        "opening_hours": "Mo, We-Fr 11:30-14:00, 18:30-00:00; Sa 18:30-00:00; Su 11:30-14:00, 18:30-22:00",
        "operator": "Muller Claude",
        "phone": "+41 32 968 75 98"
      }
    },
    {
      "type": "node",
      "id": 415351273,
      "lat": 47.1031419,
      "lon": 6.8329364,
      "tags": {
        "addr:city": "La Chaux-de-Fonds",
        "addr:country": "CH",
        "addr:housenumber": "1",
        "addr:postcode": "2300",
        "addr:street": "Rue de L'Hôtel-de-Ville",
        "amenity": "restaurant",
        "name": "Hôtel de Ville",
        "opening_hours": "Mo-Sa 11:30-14:30,18:30-23:30",
        "phone": "+41 32 968 44 66",
        "website": "https://www.hotel-de-ville-2300.ch/"
      }
    },
    {
      "type": "node",
      "id": 415430769,
      "lat": 47.0137878,
      "lon": 6.8056891,
      "tags": {
        "amenity": "restaurant",
        "cuisine": "regional",
        "name": "Grande Sagneule",
        "smoking": "outside"
      }
    },
    {
      "type": "node",
      "id": 415608099,
      "lat": 46.9883468,
      "lon": 6.9205876,
      "tags": {
        "addr:housenumber": "1",
        "addr:postcode": "2000",
        "addr:street": "Quai Louis-Perrier",
        "amenity": "restaurant",
        "email": "info@bainsdesdames.ch",
        "name": "Les Bains des Dames",
        "opening_hours": "Mo-Su 10:00-23:00",
        "phone": "+41 32 721 26 55",
        "website": "https://www.bainsdesdames.ch"
      }
    },
    {
      "type": "node",
      "id": 415651481,
      "lat": 46.992858,
      "lon": 6.9255141,
      "tags": {
        "amenity": "restaurant",
        "cuisine": "pizza",
        "name": "Gondola"
      }
    },
    {
      "type": "node",
      "id": 415651492,
      "lat": 46.9905631,
      "lon": 6.9305585,
      "tags": {
        "amenity": "cafe",
        "indoor_seating": "yes",
        "name": "Espresso Bar",
        "outdoor_seating": "no"
      }
    },
    {
      "type": "node",
      "id": 415651493,
      "lat": 46.9908031,
      "lon": 6.930824,
      "tags": {
        "addr:housenumber": "2",
        "addr:postcode": "2000",
        "addr:street": "Saint Honoré",
        "amenity": "fast_food",
        "brand": "Burger King",
        "brand:wikidata": "Q177054",
        "brand:wikipedia": "en:Burger King",
        "cuisine": "burger",
        "diet:halal": "yes",
        "diet:vegan": "yes",
        "diet:vegetarian": "yes",
        "indoor_seating": "yes",
        "name": "Burger King",
        "outdoor_seating": "yes",
        "phone": "+4132 721 07 29",
        "takeaway": "yes",
        "toilets:wheelchair": "no",
        "wheelchair": "yes"
      }
    },
    {
      "type": "node",
      "id": 417796994,
      "lat": 46.9930605,
      "lon": 6.9300786,
      "tags": {
        "amenity": "cafe",
        "name": "Pam-Pam"
      }
    },
    {
      "type": "node",
      "id": 417797011,
      "lat": 46.9901163,
      "lon": 6.9304122,
      "tags": {
        "addr:city": "Neuchâtel",
        "addr:housenumber": "10",
        "addr:postcode": "2000",
        "addr:street": "Rue du Bassin",
        "amenity": "restaurant",
        "check_date:opening_hours": "2024-07-18",
        "cuisine": "pizza",
        "layer": "1",
        "name": "Fleur-de-Lys",
        "opening_hours:signed": "no",
        "phone": "032/7243030",
        "website": "https://pizzeria-neuchatel.ch"
      }
    },
    {
      "type": "node",
      "id": 418019668,
      "lat": 47.1037123,
      "lon": 6.8607596,
      "tags": {
        "amenity": "restaurant",
        "name": "Auberge du Mont-Cornu"
      }
    },
    {
      "type": "node",
      "id": 418850063,
      "lat": 46.9234798,
      "lon": 6.8212185,
      "tags": {
        "amenity": "restaurant",
        "name": "La Trinquette",
        "opening_hours": "Sa,Su 08:30-23:30, Su-Th 08:30-22:30"
      }
    },
    {
      "type": "node",
      "id": 420295428,
      "lat": 47.0072849,
      "lon": 7.0207744,
      "tags": {
        "addr:city": "La Tène",
        "addr:housenumber": "10",
        "addr:postcode": "2075",
        "addr:street": "Route des Marais",
        "amenity": "restaurant",
        "name": "Maccarò",
        "phone": "+41 32 755 71 76",
        "website": "https://maccaro.ch/"
      }
    },
    {
      "type": "node",
      "id": 423244331,
      "lat": 47.1054831,
      "lon": 6.8296114,
      "tags": {
        "amenity": "cafe",
        "cuisine": "regional",
        "name": "ABC",
        "outdoor_seating": "yes"
      }
    },
    {
      "type": "node",
      "id": 423818387,
      "lat": 46.9970319,
      "lon": 6.9372596,
      "tags": {
        "addr:city": "Neuchâtel",
        "addr:country": "CH",
        "addr:housenumber": "3",
        "addr:postcode": "2000",
        "addr:street": "Espace de l'Europe",
        "amenity": "fast_food",
        "brand": "Domino's",
        "brand:wikidata": "Q839466",
        "cuisine": "pizza",
        "delivery": "yes",
        "name": "Domino's",
        "opening_hours": "Mo-Th 11:00-13:30,17:00-22:30; Fr 11:00-13:30,17:00-23:00; Sa 11:00-23:00; Su 11:00-22:30",
        "phone": "+41327325533",
        "smoking": "no",
        "takeaway": "yes",
        "website": "https://www.dominos.ch/",
        "wheelchair": "yes"
      }
    },
    {
      "type": "node",
      "id": 423833238,
      "lat": 46.9921022,
      "lon": 6.9331187,
      "tags": {
        "amenity": "cafe",
        "indoor_seating": "yes",
        "name": "Le Verdi",
        "outdoor_seating": "yes",
        "smoking": "outside"
      }
    },
    {
      "type": "node",
      "id": 423833256,
      "lat": 46.9904264,
      "lon": 6.929723,
      "tags": {
        "addr:city": "Neuchâtel",
        "addr:housenumber": "7",
        "addr:postcode": "2000",
        "addr:street": "Rue de la Treille",
        "amenity": "restaurant",
        "check_date:opening_hours": "2024-10-07",
        "name": "Brasserie Le Jura",
        "opening_hours": "Mo-We 09:00-23:00; Th-Su 09:00-24:00",
        "opening_hours:signed": "no",
        "wheelchair": "no"
      }
    },
    {
      "type": "node",
      "id": 423833258,
      "lat": 46.9903427,
      "lon": 6.9295205,
      "tags": {
        "amenity": "cafe",
        "check_date": "2025-04-16",
        "check_date:opening_hours": "2025-04-16",
        "indoor_seating": "yes",
        "name": "Schmid",
        "opening_hours:signed": "no",
        "outdoor_seating": "yes",
        "wheelchair": "yes"
      }
    },
    {
      "type": "node",
      "id": 423833264,
      "lat": 46.9910366,
      "lon": 6.928556,
      "tags": {
        "addr:housenumber": "4",
        "addr:street": "Rue du Trésor",
        "amenity": "restaurant",
        "email": "maison-des-halles@bluewin.ch",
        "indoor_seating": "yes",
        "name": "Café des Halles",
        "operator": "Maison des Halles",
        "outdoor_seating": "yes",
        "phone": "+41 32 724 31 41",
        "website": "https://maisondeshalles.ch"
      }
    },
    {
      "type": "node",
      "id": 423833278,
      "lat": 46.9914648,
      "lon": 6.9296175,
      "tags": {
        "amenity": "fast_food",
        "check_date:opening_hours": "2024-10-03",
        "cuisine": "kebab",
        "indoor_seating": "yes",
        "name": "Efes Kebab",
        "opening_hours": "Mo-Th 09:00-24:00+; Fr,Sa 09:00-02:00",
        "outdoor_seating": "yes",
        "wheelchair": "yes"
      }
    },
    {
      "type": "node",
      "id": 428582921,
      "lat": 47.1024673,
      "lon": 6.8231231,
      "tags": {
        "addr:city": "La Chaux-de-Fonds",
        "addr:country": "CH",
        "addr:housenumber": "63",
        "addr:postcode": "2300",
        "addr:street": "Rue du Progrès",
        "amenity": "restaurant",
        "email": "es@les-enfantsterribles.ch",
        "name": "Les Enfants Terribles",
        "opening_hours": "Mo-Sa 09:30-14:00, 18:00-00:00",
        "phone": "+41 32 913 39 90",
        "website": "https://les-enfantsterribles.ch"
      }
    },
    {
      "type": "node",
      "id": 430863762,
      "lat": 47.1496868,
      "lon": 6.840365,
      "tags": {
        "amenity": "restaurant",
        "email": "info@maisonmonsieur.ch",
        "name": "Auberge de la Maison-Monsieur",
        "outdoor_seating": "yes",
        "phone": "+41 32 558 37 37",
        "tourism": "hotel",
        "website": "https://www.maisonmonsieur.ch/"
      }
    },
    {
      "type": "node",
      "id": 439137426,
      "lat": 47.1027062,
      "lon": 6.8287388,
      "tags": {
        "amenity": "cafe",
        "name": "Le Forum"
      }
    },
    {
      "type": "node",
      "id": 471486104,
      "lat": 47.0006291,
      "lon": 6.9173919,
      "tags": {
        "access": "private",
        "amenity": "fast_food",
        "fast_food": "cafeteria",
        "name": "Accacias"
      }
    },
    {
      "type": "node",
      "id": 471496127,
      "lat": 47.0508257,
      "lon": 7.0643151,
      "tags": {
        "addr:city": "Le Landeron",
        "addr:housenumber": "6",
        "addr:postcode": "2525",
        "addr:street": "Ville",
        "amenity": "restaurant",
        "name": "Hôtel de Nemours",
        "website": "http://nemours.ch/"
      }
    },
    {
      "type": "node",
      "id": 473477786,
      "lat": 46.9922574,
      "lon": 6.928713,
      "tags": {
        "amenity": "fast_food",
        "cuisine": "kebab",
        "name": "Star restaurant"
      }
    },
    {
      "type": "node",
      "id": 492086964,
      "lat": 46.9918052,
      "lon": 6.9287633,
      "tags": {
        "amenity": "fast_food",
        "cuisine": "japanese",
        "name": "Kirim Sushi"
      }
    },
    {
      "type": "node",
      "id": 492086983,
      "lat": 46.9933402,
      "lon": 6.9274601,
      "tags": {
        "amenity": "restaurant",
        "cuisine": "pizza",
        "name": "Au feu de bois"
      }
    },
    {
      "type": "node",
      "id": 520679493,
      "lat": 46.9869565,
      "lon": 6.8882204,
      "tags": {
        "amenity": "fast_food",
        "check_date:opening_hours": "2023-02-11",
        "cuisine": "kebab",
        "name": "Kebab du Village",
        "opening_hours": "Su-Th 10:30-23:00; Fr,Sa 10:30-24:00"
      }
    },
    {
      "type": "node",
      "id": 520679601,
      "lat": 46.98789,
      "lon": 6.891298,
      "tags": {
        "amenity": "restaurant",
        "name": "Mirabeau"
      }
    },
    {
      "type": "node",
      "id": 533946426,
      "lat": 46.9910067,
      "lon": 6.9288721,
      "tags": {
        "amenity": "restaurant",
        "cuisine": "kebab",
        "name": "La Turquoise",
        "toilets:wheelchair": "yes",
        "wheelchair": "yes",
        "wheelchair:description": "Ascenseur pour les toilettes"
      }
    },
    {
      "type": "node",
      "id": 533946441,
      "lat": 46.9917422,
      "lon": 6.9299725,
      "tags": {
        "addr:housenumber": "7",
        "addr:street": "Rue de l'Hôpital",
        "amenity": "restaurant",
        "cuisine": "pancake",
        "indoor_seating": "yes",
        "name": "La Crêperie",
        "name:fr": "La crêperie Bretonne",
        "opening_hours": "Mo-Su 11:30-21:00",
        "outdoor_seating": "yes",
        "phone": "+41327251080"
      }
    },
    {
      "type": "node",
      "id": 561153335,
      "lat": 46.9915305,
      "lon": 6.9330296,
      "tags": {
        "amenity": "cafe",
        "check_date": "2024-10-25",
        "name": "Couleur Café"
      }
    },
    {
      "type": "node",
      "id": 563797458,
      "lat": 47.1017679,
      "lon": 6.8231416,
      "tags": {
        "amenity": "fast_food",
        "cuisine": "pizza",
        "name": "Pizza Plus",
        "opening_hours": "Mo-Su,PH 11:30-13:30,18:30-22:00",
        "website": "https://www.pizzaplus-ne.ch/"
      }
    },
    {
      "type": "node",
      "id": 563816940,
      "lat": 47.1008016,
      "lon": 6.8216499,
      "tags": {
        "amenity": "restaurant",
        "cuisine": "pizza",
        "name": "Pizzeria El Latino"
      }
    },
    {
      "type": "node",
      "id": 568242693,
      "lat": 47.0129168,
      "lon": 6.7022858,
      "tags": {
        "amenity": "restaurant",
        "cuisine": "regional",
        "name": "Auberge du Vieux-Puits"
      }
    },
    {
      "type": "node",
      "id": 571470033,
      "lat": 46.9925655,
      "lon": 6.9288707,
      "tags": {
        "amenity": "restaurant",
        "cuisine": "italian",
        "email": "artisan@nombril-venus.ch",
        "name": "Le nombril de Venus",
        "opening_hours": "Tu-Fr 09:00-18:00; Mo 11:00-18:00; Sa 09:00-17:00",
        "phone": "+41 32 721 00 46",
        "website": "https://nombril-venus.ch/"
      }
    },
    {
      "type": "node",
      "id": 571470039,
      "lat": 46.9929076,
      "lon": 6.9293446,
      "tags": {
        "amenity": "fast_food",
        "cuisine": "thai",
        "name": "Isanaa"
      }
    },
    {
      "type": "node",
      "id": 571470809,
      "lat": 46.9921378,
      "lon": 6.9294694,
      "tags": {
        "addr:city": "Neuchâtel",
        "addr:housenumber": "20",
        "addr:postcode": "2000",
        "addr:street": "Rue de l'Hôpital",
        "amenity": "fast_food",
        "brand": "McDonald's",
        "brand:wikidata": "Q38076",
        "brand:wikipedia": "fr:McDonald's",
        "cuisine": "burger",
        "diet:meat": "yes",
        "diet:vegetarian": "yes",
        "drive_through": "no",
        "indoor_seating": "yes",
        "name": "McDonald's",
        "opening_hours": "Mo-Th 10:30-22:00; Fr-Sa 10:30-24:00; Su 10:30-22:00",
        "operator": "McDonald's",
        "outdoor_seating": "yes",
        "phone": "+41 32 724 10 34",
        "takeaway": "yes",
        "website": "https://www.mcdonalds.com/ch/fr-ch/location/neuch%C3%A2tel/rue-de-lh%C3%B4pital-20/780021.html",
        "wheelchair": "yes"
      }
    },
    {
      "type": "node",
      "id": 571470812,
      "lat": 46.9919262,
      "lon": 6.9297761,
      "tags": {
        "amenity": "restaurant",
        "check_date:opening_hours": "2024-07-01",
        "indoor_seating": "yes",
        "name": "Migros",
        "opening_hours": "Mo-We,Fr 07:00-19:00; Th 07:00-20:00; Sa 07:00-18:00",
        "outdoor_seating": "no",
        "payment:credit_cards": "yes",
        "payment:debit_cards": "yes",
        "smoking": "no",
        "wheelchair": "limited"
      }
    },
    {
      "type": "node",
      "id": 571474221,
      "lat": 46.9931862,
      "lon": 6.9350867,
      "tags": {
        "amenity": "cafe",
        "name": "Bleu café",
        "wheelchair": "limited"
      }
    },
    {
      "type": "node",
      "id": 571481126,
      "lat": 46.9935052,
      "lon": 6.935493,
      "tags": {
        "amenity": "restaurant",
        "cuisine": "crepe",
        "name": "L'Annexe",
        "opening_hours": "Tu-Sa 11:00-14:30,17:30-22:30",
        "wheelchair": "limited"
      }
    },
    {
      "type": "node",
      "id": 577373476,
      "lat": 46.9961741,
      "lon": 6.9359383,
      "tags": {
        "addr:city": "Neuchâtel",
        "addr:housenumber": "2",
        "addr:postcode": "2000",
        "addr:street": "Place de la Gare",
        "amenity": "restaurant",
        "cuisine": "asian",
        "name": "Mei-Jing",
        "opening_hours": "Mo-Fr 11:00-14:00,17:30-22:00; Sa 17:30-22:00; Su 11:30-14:00,17:30-22:00",
        "website": "http://www.restomeijing.com/",
        "wheelchair": "no"
      }
    },
    {
      "type": "node",
      "id": 577374844,
      "lat": 46.9965862,
      "lon": 6.9360161,
      "tags": {
        "amenity": "fast_food",
        "brand": "McDonald's",
        "brand:wikidata": "Q38076",
        "brand:wikipedia": "en:McDonald's",
        "cuisine": "burger",
        "name": "McDonald's",
        "opening_hours": "Su 08:00-23:00; Mo-Th 06:45-23:00; Fr 06:45-12:00; Sa 08:00-12:00",
        "operator": "McDonald's",
        "phone": "+41 32 725 35 15",
        "smoking": "no",
        "takeaway": "yes"
      }
    },
    {
      "type": "node",
      "id": 585139277,
      "lat": 46.9909529,
      "lon": 6.932938,
      "tags": {
        "addr:city": "Neuchâtel",
        "addr:housenumber": "7",
        "addr:postcode": "2000",
        "addr:street": "Quai du Port",
        "amenity": "restaurant",
        "name": "Le Quai du Port",
        "outdoor_seating": "yes",
        "phone": "+41 32 558 44 40",
        "website": "https://www.lequaiduport.ch/"
      }
    },
    {
      "type": "node",
      "id": 585139278,
      "lat": 46.9908424,
      "lon": 6.9350749,
      "tags": {
        "amenity": "restaurant",
        "cuisine": "sushi",
        "name": "Lake Side"
      }
    },
    {
      "type": "node",
      "id": 590166416,
      "lat": 46.990195,
      "lon": 6.9290439,
      "tags": {
        "amenity": "restaurant",
        "cuisine": "pizza",
        "layer": "1",
        "name": "Cercle National"
      }
    },
    {
      "type": "node",
      "id": 601453281,
      "lat": 46.9935146,
      "lon": 6.9373815,
      "tags": {
        "addr:housenumber": "22",
        "addr:postcode": "2000",
        "addr:street": "Avenue du Premier-Mars",
        "amenity": "restaurant",
        "cuisine": "pancake",
        "name": "Crêperie Bach et Buck",
        "name:fr": "Bach & Buck Crêperie",
        "opening_hours": "Mo-We 09:00-22:00; Th 09:00-22:30; Fr, Sa 11:00-23:00; Su 11:00-22:00",
        "phone": "+41327256353",
        "website": "https://www.bachetbuck.ch",
        "wheelchair": "limited"
      }
    },
    {
      "type": "node",
      "id": 607974093,
      "lat": 46.9930553,
      "lon": 6.934782,
      "tags": {
        "amenity": "restaurant",
        "check_date:opening_hours": "2024-10-03",
        "cuisine": "regional",
        "name": "La Taverne Neuchâteloise",
        "opening_hours": "Mo-Sa 17:30-23:00",
        "wheelchair": "no"
      }
    },
    {
      "type": "node",
      "id": 613410753,
      "lat": 46.9956506,
      "lon": 6.9440716,
      "tags": {
        "amenity": "restaurant",
        "cuisine": "italian",
        "name": "Piazza",
        "wheelchair": "yes"
      }
    },
    {
      "type": "node",
      "id": 622314193,
      "lat": 47.0564711,
      "lon": 7.0656283,
      "tags": {
        "amenity": "restaurant",
        "name": "Restaurant Pizzeria de la Poste",
        "phone": "+41 32 751 31 66",
        "website": "https://www.pizzeria-delaposte.ch/"
      }
    },
    {
      "type": "node",
      "id": 665104581,
      "lat": 47.0069948,
      "lon": 6.9707578,
      "tags": {
        "addr:postcode": "2068",
        "amenity": "cafe",
        "name": "Café du Laténium",
        "name:fr": "Le café du Laténium",
        "wheelchair": "yes"
      }
    },
    {
      "type": "node",
      "id": 666275991,
      "lat": 46.992965,
      "lon": 6.9266068,
      "tags": {
        "addr:city": "Neuchâtel",
        "addr:housenumber": "13",
        "addr:postcode": "2000",
        "addr:street": "Rue de l'Ecluse",
        "amenity": "restaurant",
        "name": "Ecluse 13",
        "opening_hours": "Tu-Fr 11:00-14:00,18:00-23:00; Sa 19:00-23:00",
        "phone": "+41 32 725 07 60",
        "website": "https://ecluse13.ch/"
      }
    },
    {
      "type": "node",
      "id": 670670134,
      "lat": 46.9918853,
      "lon": 6.928412,
      "tags": {
        "amenity": "cafe",
        "name": "Le Trio"
      }
    },
    {
      "type": "node",
      "id": 670670139,
      "lat": 46.991988,
      "lon": 6.9283382,
      "tags": {
        "amenity": "cafe",
        "name": "Café des moulins"
      }
    },
    {
      "type": "node",
      "id": 676151497,
      "lat": 46.9714394,
      "lon": 6.8752961,
      "tags": {
        "addr:city": "Hauvernier",
        "addr:country": "CH",
        "addr:housenumber": "3",
        "addr:postcode": "2012",
        "addr:street": "Place des Perchettes",
        "amenity": "restaurant",
        "name": "Croquignolet",
        "opening_hours": "Mo-Sa 11:00-23:00; Su 11:00-17:30",
        "website": "https://www.lecroquignolet.com/"
      }
    },
    {
      "type": "node",
      "id": 703389721,
      "lat": 46.9245284,
      "lon": 6.7217746,
      "tags": {
        "amenity": "restaurant",
        "cuisine": "regional",
        "name": "La Baronne"
      }
    },
    {
      "type": "node",
      "id": 722258579,
      "lat": 47.0093361,
      "lon": 6.9996408,
      "tags": {
        "addr:city": "Marin-Epagnier",
        "addr:housenumber": "1",
        "addr:postcode": "2074",
        "addr:street": "Rue Auguste-Bachelin",
        "amenity": "restaurant",
        "cuisine": "pizza",
        "name": "La Pergola",
        "phone": "032 753 53 50"
      }
    },
    {
      "type": "node",
      "id": 722258583,
      "lat": 47.0091175,
      "lon": 7.0001102,
      "tags": {
        "amenity": "cafe",
        "name": "Pinte Communale"
      }
    },
    {
      "type": "node",
      "id": 748166862,
      "lat": 47.0472602,
      "lon": 6.8748677,
      "tags": {
        "amenity": "restaurant",
        "cuisine": "chinese",
        "name": "Buffet de la gare",
        "opening_hours": "Mo-Fr 07:00-24:00; Sa-Su 08:00-24:00",
        "outdoor_seating": "yes"
      }
    },
    {
      "type": "node",
      "id": 751818390,
      "lat": 47.0993575,
      "lon": 7.0055038,
      "tags": {
        "amenity": "restaurant",
        "cuisine": "regional",
        "name": "Métairie d'Aarberg"
      }
    },
    {
      "type": "node",
      "id": 751818458,
      "lat": 47.0963819,
      "lon": 7.006837,
      "tags": {
        "amenity": "restaurant",
        "cuisine": "regional",
        "name": "Métairie de Chuffort"
      }
    },
    {
      "type": "node",
      "id": 760713578,
      "lat": 46.9388917,
      "lon": 6.7620092,
      "tags": {
        "addr:postcode": "2022",
        "amenity": "restaurant",
        "cuisine": "regional",
        "name": "Le Lessy",
        "phone": "+41 32 835 32 74",
        "website": "http://www.lessy.ch"
      }
    },
    {
      "type": "node",
      "id": 799543799,
      "lat": 47.0152564,
      "lon": 6.9067362,
      "tags": {
        "amenity": "restaurant",
        "name": "Weber"
      }
    },
    {
      "type": "node",
      "id": 799543810,
      "lat": 47.0152754,
      "lon": 6.907073,
      "tags": {
        "amenity": "cafe",
        "name": "Café du Château"
      }
    },
    {
      "type": "node",
      "id": 851602504,
      "lat": 46.92334,
      "lon": 6.6340999,
      "tags": {
        "amenity": "cafe"
      }
    },
    {
      "type": "node",
      "id": 863333987,
      "lat": 46.9915189,
      "lon": 6.9304464,
      "tags": {
        "amenity": "cafe",
        "check_date:opening_hours": "2024-11-23",
        "name": "Au Moka",
        "opening_hours": "Mo-Sa 07:00-19:00"
      }
    },
    {
      "type": "node",
      "id": 869280585,
      "lat": 46.9906921,
      "lon": 6.9278076,
      "tags": {
        "amenity": "cafe",
        "name": "Le Sud"
      }
    },
    {
      "type": "node",
      "id": 869280619,
      "lat": 46.9904424,
      "lon": 6.9288878,
      "tags": {
        "amenity": "cafe",
        "name": "Floridita",
        "phone": "+41 32 7250908",
        "smoking": "no",
        "wheelchair": "yes"
      }
    },
    {
      "type": "node",
      "id": 869280641,
      "lat": 46.991057,
      "lon": 6.9275641,
      "tags": {
        "addr:city": "Neuchâtel",
        "addr:country": "CH",
        "addr:housenumber": "22",
        "addr:postcode": "2000",
        "addr:street": "Coq-D'inde",
        "amenity": "cafe",
        "name": "Bar de l'univers",
        "opening_hours": "Tu-We 14:00-01:00; Th-Fr 14:00-02:00; Sa 09:00-02:00",
        "phone": "+4132 721 43 40",
        "website": "https://lunivers.ch"
      }
    },
    {
      "type": "node",
      "id": 874383985,
      "lat": 46.9902634,
      "lon": 6.9319181,
      "tags": {
        "amenity": "fast_food",
        "cuisine": "kebab"
      }
    },
    {
      "type": "node",
      "id": 874383986,
      "lat": 46.9904095,
      "lon": 6.9317914,
      "tags": {
        "amenity": "cafe",
        "name": "Le Longchamp - PMU"
      }
    },
    {
      "type": "node",
      "id": 875679318,
      "lat": 46.9912445,
      "lon": 6.9163421,
      "tags": {
        "amenity": "cafe",
        "name": "La Rosière"
      }
    },
    {
      "type": "node",
      "id": 875679348,
      "lat": 46.9916625,
      "lon": 6.9165335,
      "tags": {
        "addr:city": "Neuchâtel",
        "addr:housenumber": "84",
        "addr:postcode": "2000",
        "addr:street": "Rue des Parcs",
        "amenity": "cafe",
        "cuisine": "sandwich",
        "name": "L'oasis"
      }
    },
    {
      "type": "node",
      "id": 881239161,
      "lat": 47.0128127,
      "lon": 6.986387,
      "tags": {
        "addr:city": "Saint-Blaise",
        "addr:housenumber": "4",
        "addr:postcode": "2072",
        "addr:street": "Avenue Bachelin",
        "amenity": "cafe",
        "name": "Royal Pub"
      }
    },
    {
      "type": "node",
      "id": 910351757,
      "lat": 47.068325,
      "lon": 6.6974709,
      "tags": {
        "addr:city": "Les Brenets",
        "addr:country": "CH",
        "addr:housenumber": "26",
        "addr:postcode": "2416",
        "addr:street": "Pré-du-Lac",
        "amenity": "restaurant",
        "name": "Les Rives du Doubs",
        "opening_hours:kitchen": "Mo-Su 11:00-14:30,18:00-21:00",
        "outdoor_seating": "yes",
        "phone": "+41 32 933 99 99",
        "tourism": "hotel",
        "website": "http://www.rives-du-doubs.ch/"
      }
    },
    {
      "type": "node",
      "id": 920226374,
      "lat": 46.9923436,
      "lon": 6.9253255,
      "tags": {
        "amenity": "restaurant",
        "cuisine": "italian",
        "name": "Casa d'Italia"
      }
    },
    {
      "type": "node",
      "id": 930803312,
      "lat": 47.1034146,
      "lon": 6.8307346,
      "tags": {
        "amenity": "fast_food",
        "cuisine": "sandwich",
        "name": "Casse Croûte",
        "opening_hours": "Mo-Fr 10:00-18:30; Sa 10:00-16:00",
        "takeaway": "yes"
      }
    },
    {
      "type": "node",
      "id": 930803424,
      "lat": 47.1009364,
      "lon": 6.8271825,
      "tags": {
        "addr:city": "La Chaux-de-Fonds",
        "addr:country": "CH",
        "addr:housenumber": "41",
        "addr:postcode": "2300",
        "addr:street": "Av. Léopold-Robert",
        "amenity": "restaurant",
        "cuisine": "burger",
        "delivery": "yes",
        "email": "Info@localcraftburgers.ch",
        "name": "Local Craft Burguers",
        "opening_hours": "Mo-Su 11:30-13:30,18:30-21:30",
        "phone": "+41 32 555 44 06",
        "takeaway": "yes",
        "website": "https://www.localcraftburgers.ch/",
        "wheelchair": "no"
      }
    },
    {
      "type": "node",
      "id": 930803428,
      "lat": 47.1043431,
      "lon": 6.8318176,
      "tags": {
        "amenity": "cafe",
        "name": "Le Carioca"
      }
    },
    {
      "type": "node",
      "id": 930803554,
      "lat": 47.1010227,
      "lon": 6.8262525,
      "tags": {
        "amenity": "cafe",
        "name": "Maxim"
      }
    },
    {
      "type": "node",
      "id": 930927185,
      "lat": 47.104377,
      "lon": 6.8356771,
      "tags": {
        "addr:city": "La Chaux-de-Fonds",
        "addr:country": "CH",
        "addr:postcode": "2300",
        "addr:street": "Rue Fritz-Courvoisier",
        "amenity": "fast_food",
        "cuisine": "kebab;pizza",
        "delivery": "yes",
        "name": "Roj",
        "name:fr": "Roj Kebab",
        "opening_hours": "Mo-Sa 10:30-14:30, 17:00-22:30",
        "phone": "+41 32 968 11 33",
        "takeaway": "yes",
        "wheelchair": "yes"
      }
    },
    {
      "type": "node",
      "id": 931443670,
      "lat": 47.1010318,
      "lon": 6.825593,
      "tags": {
        "addr:postcode": "2300",
        "amenity": "cafe",
        "email": "anita.barlefairplay@gmail.com",
        "name": "Fairplay",
        "name:fr": "Le Fair-Play",
        "opening_hours": "Mo-Fr 06:30-20:00; Sa 07:30-14:00",
        "phone": "+41 32 913 33 55",
        "wheelchair": "yes"
      }
    },
    {
      "type": "node",
      "id": 931453816,
      "lat": 47.104018,
      "lon": 6.8308696,
      "tags": {
        "amenity": "restaurant",
        "indoor_seating": "yes",
        "name": "Le Bistro",
        "outdoor_seating": "yes"
      }
    },
    {
      "type": "node",
      "id": 954706046,
      "lat": 47.0086559,
      "lon": 7.0116324,
      "tags": {
        "amenity": "restaurant",
        "cuisine": "chinese",
        "name": "Le Feuillage"
      }
    },
    {
      "type": "node",
      "id": 954706050,
      "lat": 47.0141418,
      "lon": 6.9820261,
      "tags": {
        "addr:city": "Saint-Blaise",
        "addr:housenumber": "12",
        "addr:postcode": "2072",
        "addr:street": "Rue de la Maigroge",
        "amenity": "restaurant",
        "name": "Comme chez Vous, Restaurant Alex",
        "phone": "+41 32 753 58 58",
        "website": "https://commechezvous.ch"
      }
    },
    {
      "type": "node",
      "id": 1030004214,
      "lat": 46.9905771,
      "lon": 6.92886,
      "tags": {
        "addr:city": "Neuchâtel",
        "addr:housenumber": "2",
        "addr:postcode": "2000",
        "addr:street": "Rue de Flandres",
        "amenity": "fast_food",
        "cuisine": "indian",
        "diet:vegetarian": "yes",
        "email": "info@paprika-food.ch",
        "name": "Paprika In & Out",
        "opening_hours": "Mo-Fr 11:00-14:30; Sa 11:00-15:00",
        "operator": "Paprika Sàrl",
        "phone": "+41 32 724 80 80",
        "website": "https://paprika-food.ch/"
      }
    },
    {
      "type": "node",
      "id": 1082703675,
      "lat": 46.9908671,
      "lon": 6.9283587,
      "tags": {
        "amenity": "cafe",
        "name": "Tea-Room Knecht",
        "smoking": "no",
        "wheelchair": "yes"
      }
    },
    {
      "type": "node",
      "id": 1124774794,
      "lat": 46.9116839,
      "lon": 6.7899906,
      "tags": {
        "amenity": "restaurant",
        "name": "Restaurant du Tennis"
      }
    },
    {
      "type": "node",
      "id": 1124774796,
      "lat": 46.9035337,
      "lon": 6.7808239,
      "tags": {
        "amenity": "restaurant",
        "name": "Le Central"
      }
    },
    {
      "type": "node",
      "id": 1168310703,
      "lat": 47.0525532,
      "lon": 7.0647695,
      "tags": {
        "amenity": "restaurant",
        "name": "Antica Roma"
      }
    },
    {
      "type": "node",
      "id": 1225021878,
      "lat": 46.9867757,
      "lon": 6.8884179,
      "tags": {
        "addr:city": "Peseux",
        "addr:country": "CH",
        "addr:housenumber": "10",
        "addr:postcode": "2034",
        "addr:street": "Grand'Rue",
        "amenity": "fast_food",
        "name": "Pizza Kebab Diamant",
        "opening_hours": "Mo-Su 10:00-23:00"
      }
    },
    {
      "type": "node",
      "id": 1237728749,
      "lat": 47.1028161,
      "lon": 6.831716,
      "tags": {
        "amenity": "restaurant",
        "cuisine": "regional",
        "name": "La Pinte Neuchâteloise",
        "phone": "+41 32 913 20 30"
      }
    },
    {
      "type": "node",
      "id": 1237728786,
      "lat": 47.1031733,
      "lon": 6.8333522,
      "tags": {
        "addr:city": "La Chaux-de-Fonds",
        "addr:country": "CH",
        "addr:housenumber": "5",
        "addr:postcode": "2300",
        "addr:street": "Rue des Granges",
        "amenity": "restaurant",
        "cuisine": "regional",
        "name": "Des Faucheurs",
        "name:fr": "Le Café des Faucheurs",
        "opening_hours": "Tu-Sa 10:00-14:00, 18:00-23:00",
        "outdoor_seating": "yes",
        "phone": "+41 32 964 11 00",
        "website": "https://le-cafe-des-faucheurs.business.site/"
      }
    },
    {
      "type": "node",
      "id": 1249654939,
      "lat": 47.0822936,
      "lon": 7.0654867,
      "tags": {
        "amenity": "restaurant",
        "name": "Café de la Poste"
      }
    },
    {
      "type": "node",
      "id": 1249654942,
      "lat": 47.0859975,
      "lon": 7.0711998,
      "tags": {
        "amenity": "restaurant",
        "name": "Fraso-Ranch"
      }
    },
    {
      "type": "node",
      "id": 1279237245,
      "lat": 46.9966783,
      "lon": 6.9501573,
      "tags": {
        "addr:city": "Neuchâtel",
        "addr:housenumber": "14",
        "addr:postcode": "2000",
        "addr:street": "Route des Falaises",
        "amenity": "restaurant",
        "name": "Brasserie V - Cercle de la Voile",
        "phone": "+41 32 724 61 33",
        "website": "https://www.cvn-restaurant.ch",
        "wheelchair": "limited"
      }
    },
    {
      "type": "node",
      "id": 1298322274,
      "lat": 46.930218,
      "lon": 6.8155653,
      "tags": {
        "amenity": "restaurant",
        "cuisine": "pizza",
        "description": "Restaurant italien",
        "name": "I Nonni",
        "opening_hours": "Mo, Th-Su 10:30-14:00, 17:30-23:00"
      }
    },
    {
      "type": "node",
      "id": 1298322281,
      "lat": 46.9304305,
      "lon": 6.8156055,
      "tags": {
        "amenity": "restaurant",
        "name": "Hôtel restaurant du Cygne"
      }
    },
    {
      "type": "node",
      "id": 1298329754,
      "lat": 46.9195662,
      "lon": 6.7979933,
      "tags": {
        "amenity": "restaurant",
        "name": "Auberge du Plan Jacot"
      }
    },
    {
      "type": "node",
      "id": 1298334840,
      "lat": 46.960983,
      "lon": 6.8674143,
      "tags": {
        "amenity": "restaurant",
        "name": "Le Sporting"
      }
    },
    {
      "type": "node",
      "id": 1298334841,
      "lat": 46.9595844,
      "lon": 6.8642707,
      "tags": {
        "amenity": "restaurant",
        "name": "La Cantine",
        "phone": "+41328450808",
        "website": "restaurant-lacantine.ch"
      }
    },
    {
      "type": "node",
      "id": 1323879070,
      "lat": 46.9945725,
      "lon": 6.9308555,
      "tags": {
        "addr:postcode": "2000",
        "addr:street": "Rue du Tertre",
        "amenity": "restaurant",
        "cuisine": "italian",
        "name": "Colonia Libera Italiana"
      }
    },
    {
      "type": "node",
      "id": 1350475301,
      "lat": 47.0589766,
      "lon": 6.7502734,
      "tags": {
        "amenity": "restaurant"
      }
    },
    {
      "type": "node",
      "id": 1350475308,
      "lat": 47.0582162,
      "lon": 6.7487337,
      "tags": {
        "amenity": "restaurant",
        "cuisine": "thai",
        "name": "jampa Thaï Cuisine",
        "outdoor_seating": "yes"
      }
    },
    {
      "type": "node",
      "id": 1350475323,
      "lat": 47.0574041,
      "lon": 6.7477654,
      "tags": {
        "amenity": "fast_food",
        "cuisine": "kebab",
        "name": "Anatolia"
      }
    },
    {
      "type": "node",
      "id": 1374134209,
      "lat": 47.0573255,
      "lon": 6.8930591,
      "tags": {
        "addr:city": "Fontainemelon",
        "addr:country": "CH",
        "addr:street": "Avenue Robert",
        "amenity": "cafe",
        "name": "Daily",
        "source": "Orthophotos 2006 SITN 50cm"
      }
    },
    {
      "type": "node",
      "id": 1376641322,
      "lat": 47.0559698,
      "lon": 6.8901163,
      "tags": {
        "amenity": "restaurant",
        "name": "Restaurant de l'Union",
        "source": "Orthophotos 2006 SITN 50cm"
      }
    },
    {
      "type": "node",
      "id": 1491861269,
      "lat": 46.9972296,
      "lon": 6.9376225,
      "tags": {
        "addr:city": "Neuchâtel",
        "addr:housenumber": "7",
        "addr:postcode": "2000",
        "addr:street": "Espace de l'Europe",
        "amenity": "restaurant",
        "check_date": "2023-12-07",
        "cuisine": "burger;kebab",
        "name": "King Food",
        "opening_hours": "Mo-Sa 10:30-14:00,17:00-22:00; Su 17:00-22:00",
        "phone": "+41 32 753 04 30"
      }
    },
    {
      "type": "node",
      "id": 1502783510,
      "lat": 47.1060683,
      "lon": 6.8307023,
      "tags": {
        "addr:city": "La Chaux-de-Fonds",
        "addr:country": "CH",
        "addr:housenumber": "2",
        "addr:postcode": "2300",
        "addr:street": "Rue des Terreaux",
        "amenity": "restaurant",
        "cuisine": "crepe",
        "name": "Crêperie Poivre & Sel",
        "opening_hours": "Mo-Su 11:30-14:00, 18:00-23:00",
        "phone": "+41 32 968 10 74"
      }
    },
    {
      "type": "node",
      "id": 1639346050,
      "lat": 47.010772,
      "lon": 6.9734794,
      "tags": {
        "addr:housenumber": "50",
        "addr:street": "Rouges-Terres",
        "amenity": "restaurant",
        "name": "China Town"
      }
    },
    {
      "type": "node",
      "id": 1639346057,
      "lat": 47.0132482,
      "lon": 6.972164,
      "tags": {
        "amenity": "restaurant",
        "name": "L'Auberge d'Hauterive",
        "opening_hours": "We-Sa 12:00-14:00,19:00-23:00; Su 12:00-15:00"
      }
    },
    {
      "type": "node",
      "id": 1642345626,
      "lat": 46.9976198,
      "lon": 6.9360365,
      "tags": {
        "addr:city": "Neuchâtel",
        "addr:housenumber": "11a",
        "addr:postcode": "2000",
        "addr:street": "Faubourg de la gare",
        "amenity": "restaurant",
        "contact:facebook": "https://www.facebook.com/eateco.neuchatel",
        "contact:website": "https://eateco-natural-food.business.site",
        "diet:vegan": "only",
        "diet:vegetarian": "only",
        "name": "Eateco Natural Food",
        "opening_hours": "Mo-We 11:45-14:15; Th,Fr 11:45-14:15,18:30-21:30",
        "organic": "yes",
        "phone": "+41 76 2191593",
        "wheelchair": "no"
      }
    },
    {
      "type": "node",
      "id": 1642920033,
      "lat": 46.99174,
      "lon": 6.9303626,
      "tags": {
        "amenity": "fast_food",
        "cuisine": "sandwich",
        "name": "Sandwicherie Chez Sani",
        "opening_hours": "Mo 10:00-16:00; Tu-Fr 10:00-17:00; Sa 10:00-15:00"
      }
    },
    {
      "type": "node",
      "id": 1665580042,
      "lat": 46.9882846,
      "lon": 6.8949889,
      "tags": {
        "amenity": "restaurant",
        "check_date": "2023-09-17",
        "name": "Restaurant du Vignoble",
        "operator": "Hôtel du vignoble"
      }
    },
    {
      "type": "node",
      "id": 1665607422,
      "lat": 46.9835858,
      "lon": 6.8846999,
      "tags": {
        "addr:city": "Corcelles",
        "addr:housenumber": "2",
        "addr:postcode": "2035",
        "addr:street": "Rue de la Gare",
        "amenity": "restaurant",
        "check_date": "2023-12-10",
        "name": "Restaurant de la Gare",
        "phone": "+41327316131",
        "website": "https://fr-fr.facebook.com/pages/category/European-Restaurant/Restaurant-de-la-Gare-Corcelles-Peseux-251908781509052/"
      }
    },
    {
      "type": "node",
      "id": 1665635218,
      "lat": 46.9884127,
      "lon": 6.8960832,
      "tags": {
        "amenity": "cafe",
        "name": "OK Bar"
      }
    },
    {
      "type": "node",
      "id": 1665644357,
      "lat": 46.9882334,
      "lon": 6.9102238,
      "tags": {
        "amenity": "cafe"
      }
    },
    {
      "type": "node",
      "id": 1665649858,
      "lat": 46.9916209,
      "lon": 6.9341995,
      "tags": {
        "amenity": "fast_food",
        "check_date:opening_hours": "2023-04-15",
        "cuisine": "burger;fries;fish_and_chips;hot_dog;falafel;ice_cream",
        "currency:CHF": "yes",
        "currency:EUR": "no",
        "currency:USD": "no",
        "currency:XBT": "yes",
        "drive_through": "no",
        "name": "La Frite Vagabonde",
        "opening_hours": "Mo-Su 11:00-21:00",
        "opening_hours:signed": "no",
        "outdoor_seating": "yes",
        "payment:cash": "yes",
        "payment:lightning": "yes",
        "payment:lightning_contactless": "no",
        "payment:onchain": "no",
        "survey:date": "2024-03-01",
        "takeaway": "yes",
        "wheelchair": "yes"
      }
    },
    {
      "type": "node",
      "id": 1668000201,
      "lat": 46.9547047,
      "lon": 6.8479634,
      "tags": {
        "addr:city": "Areuse",
        "addr:housenumber": "25",
        "addr:postcode": "2015",
        "addr:street": "Route du Vignoble",
        "amenity": "restaurant",
        "cuisine": "chinese",
        "name": "Hong Kong Palace",
        "opening_hours": "Tous les jours sauf lundi soir. Café toute la journée.",
        "phone": "+41 32 724 44 01",
        "website": "https://www.hongkongpalace.ch/"
      }
    },
    {
      "type": "node",
      "id": 1760866991,
      "lat": 46.9895202,
      "lon": 6.921701,
      "tags": {
        "addr:city": "Neuchâtel",
        "addr:housenumber": "39",
        "addr:postcode": "2000",
        "addr:street": "Rue de l'Evole",
        "amenity": "restaurant",
        "cuisine": "indian",
        "diet:vegetarian": "yes",
        "name": "Paprika",
        "opening_hours": "Tu-Fr 11:30-13:45,18:00-21:00; Sa 18:00-21:00",
        "operator": "Paprika Sàrl",
        "phone": "+41 32 724 06 80",
        "website": "http://www.paprikafood.ch"
      }
    },
    {
      "type": "node",
      "id": 1802370604,
      "lat": 46.9165472,
      "lon": 6.6003882,
      "tags": {
        "addr:city": "Boveresse",
        "addr:street": "Rue du Quarre",
        "amenity": "restaurant",
        "name": "Central"
      }
    },
    {
      "type": "node",
      "id": 1810075355,
      "lat": 46.9011406,
      "lon": 6.7856709,
      "tags": {
        "amenity": "restaurant",
        "check_date": "2025-06-07",
        "cuisine": "japanese",
        "name": "Kobé",
        "opening_hours": "Tu-Sa 11:45-14:15, 18:30-22:30",
        "payment:cash": "yes",
        "payment:credit_cards": "yes",
        "payment:debit_cards": "yes",
        "phone": "+41 32 544 22 44",
        "website": "http://restaurant-kobe.ch"
      }
    },
    {
      "type": "node",
      "id": 1844478111,
      "lat": 47.0973744,
      "lon": 6.8154564,
      "tags": {
        "addr:city": "La Chaux-de-Fonds",
        "addr:country": "CH",
        "addr:housenumber": "15",
        "addr:postcode": "2300",
        "addr:street": "Rue du Président-Wilson",
        "amenity": "cafe",
        "name": "Au Willson 15",
        "outdoor_seating": "yes",
        "phone": "+41 32 926 31 32",
        "shop": "kiosk"
      }
    },
    {
      "type": "node",
      "id": 1844478115,
      "lat": 47.0891596,
      "lon": 6.8029359,
      "tags": {
        "addr:city": "La-Chaux-de-Fonds",
        "addr:country": "CH",
        "addr:housenumber": "20",
        "addr:postcode": "2300",
        "addr:street": "Boulevard des Eplatures",
        "amenity": "restaurant",
        "name": "Manor Restaurant",
        "opening_hours": "Mo 13:30-18:30; Tu-We 09:00-18:30; Th 09:00-20:00; Fr 09:00-18:30; Sa 08:00-17:00",
        "operator": "Manor",
        "wheelchair": "yes"
      }
    },
    {
      "type": "node",
      "id": 1874484569,
      "lat": 46.9900312,
      "lon": 6.9300549,
      "tags": {
        "amenity": "restaurant",
        "layer": "3",
        "name": "Coop City",
        "opening_hours": "Mo-We,Fr 08:00-19:00; Th 08:00-20:00; Sa 08:00-18:00",
        "smoking": "no",
        "wheelchair": "yes"
      }
    },
    {
      "type": "node",
      "id": 1874484612,
      "lat": 46.9897199,
      "lon": 6.9297954,
      "tags": {
        "amenity": "cafe",
        "name": "Le Baron",
        "opening_hours": "Mo-Sa 08:00-19:00"
      }
    },
    {
      "type": "node",
      "id": 1875138043,
      "lat": 46.9968891,
      "lon": 6.9340322,
      "tags": {
        "addr:city": "Neuchâtel",
        "addr:country": "CH",
        "addr:housenumber": "5",
        "addr:postcode": "2000",
        "addr:street": "Place Blaise-Cendrars",
        "amenity": "restaurant",
        "contact:facebook": "FritesBelga",
        "contact:instagram": "fritesbelga",
        "cuisine": "burger;friture;sandwich",
        "email": "neuchatel@lesbelgeries.com",
        "name": "Les Belgeries",
        "opening_hours": "Tu-We 11:30-14:00, 16:30-21:30; Th-Sa 11:30-22:30; Su 11:30-21:30",
        "outdoor_seating": "yes",
        "website": "https://www.lesbelgeries.com",
        "wheelchair": "limited"
      }
    },
    {
      "type": "node",
      "id": 2007275267,
      "lat": 46.9489058,
      "lon": 6.870728,
      "tags": {
        "amenity": "restaurant",
        "name": "Café Restaurant Plage de Boudry",
        "outdoor_seating": "yes"
      }
    },
    {
      "type": "node",
      "id": 2007918805,
      "lat": 46.957396,
      "lon": 6.8574025,
      "tags": {
        "amenity": "restaurant",
        "name": "Pinte du Buisson"
      }
    },
    {
      "type": "node",
      "id": 2060695833,
      "lat": 46.9858618,
      "lon": 6.837633,
      "tags": {
        "addr:city": "Montmollin",
        "addr:housenumber": "5",
        "addr:postcode": "2037",
        "addr:street": "Les Murailles",
        "amenity": "restaurant",
        "designation": "EcoHotel ***",
        "email": "CONTACT@AUBIER.CH",
        "name": "L'Aubier",
        "opening_hours": "7:30-23:00",
        "phone": "+41 32 7322211",
        "rooms": "25",
        "tourism": "hotel",
        "website": "https://www.aubier.ch"
      }
    },
    {
      "type": "node",
      "id": 2121492885,
      "lat": 47.0992859,
      "lon": 6.8236151,
      "tags": {
        "addr:housenumber": "70",
        "addr:street": "Avenue Léopold-Robert",
        "amenity": "fast_food",
        "cuisine": "turkish",
        "name": "Istanbul Kebab et Pizza",
        "opening_hours": "Tu-Th 10:30-14:00, 17:00-22:00; Fr-Sa 10:30-14:00, 17:00-23:00; Su 10:00-18:00",
        "phone": "+41 32 913 10 80",
        "takeaway": "yes",
        "wheelchair": "no"
      }
    },
    {
      "type": "node",
      "id": 2121492892,
      "lat": 47.0993488,
      "lon": 6.8237351,
      "tags": {
        "amenity": "fast_food",
        "cuisine": "asian",
        "name": "Pekin Express",
        "wheelchair": "no"
      }
    },
    {
      "type": "node",
      "id": 2122292657,
      "lat": 47.1026848,
      "lon": 6.8303829,
      "tags": {
        "addr:city": "La Chaux-de-Fonds",
        "addr:country": "CH",
        "addr:housenumber": "13",
        "addr:postcode": "2300",
        "addr:street": "Avenue Léopold-Robert",
        "amenity": "restaurant",
        "cuisine": "italian",
        "name": "L'Elite Pizzeria Grill",
        "phone": "+41 32 914 18 24"
      }
    },
    {
      "type": "node",
      "id": 2312979715,
      "lat": 47.009401,
      "lon": 7.0016814,
      "tags": {
        "amenity": "fast_food",
        "cuisine": "turkish",
        "name": "House Pizza Kebab"
      }
    },
    {
      "type": "node",
      "id": 2326302300,
      "lat": 46.9941657,
      "lon": 6.9370112,
      "tags": {
        "amenity": "restaurant",
        "name": "Restaurant de la Rotonde",
        "website": "https://www.casino-neuchatel.ch/restaurant-bars/restaurant-de-la-rotonde/"
      }
    },
    {
      "type": "node",
      "id": 2407413197,
      "lat": 47.119467,
      "lon": 7.0008843,
      "tags": {
        "amenity": "restaurant",
        "name": "Bonne Auberge Les Bugnenets"
      }
    },
    {
      "type": "node",
      "id": 2410187428,
      "lat": 47.0717826,
      "lon": 6.9577886,
      "tags": {
        "amenity": "restaurant",
        "name": "Hôtel de Commune",
        "source": "Orthophotos 2006 SITN 50cm",
        "wheelchair": "limited"
      }
    },
    {
      "type": "node",
      "id": 2411403528,
      "lat": 47.070869,
      "lon": 6.9547,
      "tags": {
        "amenity": "cafe",
        "name": "Le Faubourg",
        "source": "Orthophotos 2006 SITN 50cm"
      }
    },
    {
      "type": "node",
      "id": 2422252385,
      "lat": 47.009387,
      "lon": 6.963176,
      "tags": {
        "amenity": "restaurant",
        "name": "Ichi",
        "opening_hours": "Mo-Sa 11:30-13:30, Mo-We 18:00-21:30, Th-Sa 18:00-22:00"
      }
    },
    {
      "type": "node",
      "id": 2429915680,
      "lat": 46.991116,
      "lon": 6.9335804,
      "tags": {
        "amenity": "restaurant",
        "name": "Bar du Lac",
        "operator": "LNM",
        "outdoor_seating": "yes"
      }
    },
    {
      "type": "node",
      "id": 2452540187,
      "lat": 46.9915321,
      "lon": 6.9284929,
      "tags": {
        "amenity": "restaurant",
        "cuisine": "italian",
        "indoor_seating": "yes",
        "name": "Le Banneret",
        "outdoor_seating": "yes",
        "website": "https://restaurantlebanneret.ch/"
      }
    },
    {
      "type": "node",
      "id": 2478282639,
      "lat": 46.9903653,
      "lon": 6.9373965,
      "tags": {
        "amenity": "cafe",
        "cuisine": "crèpes",
        "internet_access": "no",
        "name": "Kiosk Art",
        "website": "http://www.kiosk-art.ch/",
        "wheelchair": "yes"
      }
    },
    {
      "type": "node",
      "id": 2571368188,
      "lat": 46.9664947,
      "lon": 6.861891,
      "tags": {
        "amenity": "cafe"
      }
    },
    {
      "type": "node",
      "id": 2571371040,
      "lat": 46.9660442,
      "lon": 6.8634172,
      "tags": {
        "addr:city": "Colombier",
        "addr:housenumber": "1",
        "addr:postcode": "2013",
        "addr:street": "Rue du Château",
        "amenity": "restaurant",
        "name": "La Taverne du Château",
        "website": "https://lataverneduchateau.ch/"
      }
    },
    {
      "type": "node",
      "id": 2582810217,
      "lat": 47.1046598,
      "lon": 6.8306353,
      "tags": {
        "addr:housenumber": "7",
        "addr:street": "rue du 1er Mars",
        "amenity": "restaurant",
        "email": "info@chezgilles.ch",
        "internet_access": "wlan",
        "internet_access:fee": "no",
        "name": "Chez Gilles",
        "opening_hours": "Mo-Su 07:30-21:00",
        "phone": "+41 32 968 28 32",
        "rooms": "16",
        "stars": "2",
        "tourism": "hotel",
        "website": "https://www.chezgilles.ch/"
      }
    },
    {
      "type": "node",
      "id": 2623690781,
      "lat": 47.1002381,
      "lon": 6.8275657,
      "tags": {
        "amenity": "cafe",
        "layer": "1",
        "name": "Le Métro"
      }
    },
    {
      "type": "node",
      "id": 2961636238,
      "lat": 46.8863125,
      "lon": 6.5518264,
      "tags": {
        "amenity": "restaurant",
        "name": "Auberge des Fées",
        "name:fr": "Auberge des Fées",
        "tourism": "hotel",
        "website": "https://www.auberge-des-fees.ch/"
      }
    },
    {
      "type": "node",
      "id": 3094471161,
      "lat": 46.9922941,
      "lon": 6.9356325,
      "tags": {
        "addr:city": "Neuchâtel",
        "addr:housenumber": "7",
        "addr:postcode": "2000",
        "addr:street": "Rue Jean-Jacques-Lallemand",
        "amenity": "restaurant",
        "cuisine": "tibetan",
        "diet:vegan": "yes",
        "diet:vegetarian": "yes",
        "name": "Himalaya Momo",
        "opening_hours": "Mo-Sa 08:00-21:00",
        "phone": "+41 32 555 46 60",
        "website": "https://himalaya-momo.ch"
      }
    },
    {
      "type": "node",
      "id": 3105171635,
      "lat": 47.0522813,
      "lon": 7.0698303,
      "tags": {
        "amenity": "restaurant"
      }
    },
    {
      "type": "node",
      "id": 3226857167,
      "lat": 47.0639217,
      "lon": 6.9213081,
      "tags": {
        "addr:city": "Chézard-Saint-Martin",
        "addr:housenumber": "34",
        "addr:postcode": "2054",
        "addr:street": "Grand-Rue",
        "amenity": "restaurant",
        "email": "contact@lacroix-dor.ch",
        "name": "La Croix d'Or",
        "opening_hours": "Tu-Th 08:00-23:59; Fr-Sa 09:00-24:00; Su 09:00-16:00",
        "outdoor_seating": "yes",
        "phone": "+41 32 853 20 88",
        "reservation": "recommended",
        "website": "http://lacroix-dor.ch/"
      }
    },
    {
      "type": "node",
      "id": 3265011413,
      "lat": 46.9968769,
      "lon": 6.944553,
      "tags": {
        "addr:city": "Neuchâtel",
        "addr:housenumber": "62",
        "addr:postcode": "2000",
        "addr:street": "Rue de la Maladière",
        "amenity": "restaurant",
        "check_date": "2024-01-20",
        "name": "Le Romarin",
        "outdoor_seating": "yes",
        "phone": "+41 32 717 49 69",
        "website": "https://www.romarin.ch/"
      }
    },
    {
      "type": "node",
      "id": 3382899626,
      "lat": 46.9929641,
      "lon": 6.7532566,
      "tags": {
        "addr:city": "Brot-Plamboz",
        "addr:country": "CH",
        "addr:housenumber": "26",
        "addr:place": "Les Petits-Ponts",
        "addr:postcode": "2318",
        "amenity": "restaurant",
        "cuisine": "regional",
        "internet_access": "wlan",
        "name": "Restaurant Les Bouleaux",
        "opening_hours": "Tu-Fr 08:00-14:00,17:00-23:00; Sa 10:00-23:00; Su 10:00-15:00",
        "outdoor_seating": "yes",
        "phone": "+41 32 937 21 53"
      }
    },
    {
      "type": "node",
      "id": 3577398775,
      "lat": 46.9753513,
      "lon": 6.8786905,
      "tags": {
        "addr:city": "Auvernier",
        "addr:housenumber": "1",
        "addr:postcode": "2012",
        "addr:street": "Rue des Epancheurs",
        "amenity": "restaurant",
        "name": "Brasserie du Poisson",
        "opening_hours": "Mo off; Tu-Sa 10:00-23:30; Su off",
        "phone": "+41327316231",
        "website": "https://www.lepoisson-auvernier.ch/"
      }
    },
    {
      "type": "node",
      "id": 3603507724,
      "lat": 47.015442,
      "lon": 6.9905428,
      "tags": {
        "addr:city": "Saint-Blaise",
        "addr:housenumber": "2",
        "addr:postcode": "2072",
        "addr:street": "Rue du Tilleul",
        "amenity": "restaurant",
        "name": "Le Montagnard",
        "phone": "+41 32 753 86 86"
      }
    },
    {
      "type": "node",
      "id": 3603507726,
      "lat": 47.0138964,
      "lon": 6.9873998,
      "tags": {
        "addr:city": "Saint-Blaise",
        "addr:housenumber": "11",
        "addr:postcode": "2072",
        "addr:street": "Rue du Temple",
        "amenity": "restaurant",
        "cuisine": "japanese",
        "name": "Ikiru",
        "phone": "+41 32 753 08 41",
        "website": "http://www.restaurant-ikiru.ch"
      }
    },
    {
      "type": "node",
      "id": 3603507727,
      "lat": 47.0132085,
      "lon": 6.986366,
      "tags": {
        "addr:city": "Saint-Blaise",
        "addr:housenumber": "8",
        "addr:postcode": "2072",
        "addr:street": "Grand-Rue",
        "amenity": "restaurant",
        "check_date": "2023-08-30",
        "name": "Sucré Salé",
        "phone": "+41 32 753 05 45",
        "website": "http://www.sucrésalé.ch"
      }
    },
    {
      "type": "node",
      "id": 3603507728,
      "lat": 47.0132168,
      "lon": 6.9864724,
      "tags": {
        "addr:city": "Saint-Blaise",
        "addr:housenumber": "10",
        "addr:postcode": "2072",
        "addr:street": "Grand-Rue",
        "amenity": "restaurant",
        "check_date": "2024-02-01",
        "cuisine": "thai",
        "name": "Red Pepper",
        "phone": "+41 32 535 10 45",
        "website": "https://www.redpepper.ch/"
      }
    },
    {
      "type": "node",
      "id": 3603507729,
      "lat": 47.0323129,
      "lon": 6.9923127,
      "tags": {
        "addr:city": "Saint-Blaise",
        "addr:postcode": "2072",
        "addr:street": "Voëns",
        "amenity": "restaurant",
        "name": "Restaurant du Golf \"O19ème\"",
        "phone": "+41 32 753 50 05",
        "website": "https://www.golfdeneuchatel.ch/"
      }
    },
    {
      "type": "node",
      "id": 3646324611,
      "lat": 46.9801179,
      "lon": 6.6069146,
      "tags": {
        "addr:city": "La Brévine",
        "addr:housenumber": "182",
        "addr:postcode": "2406",
        "addr:street": "Village",
        "amenity": "restaurant",
        "cuisine": "pizza;regional",
        "name": "l'Isba",
        "note": "NOUS AVONS LE REGRET DE VOUS ANNONCER LA FERMETURE DU BAR L'ISBA ET CE JUSQU'À NOUVEL AVIS. DES LIVRAISONS A DOMICILE SONT ORGANISES SUR DEMANDE. PIZZA ET PLATS A LA CARTE A L'EMPORTER LE MID visitez nous sur facebook: https://www.facebook.com/barlisba/",
        "opening_hours": "Mo,Tu,Fr 07:00-24:00; We 07:00-18:30; Th off; Sa,Su 07:30-24:00",
        "phone": "+41 32 935 13 06",
        "smoking": "no",
        "website": "https://barisba.wixsite.com/pizzeria"
      }
    },
    {
      "type": "node",
      "id": 3648432650,
      "lat": 46.9620475,
      "lon": 6.5500364,
      "tags": {
        "addr:city": "La Brèvine",
        "addr:country": "CH",
        "addr:postcode": "2406",
        "amenity": "restaurant",
        "cuisine": "regional",
        "name": "Chez Bichon",
        "opening_hours": "Th,Su 09:00-17:00; Fr,Sa 09:00-23:00",
        "phone": "+41 32 935 12 58",
        "website": "http://www.restaurant-chez-bichon-brevine.ch/fr/"
      }
    },
    {
      "type": "node",
      "id": 3668151784,
      "lat": 46.9962667,
      "lon": 6.9360252,
      "tags": {
        "addr:city": "Neuchâtel",
        "addr:housenumber": "2",
        "addr:postcode": "2000",
        "addr:street": "Place de la Gare",
        "amenity": "restaurant",
        "check_date": "2023-12-07",
        "cuisine": "regional",
        "name": "La Fugue (Hôtel Alpes et Lac)",
        "phone": "+41 32 723 19 19",
        "smoking": "outside",
        "website": "https://www.alpesetlac.ch/fr/restaurant"
      }
    },
    {
      "type": "node",
      "id": 3713832204,
      "lat": 46.9661486,
      "lon": 6.8613487,
      "tags": {
        "addr:city": "Colombier",
        "addr:postcode": "2013",
        "amenity": "restaurant",
        "contact:phone": "+41 32 841 33 62",
        "name": "L'Etoile",
        "opening_hours": "Tu-Sa 10:00-14:00,17:00-23:00",
        "outdoor_seating": "yes"
      }
    },
    {
      "type": "node",
      "id": 3749795675,
      "lat": 47.0194025,
      "lon": 6.7427226,
      "tags": {
        "addr:city": "Petit-Martel",
        "addr:country": "CH",
        "addr:postcode": "2316",
        "addr:street": "Le Petit-Sommartel",
        "amenity": "restaurant",
        "beds": "26",
        "name": "Le Petit-Sommartel",
        "outdoor_seating": "yes",
        "phone": "+41 32 937 16 55",
        "rooms": "3",
        "tourism": "hostel"
      }
    },
    {
      "type": "node",
      "id": 3777751805,
      "lat": 46.9920521,
      "lon": 6.9232603,
      "tags": {
        "addr:housenumber": "49",
        "addr:street": "Rue de l'Écluse",
        "amenity": "restaurant",
        "cuisine": "italian",
        "name": "Famiglia Leccese"
      }
    },
    {
      "type": "node",
      "id": 3809088144,
      "lat": 46.9023327,
      "lon": 6.5824753,
      "tags": {
        "addr:city": "Fleurier",
        "addr:country": "CH",
        "addr:housenumber": "14",
        "addr:postcode": "2114",
        "addr:street": "Grand'Rue",
        "amenity": "restaurant",
        "contact:email": "info@labrasseriedumarche.ch",
        "contact:phone": "+41 32 861 44 00",
        "contact:website": "https://brasseriedumarche.ch/",
        "name": "Brasserie du Marché",
        "outdoor_seating": "yes"
      }
    },
    {
      "type": "node",
      "id": 3846619157,
      "lat": 47.0110563,
      "lon": 6.9926858,
      "tags": {
        "addr:city": "Saint-Blaise",
        "addr:housenumber": "15",
        "addr:postcode": "2072",
        "addr:street": "Rue de la Musinière",
        "amenity": "cafe",
        "name": "Café Broc'Antic",
        "phone": "+41 79 662 54 26"
      }
    },
    {
      "type": "node",
      "id": 3897950480,
      "lat": 46.9916828,
      "lon": 6.9282753,
      "tags": {
        "addr:city": "Neuchâtel",
        "addr:housenumber": "4",
        "addr:postcode": "2000",
        "addr:street": "Rue du Château",
        "amenity": "restaurant",
        "check_date": "2025-02-08",
        "cuisine": "crepe",
        "indoor_seating": "yes",
        "name": "La Crêperie du Château",
        "opening_hours": "Mo-Th 10:00-21:00; Fr 10:00-22:00; Sa 09:00-22:00; Su 11:30-20:00",
        "outdoor_seating": "yes",
        "phone": "+41 32 721 02 00",
        "website": "https://www.creperieduchateau.ch"
      }
    },
    {
      "type": "node",
      "id": 4030361638,
      "lat": 46.989236,
      "lon": 6.8788172,
      "tags": {
        "amenity": "cafe",
        "check_date": "2024-01-14",
        "name": "Chantemerle",
        "outdoor_seating": "yes"
      }
    },
    {
      "type": "node",
      "id": 4058091138,
      "lat": 46.9797519,
      "lon": 6.6068199,
      "tags": {
        "amenity": "restaurant",
        "email": "info@labrevinehoteldeville.ch",
        "mobile": "+41 79 240 50 40",
        "name": "Hôtel de Ville",
        "phone": "+41 32 938 20 00",
        "website": "https://www.labrevinehoteldeville.ch/"
      }
    },
    {
      "type": "node",
      "id": 4331929359,
      "lat": 47.0387285,
      "lon": 6.9230207,
      "tags": {
        "addr:city": "Engollon",
        "addr:housenumber": "4",
        "addr:postcode": "2063",
        "addr:street": "Rue de l’Eglise",
        "amenity": "restaurant",
        "name": "Terre Ô Fées",
        "opening_hours": "Th-Sa 08:30-23:00; Su 08:30-17:00",
        "phone": "+41 32 852 04 93",
        "website": "https://terreofees.ch/"
      }
    },
    {
      "type": "node",
      "id": 4337280057,
      "lat": 46.9969585,
      "lon": 6.937021,
      "tags": {
        "amenity": "restaurant",
        "cuisine": "sushi",
        "diet:vegan": "yes",
        "diet:vegetarian": "yes",
        "name": "Ekai",
        "opening_hours": "Mo-Fr 11:00-22:00; Sa, Su 11:00-21:00",
        "website": "http://www.ekai.ch/",
        "wheelchair": "yes"
      }
    },
    {
      "type": "node",
      "id": 4348499106,
      "lat": 47.0438371,
      "lon": 6.9004325,
      "tags": {
        "addr:city": "Fontaines",
        "addr:housenumber": "19",
        "addr:postcode": "2046",
        "addr:street": "Grand-Rue",
        "amenity": "restaurant",
        "cuisine": "pizza",
        "delivery": "no",
        "name": "Le Manoir de la Poste",
        "payment:cash": "yes",
        "payment:contactless": "yes",
        "smoking": "outside",
        "takeaway": "yes"
      }
    },
    {
      "type": "node",
      "id": 4377801426,
      "lat": 46.9228714,
      "lon": 6.6342031,
      "tags": {
        "amenity": "cafe",
        "cuisine": "regional",
        "name": "Bidal",
        "outdoor_seating": "yes",
        "shop": "bakery"
      }
    },
    {
      "type": "node",
      "id": 4456656557,
      "lat": 46.9662571,
      "lon": 6.8613908,
      "tags": {
        "addr:city": "Colombier",
        "addr:housenumber": "14",
        "addr:postcode": "2013",
        "addr:street": "Rue du Château",
        "amenity": "cafe",
        "name": "L'Amaretto"
      }
    },
    {
      "type": "node",
      "id": 4498868244,
      "lat": 46.991704,
      "lon": 6.9269317,
      "tags": {
        "addr:city": "Neuchâtel",
        "addr:housenumber": "10a",
        "addr:postcode": "2000",
        "addr:street": "Rue de la Collégiale",
        "amenity": "restaurant",
        "check_date:opening_hours": "2025-05-23",
        "name": "Café de la Collégiale",
        "opening_hours": "Tu-Fr 09:00-14:00,18:00-24:00; Sa 17:30-24:00",
        "phone": "+41 32 721 23 51",
        "website": "https://www.cafedelacollegiale.ch/",
        "wheelchair": "no"
      }
    },
    {
      "type": "node",
      "id": 4536437094,
      "lat": 46.989687,
      "lon": 6.9303166,
      "tags": {
        "addr:city": "Neuchâtel",
        "addr:country": "CH",
        "addr:housenumber": "3",
        "addr:postcode": "2000",
        "addr:street": "Rue de la Place-d'Armes",
        "amenity": "restaurant",
        "email": "neuchatel@abyssinia.ch",
        "name": "Abyssinia",
        "outdoor_seating": "yes",
        "phone": "+41 32 710 05 40",
        "smoking": "no",
        "website": "http://abyssinia-ne.ch/"
      }
    },
    {
      "type": "node",
      "id": 4683664881,
      "lat": 47.0277997,
      "lon": 6.7591688,
      "tags": {
        "addr:city": "La Sagne NE",
        "addr:country": "CH",
        "addr:housenumber": "257a",
        "addr:postcode": "2314",
        "addr:street": "Sommartel",
        "amenity": "restaurant",
        "beds": "16",
        "contact:email": "contact@grand-sommartel.ch",
        "contact:phone": "+41 32 931 17 27",
        "contact:website": "http://grand-sommartel.ch",
        "name": "Auberge du Grand-Sommartel",
        "opening_hours": "We-Sa 10:00-00:00; Su 10:00-18:00",
        "tourism": "hostel"
      }
    },
    {
      "type": "node",
      "id": 4922659423,
      "lat": 46.9902064,
      "lon": 6.9326937,
      "tags": {
        "amenity": "restaurant",
        "level": "0",
        "name": "La Marina",
        "outdoor_seating": "yes",
        "wheelchair": "yes"
      }
    },
    {
      "type": "node",
      "id": 4922659428,
      "lat": 46.9932459,
      "lon": 6.9272406,
      "tags": {
        "amenity": "fast_food",
        "cuisine": "kebab;pizza",
        "level": "0",
        "name": "Istanbul Pizza & Kebab",
        "takeaway": "yes"
      }
    },
    {
      "type": "node",
      "id": 4922659443,
      "lat": 46.9927922,
      "lon": 6.9280199,
      "tags": {
        "amenity": "fast_food",
        "cuisine": "japanese;sushi",
        "level": "0",
        "name": "Yamato Sushi Bar",
        "outdoor_seating": "yes"
      }
    },
    {
      "type": "node",
      "id": 4922659444,
      "lat": 46.990511,
      "lon": 6.9237936,
      "tags": {
        "amenity": "restaurant",
        "cuisine": "italian",
        "level": "0",
        "name": "Il Grotto",
        "outdoor_seating": "yes"
      }
    },
    {
      "type": "node",
      "id": 4922659446,
      "lat": 46.9927945,
      "lon": 6.9321279,
      "tags": {
        "addr:city": "Neuchâtel",
        "addr:housenumber": "4",
        "addr:postcode": "2000",
        "addr:street": "passage Maximilien de Meuron",
        "amenity": "restaurant",
        "level": "0",
        "name": "Chateau du passage",
        "phone": "+41",
        "toilets:wheelchair": "designated",
        "wheelchair": "yes"
      }
    },
    {
      "type": "node",
      "id": 4925962795,
      "lat": 47.0579173,
      "lon": 6.7482105,
      "tags": {
        "amenity": "cafe",
        "level": "0",
        "name": "Café du marché",
        "outdoor_seating": "yes"
      }
    },
    {
      "type": "node",
      "id": 4925962798,
      "lat": 47.0585682,
      "lon": 6.7489778,
      "tags": {
        "amenity": "restaurant",
        "diet:gluten_free": "yes",
        "level": "0",
        "name": "Crêperie du Lion d'Or",
        "outdoor_seating": "yes"
      }
    },
    {
      "type": "node",
      "id": 4925962799,
      "lat": 47.0580854,
      "lon": 6.7485352,
      "tags": {
        "amenity": "cafe",
        "level": "0",
        "name": "Le Moka",
        "outdoor_seating": "yes"
      }
    },
    {
      "type": "node",
      "id": 4925962802,
      "lat": 47.0580217,
      "lon": 6.7484098,
      "tags": {
        "alt_name": "Au Moka",
        "amenity": "restaurant",
        "level": "0",
        "name": "Le Moka"
      }
    },
    {
      "type": "node",
      "id": 4926230020,
      "lat": 47.103806,
      "lon": 6.8251592,
      "tags": {
        "amenity": "restaurant",
        "cuisine": "portuguese",
        "level": "0",
        "name": "Au détour",
        "opening_hours": "Mo-Sa 08:00-19:00",
        "outdoor_seating": "yes",
        "phone": "+41 32 914 01 61"
      }
    },
    {
      "type": "node",
      "id": 4933889038,
      "lat": 46.9905912,
      "lon": 6.9324574,
      "tags": {
        "amenity": "cafe",
        "name": "Le Bassin bleu",
        "outdoor_seating": "yes",
        "website": "https://www.lebassinbleu.ch/"
      }
    },
    {
      "type": "node",
      "id": 4970392821,
      "lat": 46.9574914,
      "lon": 6.7686324,
      "tags": {
        "amenity": "cafe",
        "name": "Café rive gauche",
        "name:fr": "Café rive gauche"
      }
    },
    {
      "type": "node",
      "id": 4972197708,
      "lat": 46.9365135,
      "lon": 6.7160435,
      "tags": {
        "addr:city": "Couvet",
        "addr:postcode": "2108",
        "addr:street": "Crux-du-Van",
        "amenity": "restaurant",
        "cuisine": "regional",
        "ele": "1386",
        "name": "Le Soliat",
        "opening_hours": "fin-avril - début-novembre",
        "outdoor_seating": "yes",
        "phone": "+41 32 863 31 36",
        "ref:refuges.info": "2883",
        "smoking": "outside",
        "tourism": "guest_house",
        "website": "https://www.lesoliat.ch/"
      }
    },
    {
      "type": "node",
      "id": 4985561624,
      "lat": 47.1041792,
      "lon": 6.8312194,
      "tags": {
        "amenity": "restaurant",
        "indoor_seating": "yes",
        "name": "Marché 6",
        "outdoor_seating": "yes"
      }
    },
    {
      "type": "node",
      "id": 4985561625,
      "lat": 47.10414,
      "lon": 6.8311158,
      "tags": {
        "amenity": "fast_food",
        "indoor_seating": "yes",
        "name": "Poké Moon",
        "outdoor_seating": "yes"
      }
    },
    {
      "type": "node",
      "id": 4985561627,
      "lat": 46.9663183,
      "lon": 6.8616409,
      "tags": {
        "amenity": "fast_food",
        "cuisine": "kebab",
        "name": "La Kebaberie",
        "name:fr": "La Kebaberie"
      }
    },
    {
      "type": "node",
      "id": 5039317824,
      "lat": 46.9111636,
      "lon": 6.6120906,
      "tags": {
        "addr:city": "Môtiers NE",
        "addr:housenumber": "8",
        "addr:postcode": "2112",
        "addr:street": "Rue Centrale",
        "amenity": "cafe",
        "description": "Chambres d'hôtes, café, concerts, exposition",
        "name": "A Côté",
        "phone": "+41 (0)79 240 13 13",
        "website": "http://www.acote-motiers.ch"
      }
    },
    {
      "type": "node",
      "id": 5175374821,
      "lat": 47.0112136,
      "lon": 7.0071659,
      "tags": {
        "amenity": "restaurant",
        "brand": "Migros Restaurant",
        "brand:wikidata": "Q111803848",
        "cuisine": "international",
        "internet_access": "wlan",
        "name": "Migros Restaurant",
        "operator": "Coopérative Migros Neuchâtel-Fribourg"
      }
    },
    {
      "type": "node",
      "id": 5318929323,
      "lat": 46.887167,
      "lon": 6.7633795,
      "tags": {
        "addr:city": "St-Aubin-Sauges",
        "addr:housenumber": "41",
        "addr:postcode": "2024",
        "addr:street": "Rue de la Fontanette",
        "amenity": "restaurant",
        "internet_access": "wlan",
        "name": "Maison du Village",
        "opening_hours": "We-Su 00:00-24:00",
        "operator": "Chef Marc Strebel",
        "phone": "+41328353272",
        "website": "https://maisonduvillage.ch/",
        "wikidata": "Q90151420"
      }
    },
    {
      "type": "node",
      "id": 5596950824,
      "lat": 47.0558301,
      "lon": 7.0722134,
      "tags": {
        "addr:housenumber": "1",
        "addr:postcode": "2525",
        "addr:street": "Route de la Piscine",
        "amenity": "restaurant",
        "name": "Restaurant La Piscine",
        "phone": "+41327512688"
      }
    },
    {
      "type": "node",
      "id": 5880948485,
      "lat": 46.9931431,
      "lon": 6.9369152,
      "tags": {
        "addr:city": "Neuchâtel",
        "addr:country": "CH",
        "addr:housenumber": "5",
        "addr:postcode": "2000",
        "addr:street": "Rue Jacques-Louis-de-Pourtalès",
        "amenity": "restaurant",
        "contact:facebook": "https://www.facebook.com/brasserieBart/",
        "contact:instagram": "brasserie_bart",
        "cuisine": "local",
        "name": "Brasserie B'Art",
        "opening_hours": "Tu-Sa 16:00-00:00",
        "phone": "+41 32 724 60 60",
        "website": "https://lebart.ch/"
      }
    },
    {
      "type": "node",
      "id": 5910466053,
      "lat": 47.091821,
      "lon": 7.076234,
      "tags": {
        "amenity": "cafe"
      }
    },
    {
      "type": "node",
      "id": 5976527758,
      "lat": 46.9257485,
      "lon": 6.6325272,
      "tags": {
        "addr:city": "Couvet",
        "addr:country": "CH",
        "addr:housenumber": "27",
        "addr:postcode": "2108",
        "addr:street": "Grand-Rue",
        "amenity": "restaurant",
        "name": "Restaurant de l'Aigle",
        "opening_hours": "May 15-Oct 31: Mo-Fr 06:00-23:00; Sa,Su 06:30-23:00; Nov 1-May 15:Mo-Su 11:00-14:00; Sa 06:30-23:00; Su 06:30-17:00",
        "phone": "+41 32 864 90 50",
        "website": "https://www.hotel-aigle.ch/"
      }
    },
    {
      "type": "node",
      "id": 6174623094,
      "lat": 47.0576267,
      "lon": 6.7493778,
      "tags": {
        "addr:housenumber": "25",
        "addr:street": "Rue Daniel JeanRichard",
        "amenity": "restaurant",
        "name": "Dom Brasas",
        "website": "https://www.facebook.com/Don-Brasas-493888300950506/"
      }
    },
    {
      "type": "node",
      "id": 6373921346,
      "lat": 46.9912757,
      "lon": 6.9288446,
      "tags": {
        "amenity": "fast_food",
        "check_date": "2023-12-07",
        "cuisine": "kebab",
        "name": "La Turquoise",
        "outdoor_seating": "no",
        "smoking": "no",
        "takeaway": "yes"
      }
    },
    {
      "type": "node",
      "id": 6421799786,
      "lat": 46.9921588,
      "lon": 6.9290161,
      "tags": {
        "addr:housenumber": "8",
        "addr:postcode": "2000",
        "addr:street": "Grand Rue",
        "amenity": "restaurant",
        "cuisine": "friture",
        "name": "Poulet Secret",
        "opening_hours": "24/7",
        "phone": "+41 78 659 59 36",
        "website": "https://pouletsecret.ch/"
      }
    },
    {
      "type": "node",
      "id": 6421800086,
      "lat": 46.9914069,
      "lon": 6.928721,
      "tags": {
        "amenity": "fast_food",
        "check_date": "2023-12-07",
        "cuisine": "kebab",
        "name": "La Turquoise"
      }
    },
    {
      "type": "node",
      "id": 6544563686,
      "lat": 47.0160772,
      "lon": 6.7854659,
      "tags": {
        "amenity": "cafe",
        "name": "Glace de la ferme",
        "shop": "farm",
        "vending": "food",
        "website": "https://glace-ducommun.ch"
      }
    },
    {
      "type": "node",
      "id": 6545151791,
      "lat": 47.1044521,
      "lon": 6.830382,
      "tags": {
        "addr:city": "La Chaux-de-Fonds",
        "addr:country": "CH",
        "addr:housenumber": "2",
        "addr:postcode": "2300",
        "addr:street": "Rue de la Serre",
        "amenity": "cafe",
        "contact:facebook": "https://www.facebook.com/levostok/",
        "name": "Le Vostok"
      }
    },
    {
      "type": "node",
      "id": 6594441891,
      "lat": 46.8911453,
      "lon": 6.7727816,
      "tags": {
        "amenity": "restaurant",
        "name": "L'optimiste"
      }
    },
    {
      "type": "node",
      "id": 6680552143,
      "lat": 46.9672276,
      "lon": 6.8125779,
      "tags": {
        "addr:city": "Chambrelien",
        "addr:housenumber": "4",
        "addr:postcode": "2019",
        "addr:street": "Route de la Gare",
        "amenity": "restaurant",
        "cuisine": "regional",
        "name": "Le Bistro LA LOCO",
        "opening_hours": "Mo-Tu closed; We-Fr 09:00-23:00",
        "phone": "+41 32 855 11 65",
        "website": "https://www.laloco.ch"
      }
    },
    {
      "type": "node",
      "id": 6840921927,
      "lat": 46.9489294,
      "lon": 6.8361167,
      "tags": {
        "amenity": "fast_food",
        "delivery": "yes",
        "name": "Speed Pizza",
        "opening_hours": "Mo, We, Th 10:00-13:00, 17:30-22:00; Fr, Sa 10:00-13:30, 17:30-23:00; Su 17:00-22:00",
        "phone": "+41 32 841 70 75",
        "website": "https://www.speed-pizza.ch"
      }
    },
    {
      "type": "node",
      "id": 6844580691,
      "lat": 46.9497923,
      "lon": 6.8387589,
      "tags": {
        "amenity": "restaurant",
        "name": "Café du tram"
      }
    },
    {
      "type": "node",
      "id": 6844584196,
      "lat": 46.9498267,
      "lon": 6.8389243,
      "tags": {
        "addr:housenumber": "11",
        "addr:street": "Avenue du college",
        "amenity": "restaurant",
        "name": "BÖLAMA burger & coffee",
        "opening_hours": "Tu-Su 09:00-14:30, 17:30-22:00",
        "phone": "0325542828"
      }
    },
    {
      "type": "node",
      "id": 6844584657,
      "lat": 46.948957,
      "lon": 6.8369265,
      "tags": {
        "amenity": "cafe",
        "instagram": "lefilament",
        "name": "Le Filament",
        "opening_hours": "We-Fr 08:30-12:00, 14:00-17:30; Sa 09:30-16:00",
        "takeaway": "yes",
        "website": "https://www.lefilament.ch"
      }
    },
    {
      "type": "node",
      "id": 6881398496,
      "lat": 46.945974,
      "lon": 6.7170386,
      "tags": {
        "amenity": "fast_food",
        "name": "Oeillons"
      }
    },
    {
      "type": "node",
      "id": 6898488937,
      "lat": 47.0995373,
      "lon": 6.8217243,
      "tags": {
        "addr:housenumber": "89",
        "addr:street": "Rue Jardinière",
        "amenity": "restaurant",
        "name": "Terra del Salento",
        "website": "https://terradelsalento.wordpress.com/"
      }
    },
    {
      "type": "node",
      "id": 6979502269,
      "lat": 47.1011461,
      "lon": 6.82498,
      "tags": {
        "amenity": "restaurant",
        "fixme": "check opening hours",
        "name": "Monna Lisa",
        "opening_hours": "Tu-Sa 11:30-14:00,18:30-22:00",
        "toilets": "yes",
        "wheelchair": "yes"
      }
    },
    {
      "type": "node",
      "id": 6996507905,
      "lat": 47.0946099,
      "lon": 6.8113606,
      "tags": {
        "addr:city": "La Chaux-de-Fonds",
        "addr:country": "CH",
        "addr:housenumber": "208",
        "addr:postcode": "2300",
        "addr:street": "Rue Numa-Droz",
        "amenity": "restaurant",
        "cuisine": "asian;chinese;japanese;vietnamese",
        "delivery": "yes",
        "name": "Le Lotus",
        "opening_hours": "Mo 17:30-22:00; Tu-Su 11:00-13:30,17:30-22:00",
        "outdoor_seating": "yes",
        "takeaway": "yes",
        "website": "https://www.le-lotus-restaurant.ch/"
      }
    },
    {
      "type": "node",
      "id": 7175760649,
      "lat": 46.9889817,
      "lon": 6.901664,
      "tags": {
        "amenity": "restaurant",
        "check_date": "2023-08-18",
        "name": "Bruno's Pizzeria"
      }
    },
    {
      "type": "node",
      "id": 7175995072,
      "lat": 46.9879531,
      "lon": 6.8887697,
      "tags": {
        "amenity": "restaurant",
        "name": "Jorgius",
        "opening_hours": "Tu-Th 18:00-22:00; Fr,Sa 18:00-23:00; Su 11:00-14:30"
      }
    },
    {
      "type": "node",
      "id": 7187611886,
      "lat": 47.054454,
      "lon": 7.0644255,
      "tags": {
        "addr:city": "Le Landeron",
        "addr:housenumber": "1",
        "addr:postcode": "2525",
        "addr:street": "Route de Neuchâtel",
        "amenity": "restaurant",
        "name": "Crêperie du Feu Rouge"
      }
    },
    {
      "type": "node",
      "id": 7242716274,
      "lat": 46.9645773,
      "lon": 6.858239,
      "tags": {
        "addr:city": "Colombier",
        "addr:housenumber": "36",
        "addr:postcode": "2013",
        "addr:street": "Rue Basse",
        "amenity": "restaurant",
        "name": "Restaurant Bar du Cheval Blanc"
      }
    },
    {
      "type": "node",
      "id": 7277490460,
      "lat": 47.0509534,
      "lon": 7.0754578,
      "tags": {
        "amenity": "restaurant",
        "name": "La capitainerie",
        "outdoor_seating": "yes",
        "toilets:wheelchair": "yes",
        "wheelchair": "yes"
      }
    },
    {
      "type": "node",
      "id": 7413954624,
      "lat": 47.0937557,
      "lon": 6.8241524,
      "tags": {
        "addr:city": "La Chaux-de-Fonds",
        "addr:housenumber": "40",
        "addr:postcode": "2300",
        "addr:street": "Rue des Gentianes",
        "amenity": "restaurant",
        "delivery": "yes",
        "name": "Happy Bowl - livraisons & take away",
        "takeaway": "only",
        "website": "https://happybowl.ch/"
      }
    },
    {
      "type": "node",
      "id": 7413954625,
      "lat": 47.1028736,
      "lon": 6.832066,
      "tags": {
        "addr:city": "La Chaux-de-Fonds",
        "addr:housenumber": "5-7",
        "addr:postcode": "2300",
        "addr:street": "Rue du Grenier",
        "amenity": "cafe",
        "capacity": "15",
        "name": "Black Drop Coffee - café et petite restauration",
        "outdoor_seating": "no",
        "website": "https://www.blackdropcoffee.ch/"
      }
    },
    {
      "type": "node",
      "id": 7528424940,
      "lat": 46.9911369,
      "lon": 6.9294632,
      "tags": {
        "amenity": "restaurant",
        "name": "L'étoile gourmande",
        "opening_hours": "Mo-Th 08:00-21:30; Fr,Sa 08:00-22:30; Su,PH 10:00-21:00"
      }
    },
    {
      "type": "node",
      "id": 7541168287,
      "lat": 47.1004775,
      "lon": 6.9898372,
      "tags": {
        "addr:city": "Le Pâquier NE",
        "addr:housenumber": "11",
        "addr:place": "La Petite Combe",
        "addr:postcode": "2058",
        "amenity": "restaurant",
        "entrance": "yes",
        "name": "Buvette de la petite Combe"
      }
    },
    {
      "type": "node",
      "id": 7541798732,
      "lat": 46.9956042,
      "lon": 6.9414068,
      "tags": {
        "addr:city": "Neuchâtel",
        "addr:housenumber": "16",
        "addr:postcode": "2000",
        "addr:street": "Rue de la Maladière",
        "amenity": "restaurant",
        "name": "Yak Thai"
      }
    },
    {
      "type": "node",
      "id": 7638645055,
      "lat": 47.1046948,
      "lon": 6.8312141,
      "tags": {
        "addr:housenumber": "15",
        "addr:street": "Rue de la Balance",
        "amenity": "restaurant",
        "cuisine": "indian",
        "diet:vegetarian": "yes",
        "name": "Maharaja",
        "opening_hours": "Mo-Sa 11:00-14:00, 18:00-24:00",
        "phone": "+41 32 968 03 40",
        "website": "https://maharajah.ch"
      }
    },
    {
      "type": "node",
      "id": 7639649685,
      "lat": 46.976561,
      "lon": 6.8778829,
      "tags": {
        "addr:city": "Auvernier",
        "addr:country": "CH",
        "addr:housenumber": "36",
        "addr:postcode": "2012",
        "addr:street": "Grand'Rue",
        "amenity": "restaurant",
        "cuisine": "regional",
        "name": "Pinte La Golée",
        "name:fr": "Pinte la Golée",
        "opening_hours": "Su-Th 16:00-01:00; Fr-Sa 16:00-02:00",
        "phone": "+41 32 731 67 46"
      }
    },
    {
      "type": "node",
      "id": 7639716668,
      "lat": 47.1038292,
      "lon": 6.8305202,
      "tags": {
        "amenity": "cafe",
        "indoor_seating": "yes",
        "name": "La Bohème",
        "outdoor_seating": "yes"
      }
    },
    {
      "type": "node",
      "id": 7640781985,
      "lat": 47.0257275,
      "lon": 6.9222174,
      "tags": {
        "addr:housenumber": "11",
        "addr:postcode": "2063",
        "addr:street": "Rue Léo-Chatelain",
        "amenity": "restaurant",
        "cuisine": "regional",
        "email": "contact@auberge.ch",
        "name": "Auberge du Chasseur",
        "phone": "+41 32 852 02 02",
        "website": "http://www.auberge.ch"
      }
    },
    {
      "type": "node",
      "id": 7644689536,
      "lat": 47.101043,
      "lon": 6.8279091,
      "tags": {
        "addr:city": "La Chaux-de-Fonds",
        "addr:country": "CH",
        "addr:housenumber": "14",
        "addr:postcode": "2300",
        "addr:street": "Rue Daniel-Jeanrichard",
        "amenity": "fast_food",
        "brand": "Panda Express",
        "brand:wikidata": "Q1358690",
        "cuisine": "chinese",
        "delivery": "yes",
        "name": "Panda Express",
        "opening_hours": "Mo-Sa 11:00-14:00,17:30-22:00; Su 17:30-22:00",
        "phone": "+41 32 913 50 50",
        "takeaway": "yes"
      }
    },
    {
      "type": "node",
      "id": 7644689537,
      "lat": 47.1007408,
      "lon": 6.8273632,
      "tags": {
        "amenity": "cafe",
        "name": "Bessa"
      }
    },
    {
      "type": "node",
      "id": 7650619718,
      "lat": 47.0677624,
      "lon": 6.704687,
      "tags": {
        "amenity": "restaurant",
        "cuisine": "regional",
        "name": "La Place",
        "outdoor_seating": "yes"
      }
    },
    {
      "type": "node",
      "id": 7678491834,
      "lat": 47.133806,
      "lon": 6.8475603,
      "tags": {
        "amenity": "restaurant",
        "cuisine": "regional",
        "name": "Restaurant les Pervenches",
        "phone": "+41 32 968 43 95",
        "website": "https://1903lespervenches.ch/"
      }
    },
    {
      "type": "node",
      "id": 7679819098,
      "lat": 47.1410052,
      "lon": 6.8558563,
      "tags": {
        "amenity": "restaurant",
        "cuisine": "regional",
        "name": "Reataurant Le Valanvron",
        "outdoor_seating": "yes"
      }
    },
    {
      "type": "node",
      "id": 7786936668,
      "lat": 47.0493441,
      "lon": 6.7214046,
      "tags": {
        "amenity": "cafe",
        "name": "Moulains souterrain slf service"
      }
    },
    {
      "type": "node",
      "id": 7798569002,
      "lat": 46.9904446,
      "lon": 6.9281781,
      "tags": {
        "amenity": "cafe",
        "name": "Apotheca pure food",
        "outdoor_seating": "yes",
        "wheelchair": "no"
      }
    },
    {
      "type": "node",
      "id": 8009585486,
      "lat": 46.9025235,
      "lon": 6.5787164,
      "tags": {
        "amenity": "restaurant",
        "name": "Crêperie chez Bach & Buck"
      }
    },
    {
      "type": "node",
      "id": 8016664550,
      "lat": 47.1107963,
      "lon": 6.8287679,
      "tags": {
        "amenity": "restaurant",
        "cuisine": "pizza;portuguese;regional",
        "name": "Cafétéria Rêverie",
        "opening_hours": "Mo 08:30-11:30; Tu-Th 08:30-14:30, 17:30-21:30; Fr 08:30-14:30,17:30-23:00; Sa 09:00-14:00",
        "website": "https://www.cafet-reverie.ch",
        "wheelchair": "limited"
      }
    },
    {
      "type": "node",
      "id": 8039195686,
      "lat": 46.9922258,
      "lon": 6.9286493,
      "tags": {
        "amenity": "cafe",
        "check_date": "2025-02-08",
        "cuisine": "coffee_shop",
        "name": "CofteArt",
        "opening_hours": "Mo 13:00-18:30; Tu-Fr 09:30-18:30; Sa 09:00-18:00; Su 13:00-18:00",
        "outdoor_seating": "no"
      }
    },
    {
      "type": "node",
      "id": 8130630513,
      "lat": 47.0448418,
      "lon": 6.9161517,
      "tags": {
        "amenity": "fast_food",
        "cuisine": "sandwich",
        "website": "https://buvette-piscine-dengollon.business.site/"
      }
    },
    {
      "type": "node",
      "id": 8142608750,
      "lat": 47.02625,
      "lon": 6.9564083,
      "tags": {
        "amenity": "restaurant",
        "name": "Petit Hôtel de Chaumont",
        "website": "https://www.petithotel.ch/fr/restaurant.html"
      }
    },
    {
      "type": "node",
      "id": 8243745463,
      "lat": 46.992832,
      "lon": 6.9294844,
      "tags": {
        "amenity": "restaurant",
        "name": "La cantine"
      }
    },
    {
      "type": "node",
      "id": 8264333250,
      "lat": 47.0559896,
      "lon": 7.06642,
      "tags": {
        "amenity": "cafe",
        "name": "Conrad",
        "website": "https://delicieux.ch/"
      }
    },
    {
      "type": "node",
      "id": 8280640453,
      "lat": 47.011384,
      "lon": 7.0068457,
      "tags": {
        "amenity": "fast_food",
        "brand": "Bagelstein",
        "brand:wikidata": "Q24354342",
        "cuisine": "bagel",
        "name": "Bagelstein",
        "website": "https://www.bagelstein.com/"
      }
    },
    {
      "type": "node",
      "id": 8354636934,
      "lat": 47.1036747,
      "lon": 6.8321807,
      "tags": {
        "addr:city": "La Chaux-de-Fonds",
        "addr:housenumber": "5",
        "addr:postcode": "2300",
        "addr:street": "Rue de la Balance",
        "amenity": "restaurant",
        "cuisine": "japanese",
        "name": "Hiro Omakase",
        "phone": "+41 32 964 10 10",
        "website": "https://hiro-restaurant.ch/"
      }
    },
    {
      "type": "node",
      "id": 8781435906,
      "lat": 46.9972278,
      "lon": 6.9476363,
      "tags": {
        "addr:city": "Neuchâtel",
        "addr:postcode": "2000",
        "addr:street": "Rue de la Maladière",
        "amenity": "fast_food",
        "cuisine": "sandwich",
        "name": "K&S",
        "opening_hours": "Mo-Fr 06:00-18:30",
        "payment:cards": "yes",
        "payment:cash": "yes"
      }
    },
    {
      "type": "node",
      "id": 8793069754,
      "lat": 47.1050012,
      "lon": 6.8332517,
      "tags": {
        "amenity": "restaurant",
        "name": "Tasca"
      }
    },
    {
      "type": "node",
      "id": 8793069763,
      "lat": 47.1039815,
      "lon": 6.8351731,
      "tags": {
        "addr:postcode": "2300",
        "amenity": "restaurant",
        "cuisine": "regional",
        "email": "restaurant@brasseriedeletoile.ch",
        "name": "Brasserie de l'Etoile",
        "opening_hours": "Mo 07:30-19:00; Tu-Fr 07:30-23:00; Sa 08:00-00:00; Su 10:00-22:00",
        "outdoor_seating": "yes",
        "phone": "+41 32 968 29 54",
        "website": "https://brasseriedeletoile.ch"
      }
    },
    {
      "type": "node",
      "id": 8820506917,
      "lat": 46.990521,
      "lon": 6.932085,
      "tags": {
        "addr:city": "Neuchâtel",
        "addr:housenumber": "1",
        "addr:postcode": "2000",
        "addr:street": "Place Numa-Droz",
        "amenity": "restaurant",
        "check_date:opening_hours": "2023-02-13",
        "cuisine": "buffet;sushi;asian",
        "name": "Wok Royal",
        "opening_hours": "Mo-Su 11:00-14:30,18:30-23:30",
        "phone": "+41 32 710 00 10",
        "website": "https://brasserie.wokroyal.ch/"
      }
    },
    {
      "type": "node",
      "id": 8843061615,
      "lat": 47.062611,
      "lon": 6.9176845,
      "tags": {
        "addr:city": "Chézard-Saint-Martin",
        "addr:country": "CH",
        "addr:housenumber": "9",
        "addr:postcode": "2054",
        "addr:street": "Grand-Rue",
        "amenity": "restaurant",
        "cuisine": "pizza",
        "delivery": "yes",
        "name": "Monopoly pizza",
        "phone": "+41 32 853 22 00",
        "takeaway": "only",
        "website": "http://www.pizzamonopoly.ch/"
      }
    },
    {
      "type": "node",
      "id": 8851329254,
      "lat": 47.0597557,
      "lon": 6.9018449,
      "tags": {
        "addr:city": "Cernier",
        "addr:country": "CH",
        "addr:housenumber": "13",
        "addr:postcode": "2053",
        "addr:street": "Rue de l'Epervier",
        "amenity": "fast_food",
        "cuisine": "kebab;pizza",
        "diet:halal": "yes",
        "internet_access": "wlan",
        "internet_access:fee": "no",
        "name": "Kebab du village",
        "opening_hours": "Mo-Su 11:00-15:00, 18:00-23:00",
        "outdoor_seating": "yes",
        "payment:cash": "yes",
        "payment:credit_cards": "no",
        "payment:debit_cards": "no",
        "phone": "+41 32 853 47 00",
        "smoking": "outside",
        "takeaway": "yes",
        "website": "https://kebabduvillage.ch",
        "wheelchair": "yes"
      }
    },
    {
      "type": "node",
      "id": 8857947025,
      "lat": 47.0587972,
      "lon": 6.9008737,
      "tags": {
        "amenity": "restaurant",
        "cuisine": "italian",
        "name": "La Delizia",
        "outdoor_seating": "yes",
        "smoking": "outside",
        "takeaway": "yes"
      }
    },
    {
      "type": "node",
      "id": 8864121510,
      "lat": 47.0599536,
      "lon": 6.902218,
      "tags": {
        "addr:city": "Cernier",
        "addr:country": "CH",
        "addr:housenumber": "17",
        "addr:postcode": "2053",
        "addr:street": "Rue de l'Epervier",
        "amenity": "restaurant",
        "cuisine": "asian",
        "delivery": "yes",
        "diet:kosher": "no",
        "email": "cernier@happybowl.ch",
        "name": "Happy Bowl",
        "opening_hours": "Mo-Su 11:30-13:30, 18:30-21:00",
        "phone": "+41 32 466 88 77",
        "takeaway": "yes",
        "website": "https://cernier.happybowl.ch/"
      }
    },
    {
      "type": "node",
      "id": 8903758185,
      "lat": 47.0642962,
      "lon": 6.9248351,
      "tags": {
        "addr:city": "Chézard-St-Martin",
        "addr:country": "CH",
        "addr:housenumber": "48",
        "addr:postcode": "2054",
        "addr:street": "Grand-Rue",
        "amenity": "cafe",
        "name": "Au café complet",
        "phone": "+41 32 853 25 56",
        "shop": "convenience",
        "website": "http://www.aucafecomplet.ch/"
      }
    },
    {
      "type": "node",
      "id": 8904537908,
      "lat": 47.0592429,
      "lon": 6.902644,
      "tags": {
        "amenity": "restaurant",
        "name": "1er Mars"
      }
    },
    {
      "type": "node",
      "id": 8928826686,
      "lat": 46.9994643,
      "lon": 6.7337051,
      "tags": {
        "addr:city": "Les Ponts-de-Martel",
        "addr:country": "CH",
        "addr:housenumber": "3",
        "addr:postcode": "2316",
        "addr:street": "Rue Major-Benoît",
        "amenity": "restaurant",
        "name": "Hôtel-Restaurant du Cerf",
        "phone": "+41 78 212 24 64"
      }
    },
    {
      "type": "node",
      "id": 8983936353,
      "lat": 47.1022825,
      "lon": 6.8276228,
      "tags": {
        "amenity": "cafe",
        "name": "OYO Bubble Tea",
        "wheelchair": "no"
      }
    },
    {
      "type": "node",
      "id": 8983936377,
      "lat": 47.1036335,
      "lon": 6.8296906,
      "tags": {
        "addr:city": "La Chaux-de-Fonds",
        "addr:country": "CH",
        "addr:housenumber": "16",
        "addr:postcode": "2300",
        "addr:street": "Rue Charles-Edouard-Guillaume",
        "amenity": "cafe",
        "name": "Marji's Sweety",
        "opening_hours": "Tu-Fr 10:00-18:30; Sa 09:00-12:30",
        "takeaway": "yes",
        "website": "https://marjis-sweetys.ch/",
        "wheelchair": "no"
      }
    },
    {
      "type": "node",
      "id": 8983936378,
      "lat": 47.1038927,
      "lon": 6.830049,
      "tags": {
        "addr:city": "La Chaux-de-Fonds",
        "addr:country": "CH",
        "addr:housenumber": "7b",
        "addr:postcode": "2300",
        "addr:street": "Rue de la Serre",
        "amenity": "restaurant",
        "name": "Le Big Bang"
      }
    },
    {
      "type": "node",
      "id": 8985498669,
      "lat": 47.1003506,
      "lon": 6.8323611,
      "tags": {
        "addr:city": "La Chaux-de-Fonds",
        "addr:country": "CH",
        "addr:housenumber": "19",
        "addr:postcode": "2300",
        "addr:street": "Rue du Manège",
        "amenity": "cafe",
        "contact:website": "https://lamusebar.ch/",
        "cuisine": "regional",
        "diet:vegan": "yes",
        "email": "lamusebar@gmail.com",
        "name": "L'Amuse Bar",
        "opening_hours": "Mo 15:00-22:00; We 14:00-22:00; Th 14:00-00:00; Fr 15:00-01:00; Sa 11:00-01:00; Su 11:00-19:00",
        "phone": "+41 32 964 15 13",
        "restaurant": "yes",
        "website": "http://www.lamusebar.ch/"
      }
    },
    {
      "type": "node",
      "id": 8988143331,
      "lat": 47.1010393,
      "lon": 6.8292745,
      "tags": {
        "addr:city": "La Chaux-de-Fonds",
        "addr:country": "CH",
        "addr:housenumber": "27",
        "addr:postcode": "2300",
        "addr:street": "Rue Jaquet-Droz",
        "amenity": "cafe",
        "cuisine": "tapas",
        "internet_access": "yes",
        "name": "Société de Consommation",
        "opening_hours": "Mo 14:00-22:00; We-Th 14:00-22:00; Fr 14:00-23:00; Sa 14:00-22:00; Su 14:00-20:00",
        "outdoor_seating": "yes"
      }
    },
    {
      "type": "node",
      "id": 8988949261,
      "lat": 47.0946923,
      "lon": 6.8422116,
      "tags": {
        "amenity": "restaurant",
        "diet:halal": "no",
        "diet:kosher": "no",
        "diet:vegetarian": "no",
        "name": "Restaurant des Tunnles",
        "opening_hours": "Mo 11:00-14:30; Tu-Fr 11:00-14:30, 18:30-22:30; Sa 18:30-23:30",
        "phone": "+41 32 968 20 01",
        "website": "https://www.restaurantdestunnels.ch/",
        "wheelchair": "no"
      }
    },
    {
      "type": "node",
      "id": 8988949262,
      "lat": 47.0944994,
      "lon": 6.8419709,
      "tags": {
        "addr:city": "La Chaux-de-Fonds",
        "addr:country": "CH",
        "addr:housenumber": "114",
        "addr:postcode": "2300",
        "addr:street": "Rue de l'Hôtel-de-Ville",
        "amenity": "restaurant",
        "name": "La Parenthese",
        "opening_hours": "Tu-Fr 11:30-14:00, 18:30-23:00; Sa 18:30-23:00",
        "phone": "+41 32 968 03 89",
        "website": "https://www.la-parenthese.ch/"
      }
    },
    {
      "type": "node",
      "id": 8999101889,
      "lat": 47.0990083,
      "lon": 6.8229143,
      "tags": {
        "addr:city": "La Chaux-de-Fonds",
        "addr:country": "CH",
        "addr:housenumber": "76",
        "addr:postcode": "2300",
        "addr:street": "Avenue Léopold-Robert",
        "amenity": "restaurant",
        "cuisine": "kebab;pizza",
        "delivery": "Mo-Sa 11:00-14:00, 17:00-24:00",
        "name": "La T'Chaux",
        "opening_hours": "Mo-Fr 00:00-01:00,11:00-24:00; Sa 00:00-02:00,11:00-24:00; Su 00:00-02:00,11:30-24:00",
        "outdoor_seating": "yes",
        "phone": "+41 32 913 17 86",
        "takeaway": "yes",
        "website": "https://latchauxkebab.ch/"
      }
    },
    {
      "type": "node",
      "id": 9002230916,
      "lat": 47.0978171,
      "lon": 6.8367426,
      "tags": {
        "amenity": "restaurant",
        "diet:halal": "no",
        "diet:kosher": "no",
        "diet:vegetarian": "no"
      }
    },
    {
      "type": "node",
      "id": 9002237625,
      "lat": 47.0993649,
      "lon": 6.8356916,
      "tags": {
        "addr:city": "La Chaux-de-Fonds",
        "addr:country": "CH",
        "addr:housenumber": "50",
        "addr:postcode": "2300",
        "addr:street": "Rue de L'Hôtel-de-Ville",
        "amenity": "restaurant",
        "diet:halal": "no",
        "diet:kosher": "no",
        "diet:vegan": "no",
        "diet:vegetarian": "yes",
        "name": "Cheyenne Café",
        "wheelchair": "no"
      }
    },
    {
      "type": "node",
      "id": 9124792171,
      "lat": 47.1125738,
      "lon": 6.8356982,
      "tags": {
        "addr:city": "La Chaux-de-Fonds",
        "addr:country": "CH",
        "addr:housenumber": "73b",
        "addr:postcode": "2300",
        "addr:street": "Rue de la Charrière",
        "amenity": "restaurant",
        "name": "des sports",
        "phone": "+41 32 968 61 61"
      }
    },
    {
      "type": "node",
      "id": 9124792174,
      "lat": 47.1156796,
      "lon": 6.8441402,
      "tags": {
        "addr:city": "La Chaux-de-Fonds",
        "addr:country": "CH",
        "addr:housenumber": "125",
        "addr:postcode": "2300",
        "addr:street": "Rue de la Charrière",
        "amenity": "restaurant",
        "email": "info@barrosrestaurant.ch",
        "name": "Barros",
        "opening_hours": "Tu-Su 10:15-15:00; We,Fr 10:15-21:30",
        "operator": "Restaurant des Cadolles",
        "outdoor_seating": "yes",
        "phone": "+41 32 721 30 15",
        "takeaway": "yes",
        "website": "https://barrosrestaurant.ch/",
        "wheelchair": "yes"
      }
    },
    {
      "type": "node",
      "id": 9212608089,
      "lat": 46.9850116,
      "lon": 6.8765888,
      "tags": {
        "addr:city": "Corcelles",
        "addr:housenumber": "1",
        "addr:postcode": "2035",
        "addr:street": "Rue du Petit-Berne",
        "amenity": "fast_food",
        "cuisine": "pizza",
        "name": "Liza",
        "opening_hours": "Tu-Su 17:30-22:00",
        "phone": "+41 32 731 05 05"
      }
    },
    {
      "type": "node",
      "id": 9372980819,
      "lat": 47.1030409,
      "lon": 6.8287257,
      "tags": {
        "addr:housenumber": "21",
        "addr:street": "rue de la Serre",
        "amenity": "restaurant",
        "name": "Hall des Sens",
        "opening_hours": "Tu,We 09:00-14:45; Th,Fr 09:00-14:45,17:30-23:00; Sa 07:00-16:15",
        "phone": "+41 32 914 07 14",
        "website": "https://cinq-sens.ch/la-halle-des-sens/#restaurant"
      }
    },
    {
      "type": "node",
      "id": 9612525968,
      "lat": 47.0719966,
      "lon": 6.8695973,
      "tags": {
        "amenity": "restaurant",
        "name": "Relais de la vue des Alpes"
      }
    },
    {
      "type": "node",
      "id": 9734140384,
      "lat": 47.0942254,
      "lon": 6.8113225,
      "tags": {
        "amenity": "cafe",
        "name": "Café des Forges"
      }
    },
    {
      "type": "node",
      "id": 9861379437,
      "lat": 47.0941952,
      "lon": 6.8167595,
      "tags": {
        "amenity": "restaurant",
        "brand": "Coop Restaurant",
        "brand:wikidata": "Q432564",
        "name": "Coop Restaurant",
        "opening_hours": "Mo-We,Fr 07:30-19:00; Th 07:30-20:00; Sa 07:30-18:00"
      }
    },
    {
      "type": "node",
      "id": 9861379444,
      "lat": 47.0937508,
      "lon": 6.8160128,
      "tags": {
        "amenity": "cafe",
        "name": "xpresso Café"
      }
    },
    {
      "type": "node",
      "id": 9861379445,
      "lat": 47.0938168,
      "lon": 6.8154542,
      "tags": {
        "amenity": "restaurant",
        "cuisine": "pizza",
        "name": "La Gondola"
      }
    },
    {
      "type": "node",
      "id": 9928852234,
      "lat": 47.0088755,
      "lon": 6.9754575,
      "tags": {
        "amenity": "cafe",
        "name": "Hauterive Beach Buvette Autos-Rives"
      }
    },
    {
      "type": "node",
      "id": 9954021531,
      "lat": 46.952683,
      "lon": 6.8446421,
      "tags": {
        "amenity": "restaurant",
        "cuisine": "regional",
        "name": "Du Pervou",
        "website": "https://restaurantdupervou.wordpress.com/"
      }
    },
    {
      "type": "node",
      "id": 9986139493,
      "lat": 46.9029342,
      "lon": 6.5817746,
      "tags": {
        "amenity": "restaurant",
        "name": "Anna's italian & pizza"
      }
    },
    {
      "type": "node",
      "id": 9986151875,
      "lat": 46.923806,
      "lon": 6.5919949,
      "tags": {
        "amenity": "restaurant",
        "name": "Café - Restaurant Mont de Bouveresse"
      }
    },
    {
      "type": "node",
      "id": 10050817543,
      "lat": 46.9925984,
      "lon": 6.9353655,
      "tags": {
        "addr:city": "Neuchâtel",
        "addr:housenumber": "1",
        "addr:postcode": "2000",
        "addr:street": "Rue Jean-Jacques-Lallemand",
        "amenity": "restaurant",
        "cuisine": "mexican",
        "indoor_seating": "yes",
        "name": "Cactus",
        "opening_hours": "Tu-Sa 11:30-14:00; Tu-Th 18:30-22:30; Fr-Sa 18:30-23:30",
        "outdoor_seating": "yes",
        "phone": "+41 32 710 08 68",
        "website": "http://www.cactus-resto.ch/"
      }
    },
    {
      "type": "node",
      "id": 10073034231,
      "lat": 46.9952071,
      "lon": 6.9415655,
      "tags": {
        "addr:city": "Neuchâtel",
        "addr:housenumber": "11",
        "addr:postcode": "2000",
        "addr:street": "Rue de la Pierre-à-Mazel",
        "amenity": "restaurant",
        "cuisine": "japanese;sushi",
        "name": "Tokyo Eat",
        "opening_hours": "Mo-Sa 11:00-14:00,17:30-22:15; Su 17:30-22:15",
        "phone": "+41 32 725 42 42",
        "toilets:wheelchair": "no",
        "website": "https://www.tokyo-eat.ch/",
        "wheelchair": "yes"
      }
    },
    {
      "type": "node",
      "id": 10073054556,
      "lat": 46.9956589,
      "lon": 6.9416703,
      "tags": {
        "addr:city": "Neuchâtel",
        "addr:housenumber": "18",
        "addr:postcode": "2000",
        "addr:street": "Rue de la Maladière",
        "amenity": "fast_food",
        "cuisine": "kebab;pizza",
        "name": "Pizza / Kebab Arc-en-Ciel",
        "opening_hours": "Mo-Su 17:30-21:00",
        "phone": "+41327212282",
        "website": "https://www.pizzakebabarc-en-ciel.ch"
      }
    },
    {
      "type": "node",
      "id": 10073056782,
      "lat": 46.9962112,
      "lon": 6.9403414,
      "tags": {
        "addr:city": "Neuchâtel",
        "addr:housenumber": "2",
        "addr:postcode": "2000",
        "addr:street": "Rue Edmond-de-Reynier",
        "amenity": "fast_food",
        "cuisine": "poke",
        "diet:vegetarian": "yes",
        "name": "Happy Bowl",
        "opening_hours": "Mo-Su 11:30-13:30,18:00-21:00",
        "phone": "+41 32 725 98 88",
        "website": "https://happybowlneuchatel.ch/"
      }
    },
    {
      "type": "node",
      "id": 10128865557,
      "lat": 47.0994648,
      "lon": 6.8262118,
      "tags": {
        "addr:city": "La Chaux-de-Fonds",
        "addr:postcode": "2300",
        "addr:street": "Rue des Musées",
        "amenity": "restaurant",
        "name": "Dolce Vita",
        "note": "ATM im Restaurant",
        "phone": "+41 329133327",
        "survey:date": "2022-10-25"
      }
    },
    {
      "type": "node",
      "id": 10130917908,
      "lat": 46.9928889,
      "lon": 6.9359632,
      "tags": {
        "amenity": "restaurant",
        "name": "Big Brother Tacos"
      }
    },
    {
      "type": "node",
      "id": 10130934584,
      "lat": 46.9924491,
      "lon": 6.9355085,
      "tags": {
        "amenity": "restaurant",
        "cuisine": "mexican",
        "name": "Cactus restaurant méxicain",
        "opening_hours": "Tu-Th 11:30-14:30,18:30-22:30; Fr,Sa 11:30-14:30,18:30-23:30"
      }
    },
    {
      "type": "node",
      "id": 10161143715,
      "lat": 46.9778838,
      "lon": 6.810112,
      "tags": {
        "amenity": "restaurant",
        "cuisine": "regional",
        "email": "info@restaurant-des-communes.ch",
        "name": "Restaurant des Communes",
        "opening_hours": "Mo-Tu 07:30-14:00,16:30-23:00; Th-Fr 07:30-14:00,16:30-23:00; Sa 08:00-14:00; Su 08:00-14:00",
        "phone": "+41 32 855 20 45",
        "website": "https://www.restaurant-des-communes.ch"
      }
    },
    {
      "type": "node",
      "id": 10179124693,
      "lat": 47.1075083,
      "lon": 6.8313113,
      "tags": {
        "amenity": "fast_food",
        "cuisine": "kebab",
        "name": "Charrière"
      }
    },
    {
      "type": "node",
      "id": 10179124698,
      "lat": 47.1077367,
      "lon": 6.8312563,
      "tags": {
        "amenity": "fast_food",
        "cuisine": "barbecue",
        "name": "happy one grill"
      }
    },
    {
      "type": "node",
      "id": 10180677443,
      "lat": 47.0578347,
      "lon": 6.7481029,
      "tags": {
        "amenity": "fast_food",
        "cuisine": "pizza",
        "name": "Méditerranée"
      }
    },
    {
      "type": "node",
      "id": 10180677444,
      "lat": 47.0574764,
      "lon": 6.7485023,
      "tags": {
        "amenity": "fast_food",
        "cuisine": "kebab",
        "name": "La Cantine du Locle"
      }
    },
    {
      "type": "node",
      "id": 10292066218,
      "lat": 46.9558884,
      "lon": 6.8314934,
      "tags": {
        "amenity": "restaurant",
        "cuisine": "regional",
        "name": "Café du Pont"
      }
    },
    {
      "type": "node",
      "id": 10296894285,
      "lat": 46.9489186,
      "lon": 6.8337769,
      "tags": {
        "addr:housenumber": "2",
        "addr:street": "Route de Grandson",
        "amenity": "restaurant",
        "name": "Auberge des vieux toits",
        "opening_hours": "Tu-Fr 08:00-14:00,17:00-23:00; Sa 17:00-23:00",
        "phone": "+41 32 525 97 97",
        "website": "https://www.vieuxtoits.com"
      }
    },
    {
      "type": "node",
      "id": 10314636952,
      "lat": 47.0558604,
      "lon": 6.7470555,
      "tags": {
        "amenity": "restaurant",
        "name": "Casino"
      }
    },
    {
      "type": "node",
      "id": 10314636953,
      "lat": 47.0569239,
      "lon": 6.7482008,
      "tags": {
        "amenity": "fast_food"
      }
    },
    {
      "type": "node",
      "id": 10314636954,
      "lat": 47.0574998,
      "lon": 6.7491146,
      "tags": {
        "amenity": "cafe",
        "name": "Cafe Guesthouse"
      }
    },
    {
      "type": "node",
      "id": 10314636962,
      "lat": 47.0595529,
      "lon": 6.7512405,
      "tags": {
        "addr:housenumber": "4",
        "addr:postcode": "2400",
        "addr:street": "Rue Marie-Anne-Calame",
        "amenity": "restaurant",
        "cuisine": "thai",
        "name": "Le Piment Vert",
        "phone": "+41 32 932 22 10"
      }
    },
    {
      "type": "node",
      "id": 10314636964,
      "lat": 47.0593492,
      "lon": 6.7517547,
      "tags": {
        "amenity": "cafe",
        "name": "Café Post"
      }
    },
    {
      "type": "node",
      "id": 10314636965,
      "lat": 47.0607062,
      "lon": 6.7538138,
      "tags": {
        "amenity": "restaurant",
        "cuisine": "pizza",
        "name": "La Piccola Italia"
      }
    },
    {
      "type": "node",
      "id": 10314636966,
      "lat": 47.0609091,
      "lon": 6.7541948,
      "tags": {
        "addr:city": "Le Locle",
        "addr:country": "CH",
        "addr:housenumber": "10",
        "addr:postcode": "2400",
        "addr:street": "Rue du Marais",
        "amenity": "restaurant",
        "cuisine": "fine_dining;local",
        "email": "info@lacroisette.ch",
        "name": "La Croisette",
        "opening_hours": "Mo 06:45-14:15; Tu-Fr 06:45-14:15,17:00-24:00; Sa 17:00-24:00",
        "operator": "Food & Beverages François Berner",
        "phone": "+41 32 931 35 30",
        "website": "https://www.lacroisette.ch"
      }
    },
    {
      "type": "node",
      "id": 10595846894,
      "lat": 47.059053,
      "lon": 6.7510134,
      "tags": {
        "amenity": "restaurant",
        "diet:gluten_free": "yes",
        "name": "Brasserie de l'Ancienne Poste"
      }
    },
    {
      "type": "node",
      "id": 10608244140,
      "lat": 46.9158538,
      "lon": 6.5135714,
      "tags": {
        "amenity": "restaurant",
        "name": "Café du Cercle"
      }
    },
    {
      "type": "node",
      "id": 10608484857,
      "lat": 47.1026654,
      "lon": 6.8315581,
      "tags": {
        "addr:city": "La Chaux-de-Fonds",
        "addr:country": "CH",
        "addr:housenumber": "1",
        "addr:postcode": "2300",
        "addr:street": "Rue Jaquet-Droz",
        "amenity": "cafe",
        "name": "City Bar",
        "opening_hours": "Tu-Th 16:00-24:00; Fr,Sa 00:00-02:15,16:00-24:00"
      }
    },
    {
      "type": "node",
      "id": 10608484859,
      "lat": 47.1022301,
      "lon": 6.8312192,
      "tags": {
        "addr:city": "La Chaux-de-Fonds",
        "addr:country": "CH",
        "addr:housenumber": "5",
        "addr:postcode": "2300",
        "addr:street": "Rue Jaquet-Droz",
        "amenity": "cafe",
        "email": "info@admir-cafes.ch",
        "level": "0",
        "name": "Admin cafés",
        "opening_hours": "Mo-Fr 08:00-12:00,13:30-18:30; Sa 08:00-15:00",
        "phone": "+41 32 535 10 78",
        "website": "https://admir-cafes.ch/"
      }
    },
    {
      "type": "node",
      "id": 10649502694,
      "lat": 46.9870018,
      "lon": 6.8891806,
      "tags": {
        "amenity": "restaurant",
        "name": "Auberge du Grand Pin",
        "outdoor_seating": "yes"
      }
    },
    {
      "type": "node",
      "id": 10704129390,
      "lat": 46.9939886,
      "lon": 6.9448989,
      "tags": {
        "amenity": "restaurant",
        "name": "Café des amis",
        "wheelchair": "no"
      }
    },
    {
      "type": "node",
      "id": 10735942064,
      "lat": 47.1009254,
      "lon": 6.8281518,
      "tags": {
        "amenity": "cafe",
        "name": "Crême Renversante Café"
      }
    },
    {
      "type": "node",
      "id": 10735942066,
      "lat": 47.1035508,
      "lon": 6.8318781,
      "tags": {
        "addr:city": "La Chaux-de-Fonds",
        "addr:housenumber": "4",
        "addr:postcode": "2300",
        "addr:street": "Passage du Centre",
        "amenity": "restaurant",
        "cuisine": "vietnamese;kebab",
        "name": "Thi Thu",
        "phone": "+41 78 791 44 56"
      }
    },
    {
      "type": "node",
      "id": 10842792679,
      "lat": 47.1046877,
      "lon": 6.831725,
      "tags": {
        "addr:city": "La Chaux-de-Fonds",
        "addr:housenumber": "12",
        "addr:postcode": "2300",
        "addr:street": "Rue de la Balance",
        "amenity": "cafe",
        "contact:facebook": "lesiloenvrac",
        "contact:instagram": "lesiloenvrac",
        "name": "Le Silo",
        "opening_hours": "Tu-Fr 09:00-18:30; Sa 09:00-16:00",
        "organic": "yes",
        "website": "https://lesilo.net/"
      }
    },
    {
      "type": "node",
      "id": 10875619635,
      "lat": 46.996555,
      "lon": 6.9359217,
      "tags": {
        "amenity": "fast_food",
        "brand": "Brezelkönig",
        "brand:wikidata": "Q111728604",
        "cuisine": "pretzel",
        "level": "0",
        "name": "Brezelkönig",
        "opening_hours": "Mo-Sa 05:00-21:00; Su 06:00-20:00",
        "takeaway": "only"
      }
    },
    {
      "type": "node",
      "id": 10946240507,
      "lat": 47.0507461,
      "lon": 7.0643447,
      "tags": {
        "amenity": "restaurant",
        "name": "Aquarium"
      }
    },
    {
      "type": "node",
      "id": 10962016405,
      "lat": 47.0565446,
      "lon": 7.0707702,
      "tags": {
        "addr:city": "Le Landeron",
        "addr:housenumber": "21",
        "addr:postcode": "2525",
        "addr:street": "La Russie",
        "amenity": "restaurant",
        "name": "Happy Bowl",
        "website": "https://happybowl.ch/"
      }
    },
    {
      "type": "node",
      "id": 11041650205,
      "lat": 47.0162925,
      "lon": 6.977034,
      "tags": {
        "addr:postcode": "2068",
        "addr:street": "Chemin du Centre-Sportif",
        "amenity": "restaurant",
        "name": "Chez Calzette",
        "phone": "0788574148"
      }
    },
    {
      "type": "node",
      "id": 11054781249,
      "lat": 47.0211868,
      "lon": 7.0300858,
      "tags": {
        "amenity": "restaurant",
        "contact:facebook": "https://www.facebook.com/people/Restaurant-Le-Verger/100054425473141/",
        "contact:phone": "+41 32 753 05 59",
        "name": "Restaurant Le Verger"
      }
    },
    {
      "type": "node",
      "id": 11200075820,
      "lat": 46.9923931,
      "lon": 6.9318853,
      "tags": {
        "amenity": "fast_food",
        "check_date": "2024-04-23",
        "cuisine": "falafel",
        "diet:vegetarian": "yes",
        "name": "Chef Falafel",
        "opening_hours": "Mo-Sa 11:00-21:00"
      }
    },
    {
      "type": "node",
      "id": 11212778795,
      "lat": 47.0102134,
      "lon": 6.9828801,
      "tags": {
        "amenity": "fast_food",
        "name": "La Paillote"
      }
    },
    {
      "type": "node",
      "id": 11279211646,
      "lat": 47.097909,
      "lon": 6.822179,
      "tags": {
        "addr:city": "La Chaux-de-Fonds",
        "addr:country": "CH",
        "addr:housenumber": "79",
        "addr:postcode": "2300",
        "addr:street": "Avenue Léopold-Robert",
        "amenity": "restaurant",
        "name": "Le Mocambo",
        "opening_hours": "Mo-Su 00:00-01:00,08:00-24:00; Tu-Fr 08:00-24:00",
        "outdoor_seating": "yes",
        "phone": "+41 32 913 30 30",
        "takeaway": "yes",
        "website": "https://lemocambo.ch/"
      }
    },
    {
      "type": "node",
      "id": 11281776272,
      "lat": 47.1002756,
      "lon": 6.8265865,
      "tags": {
        "addr:city": "La Chaux-de-Fonds",
        "addr:country": "CH",
        "addr:housenumber": "51",
        "addr:postcode": "2300",
        "addr:street": "Avenue Léopold-Robert",
        "amenity": "cafe",
        "email": "arcadesresto@gmail.com",
        "name": "Café des Arcades",
        "opening_hours": "Mo-Sa 08:00-19:00",
        "operator": "Marie-Christine, Irène et Denis",
        "outdoor_seating": "no",
        "website": "https://www.arcadescafe.ch/",
        "wheelchair": "limited"
      }
    },
    {
      "type": "node",
      "id": 11364007569,
      "lat": 47.0551252,
      "lon": 6.742493,
      "tags": {
        "addr:postcode": "2400",
        "amenity": "restaurant",
        "name": "Pizzeria du monde",
        "phone": "+41 32 501 83 88",
        "website": "https://www.restaurantdumonde.ch/"
      }
    },
    {
      "type": "node",
      "id": 11369606996,
      "lat": 47.0978303,
      "lon": 6.8154129,
      "tags": {
        "addr:city": "La Chaux-de-Fonds",
        "addr:country": "CH",
        "addr:housenumber": "3",
        "addr:postcode": "2300",
        "addr:street": "Rue du Cernil-Antoine",
        "amenity": "restaurant",
        "cuisine": "regional",
        "name": "Le Quartier",
        "opening_hours": "Mo-Fr 07:00-14:15,17:00-23:30; 07:00-24:00",
        "outdoor_seating": "yes",
        "phone": "+41 32 924 40 40",
        "source": "orthophotos2006sitn50cm",
        "website": "https://www.restaurant-le-comptoir.ch/",
        "wheelchair": "yes"
      }
    },
    {
      "type": "node",
      "id": 11369606997,
      "lat": 47.1083601,
      "lon": 6.8311903,
      "tags": {
        "addr:city": "La Chaux-de-Fonds",
        "addr:country": "CH",
        "addr:housenumber": "21",
        "addr:postcode": "2300",
        "addr:street": "Rue de la Charrière",
        "amenity": "restaurant",
        "cuisine": "portuguese",
        "fixme": "check opening hours",
        "name": "Chez Tony",
        "opening_hours": "Mo-Fr 08:00-22:00; Tu off; Sa 08:00-14:00; Su 08:00-16:00",
        "phone": "+41 32 968 06 23",
        "reservation": "recommended"
      }
    },
    {
      "type": "node",
      "id": 11398256269,
      "lat": 47.0843739,
      "lon": 6.8023966,
      "tags": {
        "amenity": "restaurant",
        "name": "XL Bowling",
        "opening_hours": "Su, Tu-We 14:00-23:00; Th 14:00-00:00; Fr-Sa 14:00-02:00",
        "website": "http://xlbowling.ch/"
      }
    },
    {
      "type": "node",
      "id": 11398256370,
      "lat": 47.0671369,
      "lon": 6.8621501,
      "tags": {
        "amenity": "cafe",
        "name": "Buvette du Téléski du Crêt-Meuron"
      }
    },
    {
      "type": "node",
      "id": 11400985819,
      "lat": 46.991069,
      "lon": 6.9282,
      "tags": {
        "amenity": "restaurant",
        "name": "Thai Express Food",
        "opening_hours": "Mo-Sa 11:00-14:00,17:30-20:30"
      }
    },
    {
      "type": "node",
      "id": 11400990307,
      "lat": 46.9909533,
      "lon": 6.928229,
      "tags": {
        "amenity": "restaurant",
        "name": "Hôtel restaurant du marché"
      }
    },
    {
      "type": "node",
      "id": 11400998483,
      "lat": 46.9912025,
      "lon": 6.9283091,
      "tags": {
        "amenity": "restaurant",
        "cuisine": "sushi",
        "name": "Oryza sushi"
      }
    },
    {
      "type": "node",
      "id": 11423266670,
      "lat": 46.9914287,
      "lon": 6.932135,
      "tags": {
        "addr:housenumber": "10",
        "addr:postcode": "2000",
        "addr:street": "Faubourg du Lac",
        "amenity": "restaurant",
        "cuisine": "asian",
        "name": "Bambou Sushi bar",
        "opening_hours": "Tu-Sa 10:30-14:30, 17:30-23:30; Su-Mo 17:30-23:30",
        "phone": "+41 32 721 35 35",
        "website": "https://bambousushibar.ch/n/"
      }
    },
    {
      "type": "node",
      "id": 11468954178,
      "lat": 47.1057703,
      "lon": 6.8475511,
      "tags": {
        "addr:city": "La Chaux-de-Fonds",
        "addr:housenumber": "6",
        "addr:postcode": "2300",
        "addr:street": "Les Petites-Crosettes",
        "amenity": "restaurant",
        "cuisine": "regional",
        "name": "Ferme des Brandt",
        "opening_hours": "Tu 11:00-15:00, 18:30-24:00; Th-Sa 11:00-15:00, 18:30-24:00; Su 11:00-17:00",
        "opening_hours:url": "http://www.fermedesbrandt.ch/site_brandt/information.html",
        "phone": "+41 32 968 59 89",
        "smoking": "outside",
        "takeaway": "no",
        "website": "https://www.fermedesbrandt.ch/"
      }
    },
    {
      "type": "node",
      "id": 11471577017,
      "lat": 47.0320118,
      "lon": 6.8687785,
      "tags": {
        "amenity": "fast_food",
        "contact:facebook": "https://www.facebook.com/wshbneeatery/",
        "contact:instagram": "https://www.instagram.com/wishboneeatery/",
        "name": "Wishbone Eatery",
        "website": "https://www.wshbne.com"
      }
    },
    {
      "type": "node",
      "id": 11476104790,
      "lat": 46.9928763,
      "lon": 6.9281017,
      "tags": {
        "amenity": "restaurant",
        "name": "Shriganesh"
      }
    },
    {
      "type": "node",
      "id": 11476398323,
      "lat": 46.9907895,
      "lon": 6.9287079,
      "tags": {
        "amenity": "cafe",
        "name": "Bar de la Place"
      }
    },
    {
      "type": "node",
      "id": 11516133210,
      "lat": 47.036563,
      "lon": 7.022617,
      "tags": {
        "addr:city": "Cornaux NE",
        "addr:housenumber": "16",
        "addr:postcode": "2087",
        "addr:street": "Grand-Pont",
        "amenity": "restaurant",
        "email": "lacantinevertecornaux@gmail.com",
        "name": "La Cantine Verte",
        "opening_hours": "Mo-Tu 08:00-16:00; We-Fr 08:00-22:00; Sa 18:00-23:00; Su 08:00-16:00",
        "phone": "+41 32 757 37 27",
        "website": "https://www.lacantineverte.ch/"
      }
    },
    {
      "type": "node",
      "id": 11561040880,
      "lat": 47.0988995,
      "lon": 6.8219738,
      "tags": {
        "addr:housenumber": "92",
        "addr:street": "Rue de la Serre",
        "amenity": "restaurant",
        "description": "restaurant social",
        "name": "Ekir",
        "opening_hours": "Mo, Tu, Th, Fr 12:00-13:30",
        "phone": "+4177 451 39 85"
      }
    },
    {
      "type": "node",
      "id": 11582289569,
      "lat": 47.0556983,
      "lon": 6.744055,
      "tags": {
        "addr:housenumber": "19",
        "addr:street": "Rue de France",
        "amenity": "restaurant",
        "cuisine": "italian",
        "name": "La Vita e bella",
        "phone": "+41 32 932 24 48",
        "website": "https://www.lavita-e-bella.ch"
      }
    },
    {
      "type": "node",
      "id": 11603654015,
      "lat": 47.0575948,
      "lon": 6.7476147,
      "tags": {
        "amenity": "restaurant",
        "name": "Maravilhas de Portugal"
      }
    },
    {
      "type": "node",
      "id": 11698560628,
      "lat": 46.9965692,
      "lon": 6.9406178,
      "tags": {
        "addr:city": "Neuchâtel",
        "addr:housenumber": "10",
        "addr:street": "Avenue de Clos-Brochet",
        "amenity": "restaurant",
        "facebook": "https://www.facebook.com/people/Restaurant-Trait-dunion/100095147604929/",
        "instagram": "restauranttraitdunion",
        "name": "Trait d'Union",
        "opening_hours": "Mo-Fr 12:00-14:00",
        "phone": "+41 77 440 94 51",
        "website": "https://restauranttraitdunion.my.canva.site/"
      }
    },
    {
      "type": "node",
      "id": 11760507924,
      "lat": 46.9939359,
      "lon": 6.9335153,
      "tags": {
        "amenity": "restaurant",
        "name": "Hôtel DuPeyrou",
        "source": "Orthophotos2006sitn50cm",
        "website": "https://dupeyrou.ch",
        "wheelchair": "no"
      }
    },
    {
      "type": "node",
      "id": 11766281169,
      "lat": 47.0987229,
      "lon": 6.8250632,
      "tags": {
        "amenity": "cafe",
        "name": "Le buffet espresso"
      }
    },
    {
      "type": "node",
      "id": 11782363511,
      "lat": 46.9553863,
      "lon": 6.7220694,
      "tags": {
        "addr:city": "Noiraigue",
        "addr:country": "CH",
        "addr:housenumber": "4",
        "addr:place": "Place de la Gare",
        "addr:postcode": "2103",
        "amenity": "restaurant",
        "email": "info@aubergedenoiraigue.ch",
        "name": "L'Auberge de Noiraigue",
        "phone": "+41 32 566 13 60",
        "website": "https://aubergedenoiraigue.ch/"
      }
    },
    {
      "type": "node",
      "id": 11795980585,
      "lat": 46.9426736,
      "lon": 6.8590388,
      "tags": {
        "amenity": "restaurant",
        "name": "Brassreie de la vouivre"
      }
    },
    {
      "type": "node",
      "id": 11795982406,
      "lat": 46.9442249,
      "lon": 6.8453318,
      "tags": {
        "amenity": "fast_food",
        "name": "Kebab",
        "outdoor_seating": "no"
      }
    },
    {
      "type": "node",
      "id": 11816919578,
      "lat": 47.0941767,
      "lon": 6.8105192,
      "tags": {
        "addr:housenumber": "7",
        "addr:postcode": "2300",
        "addr:street": "Avenue Charles-Naine",
        "amenity": "fast_food",
        "cuisine": "burger;kebab;pizza;turkish",
        "name": "Pizzeria Kebab des Forges",
        "opening_hours": "Su-Th 10:30-14:00, 16:30-22:30; Fr-Sa 10:30-14:00, 16:30-23:30",
        "phone": "+41 32 922 62 39"
      }
    },
    {
      "type": "node",
      "id": 11920273470,
      "lat": 46.9983644,
      "lon": 6.9569274,
      "tags": {
        "amenity": "fast_food",
        "name": "Buvette 2"
      }
    },
    {
      "type": "node",
      "id": 11948235370,
      "lat": 47.104831,
      "lon": 6.8311471,
      "tags": {
        "amenity": "restaurant",
        "cuisine": "japanese;sushi",
        "name": "SUSHIYA",
        "opening_hours": "Mo-Sa 11:30-14:30, 17:30-22:30",
        "phone": "+41 32 968 15 80",
        "website": "https://www.sushiya.ch"
      }
    },
    {
      "type": "node",
      "id": 12017113269,
      "lat": 46.9972213,
      "lon": 6.9477676,
      "tags": {
        "addr:housenumber": "98",
        "amenity": "restaurant",
        "cuisine": "pasta",
        "name": "A L'emportée",
        "phone": "+41 32 725 68 96"
      }
    },
    {
      "type": "node",
      "id": 12033724769,
      "lat": 47.1017628,
      "lon": 6.8342674,
      "tags": {
        "amenity": "fast_food",
        "diet:vegetarian": "yes",
        "name": "Fresh Burger's",
        "phone": "+41 32 964 11 12"
      }
    },
    {
      "type": "node",
      "id": 12055126469,
      "lat": 47.1039561,
      "lon": 6.8317081,
      "tags": {
        "amenity": "fast_food",
        "name": "Take-Away Burger Tartare Panini",
        "opening_hours": "Mo-Su 10:00-14:00, 17:00-20:30",
        "phone": "+41 32 968 81 81"
      }
    },
    {
      "type": "node",
      "id": 12177248912,
      "lat": 47.0131555,
      "lon": 6.9869761,
      "tags": {
        "amenity": "fast_food",
        "name": "Pizza Napoli Kebab",
        "phone": "0327535838",
        "website": "napoli-pizza.ch"
      }
    },
    {
      "type": "node",
      "id": 12197722861,
      "lat": 47.0516545,
      "lon": 7.037803,
      "tags": {
        "amenity": "restaurant",
        "check_date": "2024-09-24",
        "cuisine": "regional",
        "internet_access": "no",
        "name": "Hôtel De La Croix Blanche",
        "payment:cash": "yes",
        "payment:contactless": "yes",
        "payment:credit_cards": "yes",
        "payment:debit_cards": "yes",
        "wheelchair": "limited"
      }
    },
    {
      "type": "node",
      "id": 12197722862,
      "lat": 47.0519323,
      "lon": 7.0362993,
      "tags": {
        "addr:housenumber": "3",
        "addr:street": "Rue des Saint-Martin",
        "amenity": "fast_food",
        "check_date": "2024-09-24",
        "cuisine": "pizza;kebab",
        "drive_through": "no",
        "internet_access": "no",
        "level": "0",
        "name": "Pizza Torino",
        "opening_hours": "Mo 10:30-12:45,17:30-20:45; Tu,Su off; We-Sa 10:30-12:45,16:30-20:45",
        "opening_hours:drive_through": "Mo,We-Sa 10:45-13:45",
        "payment:cash": "yes",
        "payment:contactless": "yes",
        "payment:credit_cards": "yes",
        "payment:debit_cards": "yes",
        "wheelchair": "limited"
      }
    },
    {
      "type": "node",
      "id": 12206140601,
      "lat": 46.9969901,
      "lon": 6.9263922,
      "tags": {
        "amenity": "restaurant",
        "name": "La casa de la pizza",
        "opening_hours": "Su-Th 18:00-22:00; Fr-Sa 18:00-23:00",
        "website": "https://www.lacasadelapizza.ch"
      }
    },
    {
      "type": "node",
      "id": 12236052401,
      "lat": 47.0997024,
      "lon": 6.8235468,
      "tags": {
        "amenity": "restaurant",
        "cuisine": "asian;indian",
        "email": "neerthi01@hotmail.com",
        "name": "Krishna",
        "opening_hours": "Mo-Sa 10:00-14:30, 17:00-22:00",
        "phone": "+41 32 913 37 36;+41 78 698 98 28",
        "website": "http://krishnatakeaway.ch/index.html"
      }
    },
    {
      "type": "node",
      "id": 12277879759,
      "lat": 47.0997679,
      "lon": 6.8254817,
      "tags": {
        "addr:city": "La Chaux-de-Fonds",
        "addr:housenumber": "61",
        "addr:postcode": "2300",
        "addr:street": "Avenue Léopold-Robert",
        "amenity": "restaurant",
        "cuisine": "middle_eastern",
        "diet:halal": "yes",
        "diet:vegan": "yes",
        "diet:vegetarian": "yes",
        "name": "Chef Falafel",
        "phone": "+41 79 199 09 87",
        "website": "https://www.cheffalafel.com/"
      }
    },
    {
      "type": "node",
      "id": 12285076174,
      "lat": 46.9829131,
      "lon": 6.9038276,
      "tags": {
        "amenity": "fast_food",
        "fast_food": "cafeteria",
        "name": "Cafétéria fondation alphaset",
        "opening_hours": "Mo-Fr 07:00-15:00"
      }
    },
    {
      "type": "node",
      "id": 12285081803,
      "lat": 46.9825805,
      "lon": 6.9026334,
      "tags": {
        "amenity": "fast_food",
        "name": "Serrières pizza-kebab",
        "opening_hours": "Mo-Fr 10:30-14:00,17:30-22:00; Su 17:30-22:00"
      }
    },
    {
      "type": "node",
      "id": 12339968001,
      "lat": 47.1090199,
      "lon": 6.837923,
      "tags": {
        "addr:housenumber": "55a",
        "addr:street": "Rue du Collège",
        "amenity": "restaurant",
        "name": "Boccia club le montagnard"
      }
    },
    {
      "type": "node",
      "id": 12438419171,
      "lat": 47.1036375,
      "lon": 6.8312241,
      "tags": {
        "addr:housenumber": "6",
        "addr:street": "Rue Neuve",
        "amenity": "restaurant",
        "name": "Crêperie les 3 lanternes",
        "opening_hours": "Tu-Sa 11:30-14:00, 17:30-22:00; Su 11:30-21:00",
        "website": "https://www.crperieles3lanternes.ch"
      }
    },
    {
      "type": "node",
      "id": 12461101901,
      "lat": 47.119972,
      "lon": 7.0033003,
      "tags": {
        "addr:housenumber": "4",
        "addr:postcode": "2058",
        "addr:street": "Les Bugnenets",
        "amenity": "restaurant",
        "cuisine": "regional",
        "email": "info@restaurant-sportifs.ch",
        "name": "Restaurant des Sportifs",
        "phone": "+41 32  853 19 41",
        "self_service": "partially",
        "website": "https://restaurant-sportifs.ch/"
      }
    },
    {
      "type": "node",
      "id": 12532267589,
      "lat": 46.9811394,
      "lon": 6.8715916,
      "tags": {
        "amenity": "restaurant"
      }
    },
    {
      "type": "node",
      "id": 12532267590,
      "lat": 46.9804147,
      "lon": 6.868577,
      "tags": {
        "amenity": "cafe",
        "name": "Café de la Vigne"
      }
    },
    {
      "type": "node",
      "id": 12549126101,
      "lat": 46.9924805,
      "lon": 6.9330489,
      "tags": {
        "addr:street": "Ruelle du Port",
        "amenity": "restaurant",
        "email": "info@restaurant-entracte.ch",
        "name": "L'Entr'Acte",
        "opening_hours": "Mo-Tu 11:30-14:30; We 11:30-14:30, 17:30-22:00; Th-Fr 11:30-14:30, 17:30-22:30; Sa 16:00-22:00; Su 10:30-21:00",
        "phone": "+41 32 544 79 96",
        "website": "https://www.restaurant-entracte.ch/"
      }
    },
    {
      "type": "node",
      "id": 12563632501,
      "lat": 47.1001142,
      "lon": 6.8238201,
      "tags": {
        "addr:postcode": "2300",
        "amenity": "restaurant",
        "email": "info@cercleunion.ch",
        "name": "Cercle de l'union",
        "phone": "+41 32 914 03 52",
        "website": "https://cercleunion.ch/"
      }
    },
    {
      "type": "node",
      "id": 12613197424,
      "lat": 47.0565842,
      "lon": 7.0678155,
      "tags": {
        "amenity": "restaurant"
      }
    },
    {
      "type": "node",
      "id": 12613655624,
      "lat": 47.0044492,
      "lon": 6.9647479,
      "tags": {
        "addr:city": "Neuchâtel",
        "addr:housenumber": "2",
        "addr:postcode": "2000",
        "addr:street": "Route des Gouttes d'Or",
        "amenity": "restaurant",
        "name": "La Table du Palafitte",
        "website": "https://www.palafitte.ch/"
      }
    },
    {
      "type": "node",
      "id": 12788833001,
      "lat": 47.004814,
      "lon": 6.9614993,
      "tags": {
        "amenity": "restaurant",
        "cuisine": "pizza",
        "name": "Tony's Bar Palumbi",
        "opening_hours": "Mo 07:00-19:00; Tu-Fr 07:00-23:00; Sa 08:00-14:00; Su 08:30-12:00"
      }
    },
    {
      "type": "node",
      "id": 12804555001,
      "lat": 46.9907818,
      "lon": 6.9282356,
      "tags": {
        "amenity": "restaurant",
        "cuisine": "italian;italian_pizza;pizza",
        "name": "Da John",
        "opening_hours": "Mo-Th 10:00-23:00; Fr-Sa 10:00-01:00; Su 10:00-22:00",
        "phone": "+41782536371",
        "website:menu": "https://codeqr.menu/da-john-bar-pizzeria/dessert"
      }
    },
    {
      "type": "node",
      "id": 12825880968,
      "lat": 47.0654815,
      "lon": 6.6984604,
      "tags": {
        "addr:city": "Les Brenets",
        "addr:housenumber": "1",
        "addr:postcode": "2416",
        "addr:street": "Le Champ de la Fontaine",
        "amenity": "restaurant",
        "check_date:opening_hours": "2025-05-10",
        "name": "Restaurant Bellevue",
        "opening_hours": "Apr: Mo off; Apr: Tu-Sa 09:00-15:00,17:00-23:00; Jul-Aug: Mo-Sa 08:30-23:00; Jul-Aug: Su 08:30-18:00; Sep-Jun: Mo off",
        "phone": "+41 32 931 14 21",
        "website": "https://www.restaurant-bellevue-les-brenets.ch/"
      }
    }
  ]
}